<?xml version="1.0" encoding="UTF-8"?>
<gpx creator="StravaGPX" version="1.1" xmlns="http://www.topografix.com/GPX/1/1" xmlns:xsi="http://www.w3.org/2001/XMLSchema-instance" xsi:schemaLocation="http://www.topografix.com/GPX/1/1 http://www.topografix.com/GPX/1/1/gpx.xsd">
 <metadata>
  <name>Short baan pal cafe</name>
  <author>
   <name>Vladimir Sumarokov 🇰🇿🇷🇺🇹🇭</name>
   <link href="https://www.strava.com/athletes/16069938"/>
  </author>
  <copyright author="OpenStreetMap contributors">
   <year>2020</year>
   <license>https://www.openstreetmap.org/copyright</license>
  </copyright>
  <link href="https://www.strava.com/routes/3191917518105891758"/>
 </metadata>
 <trk>
  <name>Short baan pal cafe</name>
  <link href="https://www.strava.com/routes/3191917518105891758"/>
  <type>cycling</type>
  <trkseg>
   <trkpt lat="12.54288" lon="99.96385000000001">
    <ele>10.83</ele>
   </trkpt>
   <trkpt lat="12.542080000115835" lon="99.96399500043647">
    <ele>10.85</ele>
   </trkpt>
   <trkpt lat="12.54128" lon="99.96414000000001">
    <ele>11.19</ele>
   </trkpt>
   <trkpt lat="12.54058" lon="99.96426000000001">
    <ele>11.590000000000002</ele>
   </trkpt>
   <trkpt lat="12.54024" lon="99.96428">
    <ele>11.590000000000002</ele>
   </trkpt>
   <trkpt lat="12.539950000000001" lon="99.96425">
    <ele>11.760000000000002</ele>
   </trkpt>
   <trkpt lat="12.539700000000002" lon="99.96417000000001">
    <ele>11.760000000000002</ele>
   </trkpt>
   <trkpt lat="12.539470000000001" lon="99.96405000000001">
    <ele>11.8</ele>
   </trkpt>
   <trkpt lat="12.53931" lon="99.96394000000001">
    <ele>11.9</ele>
   </trkpt>
   <trkpt lat="12.53916" lon="99.9638">
    <ele>12.25</ele>
   </trkpt>
   <trkpt lat="12.53903" lon="99.96365">
    <ele>12.66</ele>
   </trkpt>
   <trkpt lat="12.538910000000001" lon="99.96346000000001">
    <ele>13.06</ele>
   </trkpt>
   <trkpt lat="12.53875" lon="99.96308">
    <ele>14.14</ele>
   </trkpt>
   <trkpt lat="12.538546669094217" lon="99.96226999872484">
    <ele>16.110000000000003</ele>
   </trkpt>
   <trkpt lat="12.538343335761724" lon="99.96145999872822">
    <ele>15.76</ele>
   </trkpt>
   <trkpt lat="12.53814" lon="99.96065">
    <ele>13.02</ele>
   </trkpt>
   <trkpt lat="12.538060000000002" lon="99.96047000000002">
    <ele>11.760000000000002</ele>
   </trkpt>
   <trkpt lat="12.537930000000001" lon="99.96024000000001">
    <ele>9.860000000000001</ele>
   </trkpt>
   <trkpt lat="12.537770000000002" lon="99.96005000000001">
    <ele>9.09</ele>
   </trkpt>
   <trkpt lat="12.537500000000001" lon="99.95982000000001">
    <ele>8.09</ele>
   </trkpt>
   <trkpt lat="12.537170000000001" lon="99.95966000000001">
    <ele>7.48</ele>
   </trkpt>
   <trkpt lat="12.53683" lon="99.95959">
    <ele>7.260000000000001</ele>
   </trkpt>
   <trkpt lat="12.53659" lon="99.95959">
    <ele>7.180000000000001</ele>
   </trkpt>
   <trkpt lat="12.536380000000001" lon="99.95962000000002">
    <ele>7.25</ele>
   </trkpt>
   <trkpt lat="12.535940000000002" lon="99.95972">
    <ele>7.680000000000001</ele>
   </trkpt>
   <trkpt lat="12.535114286409543" lon="99.9599685762039">
    <ele>8.010000000000002</ele>
   </trkpt>
   <trkpt lat="12.534288572590603" lon="99.96021715081486">
    <ele>8.219999999999999</ele>
   </trkpt>
   <trkpt lat="12.533462858543196" lon="99.96046572383294">
    <ele>8.16</ele>
   </trkpt>
   <trkpt lat="12.532637144267342" lon="99.9607142952583">
    <ele>8.030000000000001</ele>
   </trkpt>
   <trkpt lat="12.531811429763058" lon="99.96096286509105">
    <ele>7.96</ele>
   </trkpt>
   <trkpt lat="12.530985715030363" lon="99.96121143333129">
    <ele>7.88</ele>
   </trkpt>
   <trkpt lat="12.53016" lon="99.96146">
    <ele>7.92</ele>
   </trkpt>
   <trkpt lat="12.529387778508768" lon="99.96168333868586">
    <ele>8.100000000000001</ele>
   </trkpt>
   <trkpt lat="12.528615556833168" lon="99.96190667603385">
    <ele>8.06</ele>
   </trkpt>
   <trkpt lat="12.527843334973218" lon="99.96213001204403">
    <ele>7.8900000000000015</ele>
   </trkpt>
   <trkpt lat="12.527071112928931" lon="99.96235334671648">
    <ele>8.200000000000001</ele>
   </trkpt>
   <trkpt lat="12.526298890700321" lon="99.96257668005134">
    <ele>8.55</ele>
   </trkpt>
   <trkpt lat="12.525526668287394" lon="99.96280001204869">
    <ele>9.600000000000001</ele>
   </trkpt>
   <trkpt lat="12.52475444569017" lon="99.96302334270861">
    <ele>10.280000000000001</ele>
   </trkpt>
   <trkpt lat="12.52398222290866" lon="99.96324667203119">
    <ele>10.94</ele>
   </trkpt>
   <trkpt lat="12.52321" lon="99.96347000000002">
    <ele>11.4</ele>
   </trkpt>
   <trkpt lat="12.52240250027556" lon="99.96368750203881">
    <ele>10.900000000000002</ele>
   </trkpt>
   <trkpt lat="12.521595000376356" lon="99.96390500271592">
    <ele>11.39</ele>
   </trkpt>
   <trkpt lat="12.520787500302406" lon="99.96412250203146">
    <ele>11.930000000000001</ele>
   </trkpt>
   <trkpt lat="12.51998" lon="99.96434">
    <ele>13.31</ele>
   </trkpt>
   <trkpt lat="12.519144000422532" lon="99.96458400316692">
    <ele>14.650000000000002</ele>
   </trkpt>
   <trkpt lat="12.51830800062517" lon="99.96482800475276">
    <ele>15.590000000000002</ele>
   </trkpt>
   <trkpt lat="12.51747200060794" lon="99.96507200475769">
    <ele>15.65</ele>
   </trkpt>
   <trkpt lat="12.51663600037085" lon="99.96531600318175">
    <ele>14.790000000000001</ele>
   </trkpt>
   <trkpt lat="12.5158" lon="99.96556000000001">
    <ele>13.680000000000001</ele>
   </trkpt>
   <trkpt lat="12.51508750025309" lon="99.96577000173633">
    <ele>13.680000000000001</ele>
   </trkpt>
   <trkpt lat="12.51437500034335" lon="99.9659800023133">
    <ele>14.07</ele>
   </trkpt>
   <trkpt lat="12.51366250027079" lon="99.96619000173104">
    <ele>14.260000000000002</ele>
   </trkpt>
   <trkpt lat="12.512950000000002" lon="99.96640000000001">
    <ele>14.530000000000001</ele>
   </trkpt>
   <trkpt lat="12.512960000000001" lon="99.96662">
    <ele>13.590000000000002</ele>
   </trkpt>
   <trkpt lat="12.51228" lon="99.9668">
    <ele>12.98</ele>
   </trkpt>
   <trkpt lat="12.511805000148406" lon="99.96689000014031">
    <ele>12.88</ele>
   </trkpt>
   <trkpt lat="12.511330000000001" lon="99.96698">
    <ele>12.790000000000001</ele>
   </trkpt>
   <trkpt lat="12.510990000000001" lon="99.96706">
    <ele>12.93</ele>
   </trkpt>
   <trkpt lat="12.510790000000002" lon="99.96708000000001">
    <ele>12.92</ele>
   </trkpt>
   <trkpt lat="12.509954285963394" lon="99.96723143151239">
    <ele>12.870000000000001</ele>
   </trkpt>
   <trkpt lat="12.50911857184215" lon="99.9673828620446">
    <ele>12.68</ele>
   </trkpt>
   <trkpt lat="12.50828285763628" lon="99.96753429159675">
    <ele>12.010000000000002</ele>
   </trkpt>
   <trkpt lat="12.507447143345788" lon="99.96768572016889">
    <ele>11.53</ele>
   </trkpt>
   <trkpt lat="12.506611428970679" lon="99.96783714776109">
    <ele>11.53</ele>
   </trkpt>
   <trkpt lat="12.505775714510962" lon="99.96798857437346">
    <ele>11.340000000000002</ele>
   </trkpt>
   <trkpt lat="12.504940000000001" lon="99.96814">
    <ele>11.18</ele>
   </trkpt>
   <trkpt lat="12.504750000000001" lon="99.96820000000001">
    <ele>10.94</ele>
   </trkpt>
   <trkpt lat="12.504010000120276" lon="99.96833200151372">
    <ele>10.700000000000001</ele>
   </trkpt>
   <trkpt lat="12.503270000176274" lon="99.96846400227125">
    <ele>10.3</ele>
   </trkpt>
   <trkpt lat="12.502530000167994" lon="99.96859600227266">
    <ele>10.17</ele>
   </trkpt>
   <trkpt lat="12.50179000009544" lon="99.96872800151804">
    <ele>10.17</ele>
   </trkpt>
   <trkpt lat="12.501050000000001" lon="99.96886">
    <ele>10.200000000000001</ele>
   </trkpt>
   <trkpt lat="12.500304999976835" lon="99.96896000029386">
    <ele>10.46</ele>
   </trkpt>
   <trkpt lat="12.49956" lon="99.96906000000001">
    <ele>10.32</ele>
   </trkpt>
   <trkpt lat="12.49889999998356" lon="99.96918000031425">
    <ele>10.23</ele>
   </trkpt>
   <trkpt lat="12.498240000000001" lon="99.9693">
    <ele>10.71</ele>
   </trkpt>
   <trkpt lat="12.49816" lon="99.96933000000001">
    <ele>10.71</ele>
   </trkpt>
   <trkpt lat="12.4981" lon="99.96940000000001">
    <ele>10.66</ele>
   </trkpt>
   <trkpt lat="12.49802" lon="99.96962">
    <ele>10.66</ele>
   </trkpt>
   <trkpt lat="12.497980000000002" lon="99.96963000000001">
    <ele>10.66</ele>
   </trkpt>
   <trkpt lat="12.49796" lon="99.96978000000001">
    <ele>10.520000000000001</ele>
   </trkpt>
   <trkpt lat="12.49788" lon="99.96978000000001">
    <ele>10.520000000000001</ele>
   </trkpt>
   <trkpt lat="12.49788" lon="99.96974">
    <ele>10.520000000000001</ele>
   </trkpt>
   <trkpt lat="12.49779" lon="99.96954000000001">
    <ele>10.6</ele>
   </trkpt>
   <trkpt lat="12.49731" lon="99.96964000000001">
    <ele>10.610000000000001</ele>
   </trkpt>
   <trkpt lat="12.49721" lon="99.96962">
    <ele>10.610000000000001</ele>
   </trkpt>
   <trkpt lat="12.49713" lon="99.96957">
    <ele>10.610000000000001</ele>
   </trkpt>
   <trkpt lat="12.496830000000001" lon="99.96957">
    <ele>10.08</ele>
   </trkpt>
   <trkpt lat="12.49614" lon="99.96967000000001">
    <ele>10.17</ele>
   </trkpt>
   <trkpt lat="12.495654999933977" lon="99.96970000006047">
    <ele>10.200000000000001</ele>
   </trkpt>
   <trkpt lat="12.495170000000002" lon="99.96973000000001">
    <ele>9.79</ele>
   </trkpt>
   <trkpt lat="12.495000000000001" lon="99.96971">
    <ele>9.53</ele>
   </trkpt>
   <trkpt lat="12.49454" lon="99.96974">
    <ele>9.14</ele>
   </trkpt>
   <trkpt lat="12.4944" lon="99.96977000000001">
    <ele>8.950000000000001</ele>
   </trkpt>
   <trkpt lat="12.49413" lon="99.96976000000001">
    <ele>8.72</ele>
   </trkpt>
   <trkpt lat="12.493679999970293" lon="99.96978500004523">
    <ele>8.81</ele>
   </trkpt>
   <trkpt lat="12.49323" lon="99.96981000000001">
    <ele>8.8</ele>
   </trkpt>
   <trkpt lat="12.49272" lon="99.96974">
    <ele>8.81</ele>
   </trkpt>
   <trkpt lat="12.492134999938612" lon="99.9697950001307">
    <ele>8.870000000000001</ele>
   </trkpt>
   <trkpt lat="12.49155" lon="99.96985000000001">
    <ele>9.07</ele>
   </trkpt>
   <trkpt lat="12.491380000000001" lon="99.96988">
    <ele>9.07</ele>
   </trkpt>
   <trkpt lat="12.490614999846896" lon="99.96991500011065">
    <ele>9.28</ele>
   </trkpt>
   <trkpt lat="12.48985" lon="99.96995000000001">
    <ele>9.250000000000002</ele>
   </trkpt>
   <trkpt lat="12.489310000000001" lon="99.97002">
    <ele>9.38</ele>
   </trkpt>
   <trkpt lat="12.48882" lon="99.97003000000001">
    <ele>9.39</ele>
   </trkpt>
   <trkpt lat="12.488290000000001" lon="99.97016">
    <ele>9.45</ele>
   </trkpt>
   <trkpt lat="12.487830000094556" lon="99.97023000011146">
    <ele>9.39</ele>
   </trkpt>
   <trkpt lat="12.48737" lon="99.97030000000001">
    <ele>9.39</ele>
   </trkpt>
   <trkpt lat="12.48648" lon="99.97038">
    <ele>9.48</ele>
   </trkpt>
   <trkpt lat="12.485999999944653" lon="99.97043500010905">
    <ele>9.41</ele>
   </trkpt>
   <trkpt lat="12.485520000000001" lon="99.97049000000001">
    <ele>9.38</ele>
   </trkpt>
   <trkpt lat="12.484840000059846" lon="99.97059000078765">
    <ele>9.35</ele>
   </trkpt>
   <trkpt lat="12.484160000082849" lon="99.97069000104973">
    <ele>9.32</ele>
   </trkpt>
   <trkpt lat="12.483480000069019" lon="99.97079000078627">
    <ele>9.430000000000001</ele>
   </trkpt>
   <trkpt lat="12.482800000000001" lon="99.97089000000001">
    <ele>9.44</ele>
   </trkpt>
   <trkpt lat="12.482010000054489" lon="99.97107500056667">
    <ele>9.27</ele>
   </trkpt>
   <trkpt lat="12.48122" lon="99.97126000000002">
    <ele>9.28</ele>
   </trkpt>
   <trkpt lat="12.480684999895386" lon="99.97135500021788">
    <ele>9.28</ele>
   </trkpt>
   <trkpt lat="12.480150000000002" lon="99.97145">
    <ele>9.35</ele>
   </trkpt>
   <trkpt lat="12.479540000000002" lon="99.97152000000001">
    <ele>9.39</ele>
   </trkpt>
   <trkpt lat="12.47868" lon="99.97155000000001">
    <ele>9.74</ele>
   </trkpt>
   <trkpt lat="12.478510000000002" lon="99.97151000000001">
    <ele>9.73</ele>
   </trkpt>
   <trkpt lat="12.47765" lon="99.97160000000001">
    <ele>9.120000000000001</ele>
   </trkpt>
   <trkpt lat="12.476950000048623" lon="99.97162000016088">
    <ele>9.290000000000001</ele>
   </trkpt>
   <trkpt lat="12.47625000009577" lon="99.97164000021361">
    <ele>9.36</ele>
   </trkpt>
   <trkpt lat="12.475550000141448" lon="99.97166000015824">
    <ele>9.28</ele>
   </trkpt>
   <trkpt lat="12.474850000000002" lon="99.97168">
    <ele>9.44</ele>
   </trkpt>
   <trkpt lat="12.474590000000001" lon="99.97166000000001">
    <ele>9.420000000000002</ele>
   </trkpt>
   <trkpt lat="12.47375" lon="99.97169000000001">
    <ele>10.15</ele>
   </trkpt>
   <trkpt lat="12.473490000000002" lon="99.97165000000001">
    <ele>10.66</ele>
   </trkpt>
   <trkpt lat="12.473300000000002" lon="99.97171">
    <ele>10.690000000000001</ele>
   </trkpt>
   <trkpt lat="12.47266666667062" lon="99.97173333344736">
    <ele>10.14</ele>
   </trkpt>
   <trkpt lat="12.472033333339233" lon="99.97175666678064">
    <ele>10.370000000000001</ele>
   </trkpt>
   <trkpt lat="12.471400000000001" lon="99.97178000000001">
    <ele>10.8</ele>
   </trkpt>
   <trkpt lat="12.470756666633266" lon="99.97179333340026">
    <ele>10.990000000000002</ele>
   </trkpt>
   <trkpt lat="12.470113333265877" lon="99.97180666673431">
    <ele>11.200000000000001</ele>
   </trkpt>
   <trkpt lat="12.469470000000001" lon="99.97182000000001">
    <ele>11.48</ele>
   </trkpt>
   <trkpt lat="12.468940000000002" lon="99.97178000000001">
    <ele>11.950000000000001</ele>
   </trkpt>
   <trkpt lat="12.46854" lon="99.97168">
    <ele>12.23</ele>
   </trkpt>
   <trkpt lat="12.467780000218788" lon="99.97138999917394">
    <ele>13.500000000000002</ele>
   </trkpt>
   <trkpt lat="12.467020000000002" lon="99.9711">
    <ele>15.66</ele>
   </trkpt>
   <trkpt lat="12.466830000000002" lon="99.971">
    <ele>15.680000000000003</ele>
   </trkpt>
   <trkpt lat="12.466190000255327" lon="99.97073999871861">
    <ele>15.92</ele>
   </trkpt>
   <trkpt lat="12.46555000026197" lon="99.97047999872134">
    <ele>15.83</ele>
   </trkpt>
   <trkpt lat="12.464910000000001" lon="99.97022000000001">
    <ele>15.88</ele>
   </trkpt>
   <trkpt lat="12.46471" lon="99.97008000000001">
    <ele>15.97</ele>
   </trkpt>
   <trkpt lat="12.464450000000001" lon="99.97001">
    <ele>15.97</ele>
   </trkpt>
   <trkpt lat="12.463824999975019" lon="99.96975999934126">
    <ele>15.82</ele>
   </trkpt>
   <trkpt lat="12.4632" lon="99.96951000000001">
    <ele>14.600000000000001</ele>
   </trkpt>
   <trkpt lat="12.462890000000002" lon="99.96941000000001">
    <ele>14.49</ele>
   </trkpt>
   <trkpt lat="12.462425000004389" lon="99.9691949995771">
    <ele>14.32</ele>
   </trkpt>
   <trkpt lat="12.461960000000001" lon="99.96898">
    <ele>14.560000000000002</ele>
   </trkpt>
   <trkpt lat="12.461290000000002" lon="99.96873000000001">
    <ele>14.41</ele>
   </trkpt>
   <trkpt lat="12.460505001347409" lon="99.96840624313923">
    <ele>15.360000000000001</ele>
   </trkpt>
   <trkpt lat="12.459720002309387" lon="99.96808248823876">
    <ele>15.360000000000001</ele>
   </trkpt>
   <trkpt lat="12.45893500288596" lon="99.96775873529853">
    <ele>15.21</ele>
   </trkpt>
   <trkpt lat="12.458150003077163" lon="99.96743498431833">
    <ele>14.620000000000001</ele>
   </trkpt>
   <trkpt lat="12.457365002883016" lon="99.96711123529805">
    <ele>14.530000000000001</ele>
   </trkpt>
   <trkpt lat="12.45658000230355" lon="99.96678748823757">
    <ele>14.51</ele>
   </trkpt>
   <trkpt lat="12.455795001338794" lon="99.96646374313671">
    <ele>15.240000000000002</ele>
   </trkpt>
   <trkpt lat="12.455010000000001" lon="99.96614000000001">
    <ele>15.940000000000003</ele>
   </trkpt>
   <trkpt lat="12.45430666698424" lon="99.96584333172228">
    <ele>16.87</ele>
   </trkpt>
   <trkpt lat="12.453603333644995" lon="99.96554666505315">
    <ele>17.63</ele>
   </trkpt>
   <trkpt lat="12.452900000000001" lon="99.96525000000001">
    <ele>19.090000000000003</ele>
   </trkpt>
   <trkpt lat="12.45234666708393" lon="99.96489333177975">
    <ele>21.210000000000004</ele>
   </trkpt>
   <trkpt lat="12.451793333700369" lon="99.96453666508073">
    <ele>22.22</ele>
   </trkpt>
   <trkpt lat="12.45124" lon="99.96418000000001">
    <ele>23.110000000000003</ele>
   </trkpt>
   <trkpt lat="12.45062" lon="99.96383">
    <ele>23.3</ele>
   </trkpt>
   <trkpt lat="12.450065000281603" lon="99.96345499921375">
    <ele>23.75</ele>
   </trkpt>
   <trkpt lat="12.449510000000002" lon="99.96308">
    <ele>23.85</ele>
   </trkpt>
   <trkpt lat="12.449370000000002" lon="99.96303">
    <ele>23.73</ele>
   </trkpt>
   <trkpt lat="12.4487533338678" lon="99.96264666484177">
    <ele>22.7</ele>
   </trkpt>
   <trkpt lat="12.448136667195733" lon="99.96226333150513">
    <ele>22.63</ele>
   </trkpt>
   <trkpt lat="12.44752" lon="99.96188000000001">
    <ele>22.930000000000003</ele>
   </trkpt>
   <trkpt lat="12.447415000404613" lon="99.96236000027908">
    <ele>20.66</ele>
   </trkpt>
   <trkpt lat="12.447310000000002" lon="99.96284000000001">
    <ele>19.630000000000003</ele>
   </trkpt>
   <trkpt lat="12.44725" lon="99.96288000000001">
    <ele>19.630000000000003</ele>
   </trkpt>
   <trkpt lat="12.44716" lon="99.96289">
    <ele>19.360000000000003</ele>
   </trkpt>
   <trkpt lat="12.44705" lon="99.96283000000001">
    <ele>18.910000000000004</ele>
   </trkpt>
   <trkpt lat="12.446342501433094" lon="99.96232249586082">
    <ele>18.410000000000004</ele>
   </trkpt>
   <trkpt lat="12.445635001920115" lon="99.96181499448792">
    <ele>18.78</ele>
   </trkpt>
   <trkpt lat="12.44492750146113" lon="99.96130749588114">
    <ele>22.160000000000004</ele>
   </trkpt>
   <trkpt lat="12.444220000000001" lon="99.9608">
    <ele>26.080000000000002</ele>
   </trkpt>
   <trkpt lat="12.443940000000001" lon="99.96066">
    <ele>29.200000000000003</ele>
   </trkpt>
   <trkpt lat="12.443650000000002" lon="99.96058000000001">
    <ele>29.200000000000003</ele>
   </trkpt>
   <trkpt lat="12.443380000000001" lon="99.96057">
    <ele>30.140000000000004</ele>
   </trkpt>
   <trkpt lat="12.443190000000001" lon="99.96058000000001">
    <ele>30.130000000000003</ele>
   </trkpt>
   <trkpt lat="12.442990000000002" lon="99.96063000000001">
    <ele>29.57</ele>
   </trkpt>
   <trkpt lat="12.442165000181252" lon="99.96096500107436">
    <ele>24.830000000000002</ele>
   </trkpt>
   <trkpt lat="12.44134" lon="99.96130000000001">
    <ele>23.31</ele>
   </trkpt>
   <trkpt lat="12.4412" lon="99.96132000000001">
    <ele>23.98</ele>
   </trkpt>
   <trkpt lat="12.441070000000002" lon="99.96130000000001">
    <ele>24.450000000000003</ele>
   </trkpt>
   <trkpt lat="12.44064" lon="99.96112000000001">
    <ele>26.340000000000003</ele>
   </trkpt>
   <trkpt lat="12.439870000327774" lon="99.96067499866011">
    <ele>29.560000000000002</ele>
   </trkpt>
   <trkpt lat="12.439100000000002" lon="99.96023000000001">
    <ele>31.19</ele>
   </trkpt>
   <trkpt lat="12.438880000000001" lon="99.96014000000001">
    <ele>31.6</ele>
   </trkpt>
   <trkpt lat="12.438670000000002" lon="99.96011000000001">
    <ele>31.810000000000006</ele>
   </trkpt>
   <trkpt lat="12.43848" lon="99.96019000000001">
    <ele>32.31</ele>
   </trkpt>
   <trkpt lat="12.438210000000002" lon="99.9604">
    <ele>32.510000000000005</ele>
   </trkpt>
   <trkpt lat="12.438070000000002" lon="99.96045000000001">
    <ele>33.79</ele>
   </trkpt>
   <trkpt lat="12.437330000026215" lon="99.96053000068459">
    <ele>35.02</ele>
   </trkpt>
   <trkpt lat="12.43659000002894" lon="99.96061000091339">
    <ele>36.660000000000004</ele>
   </trkpt>
   <trkpt lat="12.43585000000817" lon="99.9606900006865">
    <ele>37.39</ele>
   </trkpt>
   <trkpt lat="12.435110000000002" lon="99.96077000000001">
    <ele>37.55</ele>
   </trkpt>
   <trkpt lat="12.43485" lon="99.96078000000001">
    <ele>37.82000000000001</ele>
   </trkpt>
   <trkpt lat="12.434190000019479" lon="99.96065333268236">
    <ele>37.790000000000006</ele>
   </trkpt>
   <trkpt lat="12.433529999980076" lon="99.96052666600814">
    <ele>37.7</ele>
   </trkpt>
   <trkpt lat="12.432870000000001" lon="99.9604">
    <ele>37.720000000000006</ele>
   </trkpt>
   <trkpt lat="12.43238" lon="99.96036000000001">
    <ele>38.11000000000001</ele>
   </trkpt>
   <trkpt lat="12.431604999911597" lon="99.96028499976683">
    <ele>38.46</ele>
   </trkpt>
   <trkpt lat="12.43083" lon="99.96021">
    <ele>37.95</ele>
   </trkpt>
   <trkpt lat="12.430610000000001" lon="99.96016">
    <ele>37.28</ele>
   </trkpt>
   <trkpt lat="12.4303" lon="99.95998">
    <ele>36.63</ele>
   </trkpt>
   <trkpt lat="12.430200000000001" lon="99.95981">
    <ele>36.63</ele>
   </trkpt>
   <trkpt lat="12.430140000000002" lon="99.95926000000001">
    <ele>34.910000000000004</ele>
   </trkpt>
   <trkpt lat="12.430100000000001" lon="99.95915000000001">
    <ele>34.910000000000004</ele>
   </trkpt>
   <trkpt lat="12.430060000000001" lon="99.95909">
    <ele>33.61</ele>
   </trkpt>
   <trkpt lat="12.429910000000001" lon="99.959">
    <ele>33.61</ele>
   </trkpt>
   <trkpt lat="12.429350000000001" lon="99.95887">
    <ele>32.690000000000005</ele>
   </trkpt>
   <trkpt lat="12.429060000000002" lon="99.95878">
    <ele>31.060000000000002</ele>
   </trkpt>
   <trkpt lat="12.42857" lon="99.95858000000001">
    <ele>29.85</ele>
   </trkpt>
   <trkpt lat="12.42790000060398" lon="99.9579999984941">
    <ele>27.35</ele>
   </trkpt>
   <trkpt lat="12.427230000000002" lon="99.95742000000001">
    <ele>24.720000000000002</ele>
   </trkpt>
   <trkpt lat="12.426850000000002" lon="99.95713">
    <ele>23.860000000000003</ele>
   </trkpt>
   <trkpt lat="12.426660000000002" lon="99.95702000000001">
    <ele>23.62</ele>
   </trkpt>
   <trkpt lat="12.425880000354779" lon="99.95670666478485">
    <ele>22.520000000000003</ele>
   </trkpt>
   <trkpt lat="12.425100000349483" lon="99.95639333144946">
    <ele>21.57</ele>
   </trkpt>
   <trkpt lat="12.424320000000002" lon="99.95608000000001">
    <ele>21.32</ele>
   </trkpt>
   <trkpt lat="12.423810000402227" lon="99.95558999900265">
    <ele>21.18</ele>
   </trkpt>
   <trkpt lat="12.423300000000001" lon="99.9551">
    <ele>21.060000000000002</ele>
   </trkpt>
   <trkpt lat="12.422885000410046" lon="99.95462499923799">
    <ele>20.73</ele>
   </trkpt>
   <trkpt lat="12.42247" lon="99.95415000000001">
    <ele>20.25</ele>
   </trkpt>
   <trkpt lat="12.422060000000002" lon="99.95376">
    <ele>20.470000000000002</ele>
   </trkpt>
   <trkpt lat="12.421930000000001" lon="99.95369000000001">
    <ele>20.470000000000002</ele>
   </trkpt>
   <trkpt lat="12.42177" lon="99.95363">
    <ele>20.73</ele>
   </trkpt>
   <trkpt lat="12.42162" lon="99.95367">
    <ele>21.0</ele>
   </trkpt>
   <trkpt lat="12.421420000000001" lon="99.95382000000001">
    <ele>21.0</ele>
   </trkpt>
   <trkpt lat="12.42088" lon="99.95431">
    <ele>21.87</ele>
   </trkpt>
   <trkpt lat="12.42064" lon="99.95452">
    <ele>22.0</ele>
   </trkpt>
   <trkpt lat="12.419910000000002" lon="99.95484">
    <ele>22.62</ele>
   </trkpt>
   <trkpt lat="12.419730000000001" lon="99.95495000000001">
    <ele>22.740000000000002</ele>
   </trkpt>
   <trkpt lat="12.4196" lon="99.95508000000001">
    <ele>23.160000000000004</ele>
   </trkpt>
   <trkpt lat="12.41932" lon="99.95572000000001">
    <ele>23.83</ele>
   </trkpt>
   <trkpt lat="12.419110000000002" lon="99.95587">
    <ele>24.09</ele>
   </trkpt>
   <trkpt lat="12.418500000000002" lon="99.95618">
    <ele>24.180000000000003</ele>
   </trkpt>
   <trkpt lat="12.41815" lon="99.95629000000001">
    <ele>23.98</ele>
   </trkpt>
   <trkpt lat="12.41783" lon="99.95630000000001">
    <ele>23.650000000000002</ele>
   </trkpt>
   <trkpt lat="12.41745" lon="99.95625000000001">
    <ele>22.85</ele>
   </trkpt>
   <trkpt lat="12.41669000017589" lon="99.95605999832979">
    <ele>21.16</ele>
   </trkpt>
   <trkpt lat="12.415930000219474" lon="99.95586999776934">
    <ele>19.810000000000002</ele>
   </trkpt>
   <trkpt lat="12.415170000130752" lon="99.9556799983186">
    <ele>17.54</ele>
   </trkpt>
   <trkpt lat="12.41441" lon="99.95549000000001">
    <ele>16.37</ele>
   </trkpt>
   <trkpt lat="12.414280000000002" lon="99.95552">
    <ele>16.110000000000003</ele>
   </trkpt>
   <trkpt lat="12.413975000849957" lon="99.95621000085904">
    <ele>15.92</ele>
   </trkpt>
   <trkpt lat="12.413670000000002" lon="99.9569">
    <ele>16.110000000000003</ele>
   </trkpt>
   <trkpt lat="12.413515000593142" lon="99.9574550002273">
    <ele>15.98</ele>
   </trkpt>
   <trkpt lat="12.41336" lon="99.95801">
    <ele>15.780000000000003</ele>
   </trkpt>
   <trkpt lat="12.413250000000001" lon="99.95819">
    <ele>15.73</ele>
   </trkpt>
   <trkpt lat="12.413020000000001" lon="99.95821000000001">
    <ele>15.44</ele>
   </trkpt>
   <trkpt lat="12.412494999951283" lon="99.95819499996836">
    <ele>15.240000000000002</ele>
   </trkpt>
   <trkpt lat="12.41197" lon="99.95818000000001">
    <ele>14.950000000000001</ele>
   </trkpt>
   <trkpt lat="12.41167" lon="99.95827000000001">
    <ele>14.650000000000002</ele>
   </trkpt>
   <trkpt lat="12.411275000133646" lon="99.95849000030874">
    <ele>14.190000000000001</ele>
   </trkpt>
   <trkpt lat="12.41088" lon="99.95871000000001">
    <ele>13.8</ele>
   </trkpt>
   <trkpt lat="12.410540000000001" lon="99.95893000000001">
    <ele>13.4</ele>
   </trkpt>
   <trkpt lat="12.410400000000001" lon="99.95899000000001">
    <ele>13.4</ele>
   </trkpt>
   <trkpt lat="12.409869999894077" lon="99.95895499992162">
    <ele>12.950000000000001</ele>
   </trkpt>
   <trkpt lat="12.40934" lon="99.95892">
    <ele>12.66</ele>
   </trkpt>
   <trkpt lat="12.4091" lon="99.95952000000001">
    <ele>11.35</ele>
   </trkpt>
   <trkpt lat="12.40887" lon="99.96039">
    <ele>10.790000000000001</ele>
   </trkpt>
   <trkpt lat="12.408465000729922" lon="99.96103500105404">
    <ele>10.540000000000001</ele>
   </trkpt>
   <trkpt lat="12.40806" lon="99.96168">
    <ele>9.91</ele>
   </trkpt>
   <trkpt lat="12.407660000000002" lon="99.96247000000001">
    <ele>8.650000000000002</ele>
   </trkpt>
   <trkpt lat="12.407540000000001" lon="99.96276">
    <ele>8.07</ele>
   </trkpt>
   <trkpt lat="12.407440000000001" lon="99.96308">
    <ele>7.670000000000001</ele>
   </trkpt>
   <trkpt lat="12.40732" lon="99.96371">
    <ele>6.6000000000000005</ele>
   </trkpt>
   <trkpt lat="12.40717" lon="99.96431000000001">
    <ele>6.32</ele>
   </trkpt>
   <trkpt lat="12.40689" lon="99.96475000000001">
    <ele>6.130000000000001</ele>
   </trkpt>
   <trkpt lat="12.40656" lon="99.96508000000001">
    <ele>5.91</ele>
   </trkpt>
   <trkpt lat="12.405990000000001" lon="99.96559">
    <ele>7.96</ele>
   </trkpt>
   <trkpt lat="12.4055233339344" lon="99.96600666819062">
    <ele>12.32</ele>
   </trkpt>
   <trkpt lat="12.405056667233044" lon="99.96642333488822">
    <ele>13.55</ele>
   </trkpt>
   <trkpt lat="12.40459" lon="99.96684">
    <ele>9.58</ele>
   </trkpt>
   <trkpt lat="12.40446" lon="99.96692">
    <ele>8.39</ele>
   </trkpt>
   <trkpt lat="12.40421" lon="99.96702">
    <ele>6.08</ele>
   </trkpt>
   <trkpt lat="12.40343" lon="99.96724">
    <ele>3.89</ele>
   </trkpt>
   <trkpt lat="12.402900000169328" lon="99.96735500020246">
    <ele>3.8800000000000003</ele>
   </trkpt>
   <trkpt lat="12.402370000000001" lon="99.96747">
    <ele>4.390000000000001</ele>
   </trkpt>
   <trkpt lat="12.401660000000001" lon="99.96769">
    <ele>4.99</ele>
   </trkpt>
   <trkpt lat="12.401250000000001" lon="99.96789000000001">
    <ele>5.2700000000000005</ele>
   </trkpt>
   <trkpt lat="12.40103" lon="99.96806000000001">
    <ele>5.4</ele>
   </trkpt>
   <trkpt lat="12.400860000000002" lon="99.96835000000002">
    <ele>5.48</ele>
   </trkpt>
   <trkpt lat="12.400640000412706" lon="99.96884000047329">
    <ele>5.85</ele>
   </trkpt>
   <trkpt lat="12.40042" lon="99.96933000000001">
    <ele>5.91</ele>
   </trkpt>
   <trkpt lat="12.400160000000001" lon="99.96983">
    <ele>6.140000000000001</ele>
   </trkpt>
   <trkpt lat="12.399860001165765" lon="99.97038666788987">
    <ele>6.16</ele>
   </trkpt>
   <trkpt lat="12.399560001197258" lon="99.97094333449807">
    <ele>6.32</ele>
   </trkpt>
   <trkpt lat="12.399260000000002" lon="99.9715">
    <ele>6.46</ele>
   </trkpt>
   <trkpt lat="12.398940000000001" lon="99.97203">
    <ele>6.430000000000001</ele>
   </trkpt>
   <trkpt lat="12.39869" lon="99.97236000000001">
    <ele>6.44</ele>
   </trkpt>
   <trkpt lat="12.39844" lon="99.97265">
    <ele>6.48</ele>
   </trkpt>
   <trkpt lat="12.398200000000001" lon="99.97285000000001">
    <ele>6.37</ele>
   </trkpt>
   <trkpt lat="12.397580000264822" lon="99.97318000075008">
    <ele>6.2</ele>
   </trkpt>
   <trkpt lat="12.396960000000002" lon="99.97351">
    <ele>6.21</ele>
   </trkpt>
   <trkpt lat="12.396370000170089" lon="99.97384500077823">
    <ele>6.21</ele>
   </trkpt>
   <trkpt lat="12.39578" lon="99.97418">
    <ele>6.19</ele>
   </trkpt>
   <trkpt lat="12.39512600112831" lon="99.97457200393102">
    <ele>6.1000000000000005</ele>
   </trkpt>
   <trkpt lat="12.394472001694348" lon="99.97496400589525">
    <ele>5.960000000000001</ele>
   </trkpt>
   <trkpt lat="12.393818001698142" lon="99.97535600589283">
    <ele>5.970000000000001</ele>
   </trkpt>
   <trkpt lat="12.393164001139725" lon="99.97574800392391">
    <ele>5.94</ele>
   </trkpt>
   <trkpt lat="12.392510000000001" lon="99.97614000000002">
    <ele>6.140000000000001</ele>
   </trkpt>
   <trkpt lat="12.392280000000001" lon="99.97632">
    <ele>5.970000000000001</ele>
   </trkpt>
   <trkpt lat="12.392240000000001" lon="99.97642">
    <ele>5.970000000000001</ele>
   </trkpt>
   <trkpt lat="12.392240000000001" lon="99.97654000000001">
    <ele>5.970000000000001</ele>
   </trkpt>
   <trkpt lat="12.3923" lon="99.97685000000001">
    <ele>5.750000000000001</ele>
   </trkpt>
   <trkpt lat="12.392430000412126" lon="99.97733999965375">
    <ele>5.74</ele>
   </trkpt>
   <trkpt lat="12.392560000000001" lon="99.97783000000001">
    <ele>5.670000000000001</ele>
   </trkpt>
   <trkpt lat="12.392600000000002" lon="99.97810000000001">
    <ele>5.760000000000001</ele>
   </trkpt>
   <trkpt lat="12.392600000000002" lon="99.97850000000001">
    <ele>6.17</ele>
   </trkpt>
   <trkpt lat="12.392550000000002" lon="99.97857">
    <ele>6.140000000000001</ele>
   </trkpt>
   <trkpt lat="12.39249" lon="99.97861">
    <ele>6.140000000000001</ele>
   </trkpt>
   <trkpt lat="12.39235" lon="99.97862">
    <ele>6.15</ele>
   </trkpt>
   <trkpt lat="12.391573333353904" lon="99.97857333305613">
    <ele>6.37</ele>
   </trkpt>
   <trkpt lat="12.390796666699842" lon="99.97852666639022">
    <ele>6.66</ele>
   </trkpt>
   <trkpt lat="12.390020000000002" lon="99.97848">
    <ele>7.140000000000001</ele>
   </trkpt>
   <trkpt lat="12.390010005515657" lon="99.9792566668289">
    <ele>7.04</ele>
   </trkpt>
   <trkpt lat="12.390000008824979" lon="99.98003333359827">
    <ele>7.88</ele>
   </trkpt>
   <trkpt lat="12.38999000992797" lon="99.98081000030808">
    <ele>8.950000000000001</ele>
   </trkpt>
   <trkpt lat="12.38998000882463" lon="99.98158666695834">
    <ele>9.959999999999999</ele>
   </trkpt>
   <trkpt lat="12.389970005514964" lon="99.98236333354903">
    <ele>8.77</ele>
   </trkpt>
   <trkpt lat="12.38996" lon="99.98314">
    <ele>6.95</ele>
   </trkpt>
   <trkpt lat="12.389903336168354" lon="99.98402000034257">
    <ele>6.61</ele>
   </trkpt>
   <trkpt lat="12.389846669504246" lon="99.9849000003028">
    <ele>6.390000000000001</ele>
   </trkpt>
   <trkpt lat="12.389790000000001" lon="99.98578">
    <ele>6.2700000000000005</ele>
   </trkpt>
   <trkpt lat="12.389740000000002" lon="99.98581000000001">
    <ele>6.2700000000000005</ele>
   </trkpt>
   <trkpt lat="12.38903500020466" lon="99.9854449989933">
    <ele>6.17</ele>
   </trkpt>
   <trkpt lat="12.388330000000002" lon="99.98508000000001">
    <ele>6.2</ele>
   </trkpt>
   <trkpt lat="12.38812" lon="99.98499000000001">
    <ele>6.2</ele>
   </trkpt>
   <trkpt lat="12.387333333516343" lon="99.98476666531995">
    <ele>6.07</ele>
   </trkpt>
   <trkpt lat="12.386546666850286" lon="99.98454333198683">
    <ele>5.9799999999999995</ele>
   </trkpt>
   <trkpt lat="12.385760000000001" lon="99.98432000000001">
    <ele>6.0</ele>
   </trkpt>
   <trkpt lat="12.385023333462822" lon="99.98413666563313">
    <ele>5.9</ele>
   </trkpt>
   <trkpt lat="12.384286666802744" lon="99.98395333230147">
    <ele>5.930000000000001</ele>
   </trkpt>
   <trkpt lat="12.383550000000001" lon="99.98377">
    <ele>6.04</ele>
   </trkpt>
   <trkpt lat="12.383540000000002" lon="99.98341">
    <ele>6.04</ele>
   </trkpt>
   <trkpt lat="12.383450000000002" lon="99.98374000000001">
    <ele>5.9</ele>
   </trkpt>
   <trkpt lat="12.38259333354223" lon="99.98352666527671">
    <ele>5.95</ele>
   </trkpt>
   <trkpt lat="12.381736666918087" lon="99.98331333195401">
    <ele>6.0200000000000005</ele>
   </trkpt>
   <trkpt lat="12.380880000000001" lon="99.98310000000001">
    <ele>6.0</ele>
   </trkpt>
   <trkpt lat="12.380640000000001" lon="99.98308000000002">
    <ele>5.960000000000001</ele>
   </trkpt>
   <trkpt lat="12.38039" lon="99.98310000000001">
    <ele>5.930000000000001</ele>
   </trkpt>
   <trkpt lat="12.379800000000001" lon="99.98326">
    <ele>6.0</ele>
   </trkpt>
   <trkpt lat="12.379340000122207" lon="99.98342000025572">
    <ele>6.07</ele>
   </trkpt>
   <trkpt lat="12.37888" lon="99.98358">
    <ele>6.11</ele>
   </trkpt>
   <trkpt lat="12.378075000083177" lon="99.98385000084932">
    <ele>5.82</ele>
   </trkpt>
   <trkpt lat="12.377270000000001" lon="99.98412">
    <ele>5.68</ele>
   </trkpt>
   <trkpt lat="12.376750000000001" lon="99.98426">
    <ele>5.68</ele>
   </trkpt>
   <trkpt lat="12.37615000001514" lon="99.98438333390844">
    <ele>5.710000000000001</ele>
   </trkpt>
   <trkpt lat="12.375549999974696" lon="99.98450666725009">
    <ele>5.81</ele>
   </trkpt>
   <trkpt lat="12.374950000000002" lon="99.98463000000001">
    <ele>5.91</ele>
   </trkpt>
   <trkpt lat="12.374160000071324" lon="99.98478000044801">
    <ele>5.970000000000001</ele>
   </trkpt>
   <trkpt lat="12.373370000000001" lon="99.98493">
    <ele>6.180000000000001</ele>
   </trkpt>
   <trkpt lat="12.373120000000002" lon="99.98501">
    <ele>6.19</ele>
   </trkpt>
   <trkpt lat="12.372760000000001" lon="99.98516000000001">
    <ele>6.16</ele>
   </trkpt>
   <trkpt lat="12.372235000142462" lon="99.98549000069876">
    <ele>6.140000000000001</ele>
   </trkpt>
   <trkpt lat="12.37171" lon="99.98582">
    <ele>6.140000000000001</ele>
   </trkpt>
   <trkpt lat="12.371450000000001" lon="99.98595">
    <ele>6.0600000000000005</ele>
   </trkpt>
   <trkpt lat="12.371120000000001" lon="99.98608">
    <ele>6.090000000000001</ele>
   </trkpt>
   <trkpt lat="12.370290000136118" lon="99.9862600005552">
    <ele>6.2</ele>
   </trkpt>
   <trkpt lat="12.369460000000002" lon="99.98644">
    <ele>6.2700000000000005</ele>
   </trkpt>
   <trkpt lat="12.368990000048223" lon="99.9865200001377">
    <ele>6.25</ele>
   </trkpt>
   <trkpt lat="12.36852" lon="99.98660000000001">
    <ele>6.260000000000001</ele>
   </trkpt>
   <trkpt lat="12.36809" lon="99.98664000000001">
    <ele>6.3100000000000005</ele>
   </trkpt>
   <trkpt lat="12.367310000118664" lon="99.98668000011348">
    <ele>6.32</ele>
   </trkpt>
   <trkpt lat="12.366530000000001" lon="99.98672">
    <ele>6.37</ele>
   </trkpt>
   <trkpt lat="12.365748571429174" lon="99.98674000035888">
    <ele>6.53</ele>
   </trkpt>
   <trkpt lat="12.364967142856884" lon="99.98676000059814">
    <ele>6.59</ele>
   </trkpt>
   <trkpt lat="12.364185714283138" lon="99.9867800007178">
    <ele>6.7700000000000005</ele>
   </trkpt>
   <trkpt lat="12.363404285707928" lon="99.98680000071788">
    <ele>7.0200000000000005</ele>
   </trkpt>
   <trkpt lat="12.362622857131258" lon="99.98682000059839">
    <ele>7.23</ele>
   </trkpt>
   <trkpt lat="12.36184142855313" lon="99.98684000035932">
    <ele>7.6000000000000005</ele>
   </trkpt>
   <trkpt lat="12.36106" lon="99.98686000000001">
    <ele>7.760000000000001</ele>
   </trkpt>
   <trkpt lat="12.360379999983703" lon="99.98688750021539">
    <ele>7.86</ele>
   </trkpt>
   <trkpt lat="12.359699999964645" lon="99.98691500028772">
    <ele>8.06</ele>
   </trkpt>
   <trkpt lat="12.359019999942833" lon="99.98694250021703">
    <ele>8.370000000000001</ele>
   </trkpt>
   <trkpt lat="12.358340000000002" lon="99.98697000000001">
    <ele>8.33</ele>
   </trkpt>
   <trkpt lat="12.3574850000745" lon="99.9870400002235">
    <ele>8.650000000000002</ele>
   </trkpt>
   <trkpt lat="12.356630000000001" lon="99.98711">
    <ele>9.0</ele>
   </trkpt>
   <trkpt lat="12.355830000000001" lon="99.98721">
    <ele>8.73</ele>
   </trkpt>
   <trkpt lat="12.355390000000002" lon="99.98721">
    <ele>8.6</ele>
   </trkpt>
   <trkpt lat="12.354723333414858" lon="99.98708999939358">
    <ele>8.76</ele>
   </trkpt>
   <trkpt lat="12.354056666777186" lon="99.98696999939881">
    <ele>8.4</ele>
   </trkpt>
   <trkpt lat="12.353390000000001" lon="99.98685">
    <ele>8.33</ele>
   </trkpt>
   <trkpt lat="12.353390000000001" lon="99.98684000000002">
    <ele>8.33</ele>
   </trkpt>
   <trkpt lat="12.352864999937907" lon="99.98674999980624">
    <ele>8.34</ele>
   </trkpt>
   <trkpt lat="12.352340000000002" lon="99.98666000000001">
    <ele>8.3</ele>
   </trkpt>
   <trkpt lat="12.351609999942093" lon="99.98656999973996">
    <ele>8.450000000000001</ele>
   </trkpt>
   <trkpt lat="12.350880000000002" lon="99.98648000000001">
    <ele>8.790000000000001</ele>
   </trkpt>
   <trkpt lat="12.350419999992937" lon="99.98641499988365">
    <ele>8.75</ele>
   </trkpt>
   <trkpt lat="12.349960000000001" lon="99.98635">
    <ele>9.22</ele>
   </trkpt>
   <trkpt lat="12.349810000000002" lon="99.98634000000001">
    <ele>9.22</ele>
   </trkpt>
   <trkpt lat="12.34964" lon="99.98636">
    <ele>9.3</ele>
   </trkpt>
   <trkpt lat="12.348860000722489" lon="99.98667400374174">
    <ele>9.370000000000001</ele>
   </trkpt>
   <trkpt lat="12.348080001085462" lon="99.98698800561176">
    <ele>9.56</ele>
   </trkpt>
   <trkpt lat="12.347300001088948" lon="99.98730200561022">
    <ele>9.520000000000001</ele>
   </trkpt>
   <trkpt lat="12.346520000732971" lon="99.98761600373723">
    <ele>9.4</ele>
   </trkpt>
   <trkpt lat="12.345740000000001" lon="99.98793">
    <ele>9.47</ele>
   </trkpt>
   <trkpt lat="12.344993333533234" lon="99.98817666808092">
    <ele>9.57</ele>
   </trkpt>
   <trkpt lat="12.34424666684467" lon="99.9884233347548">
    <ele>9.66</ele>
   </trkpt>
   <trkpt lat="12.3435" lon="99.98867000000001">
    <ele>9.55</ele>
   </trkpt>
   <trkpt lat="12.342778000360331" lon="99.98889400247215">
    <ele>9.590000000000002</ele>
   </trkpt>
   <trkpt lat="12.342056000537786" lon="99.989118003709">
    <ele>9.500000000000002</ele>
   </trkpt>
   <trkpt lat="12.341334000532385" lon="99.98934200371056">
    <ele>9.47</ele>
   </trkpt>
   <trkpt lat="12.34061200034413" lon="99.98956600247699">
    <ele>9.45</ele>
   </trkpt>
   <trkpt lat="12.33989" lon="99.98979000000001">
    <ele>9.590000000000002</ele>
   </trkpt>
   <trkpt lat="12.33952" lon="99.98989">
    <ele>9.62</ele>
   </trkpt>
   <trkpt lat="12.339150000000002" lon="99.98993">
    <ele>9.62</ele>
   </trkpt>
   <trkpt lat="12.338670000172021" lon="99.98993">
    <ele>9.38</ele>
   </trkpt>
   <trkpt lat="12.33819" lon="99.98993">
    <ele>9.02</ele>
   </trkpt>
   <trkpt lat="12.337730000205946" lon="99.98985999990707">
    <ele>8.76</ele>
   </trkpt>
   <trkpt lat="12.33727" lon="99.98979000000001">
    <ele>8.64</ele>
   </trkpt>
   <trkpt lat="12.336496250414642" lon="99.98960874625229">
    <ele>8.190000000000001</ele>
   </trkpt>
   <trkpt lat="12.335722500709604" lon="99.9894274935752">
    <ele>7.710000000000001</ele>
   </trkpt>
   <trkpt lat="12.334948750884902" lon="99.98924624196871">
    <ele>7.5200000000000005</ele>
   </trkpt>
   <trkpt lat="12.334175000940537" lon="99.98906499143271">
    <ele>7.280000000000001</ele>
   </trkpt>
   <trkpt lat="12.333401250876522" lon="99.98888374196713">
    <ele>7.29</ele>
   </trkpt>
   <trkpt lat="12.332627500692862" lon="99.9887024935719">
    <ele>7.4</ele>
   </trkpt>
   <trkpt lat="12.331853750389566" lon="99.98852124624695">
    <ele>7.8100000000000005</ele>
   </trkpt>
   <trkpt lat="12.331080000000002" lon="99.98834000000001">
    <ele>7.98</ele>
   </trkpt>
   <trkpt lat="12.330307500183036" lon="99.98814499826977">
    <ele>8.180000000000001</ele>
   </trkpt>
   <trkpt lat="12.329535000227617" lon="99.98794999768893">
    <ele>8.38</ele>
   </trkpt>
   <trkpt lat="12.328762500133754" lon="99.9877549982574">
    <ele>8.42</ele>
   </trkpt>
   <trkpt lat="12.327990000000002" lon="99.98756">
    <ele>8.450000000000001</ele>
   </trkpt>
   <trkpt lat="12.327433336920029" lon="99.98693165998966">
    <ele>8.42</ele>
   </trkpt>
   <trkpt lat="12.326876672402822" lon="99.98630332264752">
    <ele>8.32</ele>
   </trkpt>
   <trkpt lat="12.326320006448448" lon="99.98567498797343">
    <ele>8.21</ele>
   </trkpt>
   <trkpt lat="12.325763339056984" lon="99.98504665596728">
    <ele>8.41</ele>
   </trkpt>
   <trkpt lat="12.325206670228502" lon="99.98441832662897">
    <ele>8.41</ele>
   </trkpt>
   <trkpt lat="12.324650000000002" lon="99.98379000000001">
    <ele>8.39</ele>
   </trkpt>
   <trkpt lat="12.32394" lon="99.98335">
    <ele>8.4</ele>
   </trkpt>
   <trkpt lat="12.32361" lon="99.98324000000001">
    <ele>8.43</ele>
   </trkpt>
   <trkpt lat="12.32318" lon="99.98317">
    <ele>8.42</ele>
   </trkpt>
   <trkpt lat="12.32243" lon="99.98335">
    <ele>8.46</ele>
   </trkpt>
   <trkpt lat="12.32195000006325" lon="99.98347000021033">
    <ele>8.46</ele>
   </trkpt>
   <trkpt lat="12.321470000000001" lon="99.98359">
    <ele>8.32</ele>
   </trkpt>
   <trkpt lat="12.320884999920457" lon="99.9835849999882">
    <ele>8.290000000000001</ele>
   </trkpt>
   <trkpt lat="12.320300000000001" lon="99.98358">
    <ele>8.33</ele>
   </trkpt>
   <trkpt lat="12.319435000042953" lon="99.98333999919154">
    <ele>8.14</ele>
   </trkpt>
   <trkpt lat="12.318570000000001" lon="99.98310000000001">
    <ele>8.51</ele>
   </trkpt>
   <trkpt lat="12.318430000000001" lon="99.98376">
    <ele>7.750000000000001</ele>
   </trkpt>
   <trkpt lat="12.318353334958843" lon="99.98443000045715">
    <ele>7.8500000000000005</ele>
   </trkpt>
   <trkpt lat="12.318276668284666" lon="99.98510000052275">
    <ele>7.88</ele>
   </trkpt>
   <trkpt lat="12.318200000000001" lon="99.98577">
    <ele>8.57</ele>
   </trkpt>
   <trkpt lat="12.318125000954415" lon="99.98649500022302">
    <ele>7.33</ele>
   </trkpt>
   <trkpt lat="12.318050000000001" lon="99.98722000000001">
    <ele>7.2700000000000005</ele>
   </trkpt>
   <trkpt lat="12.31879000053995" lon="99.98753499733392">
    <ele>6.98</ele>
   </trkpt>
   <trkpt lat="12.319530000718926" lon="99.98784999644472">
    <ele>7.08</ele>
   </trkpt>
   <trkpt lat="12.320270000536908" lon="99.98816499733252">
    <ele>6.99</ele>
   </trkpt>
   <trkpt lat="12.321010000000001" lon="99.98848000000001">
    <ele>7.19</ele>
   </trkpt>
   <trkpt lat="12.321610000216143" lon="99.98870999951987">
    <ele>7.260000000000001</ele>
   </trkpt>
   <trkpt lat="12.322210000000002" lon="99.98894000000001">
    <ele>7.3100000000000005</ele>
   </trkpt>
   <trkpt lat="12.322810000261091" lon="99.98919666550147">
    <ele>7.280000000000001</ele>
   </trkpt>
   <trkpt lat="12.323410000282445" lon="99.98945333217725">
    <ele>7.23</ele>
   </trkpt>
   <trkpt lat="12.324010000000001" lon="99.98971">
    <ele>7.280000000000001</ele>
   </trkpt>
   <trkpt lat="12.32471750064679" lon="99.9900624971311">
    <ele>7.17</ele>
   </trkpt>
   <trkpt lat="12.325425000841342" lon="99.99041499616423">
    <ele>7.21</ele>
   </trkpt>
   <trkpt lat="12.326132500583629" lon="99.9907674970995">
    <ele>7.0600000000000005</ele>
   </trkpt>
   <trkpt lat="12.32684" lon="99.99112000000001">
    <ele>7.04</ele>
   </trkpt>
   <trkpt lat="12.326830000000001" lon="99.99112000000001">
    <ele>7.050000000000001</ele>
   </trkpt>
   <trkpt lat="12.327210000000001" lon="99.99131000000001">
    <ele>7.04</ele>
   </trkpt>
   <trkpt lat="12.327886667353358" lon="99.99174999771688">
    <ele>6.91</ele>
   </trkpt>
   <trkpt lat="12.328563334001927" lon="99.99218999770507">
    <ele>6.890000000000001</ele>
   </trkpt>
   <trkpt lat="12.32924" lon="99.99263">
    <ele>6.73</ele>
   </trkpt>
   <trkpt lat="12.32965" lon="99.99295000000001">
    <ele>6.72</ele>
   </trkpt>
   <trkpt lat="12.330135000161919" lon="99.99335499913647">
    <ele>6.65</ele>
   </trkpt>
   <trkpt lat="12.330620000000001" lon="99.99376000000001">
    <ele>6.7</ele>
   </trkpt>
   <trkpt lat="12.331000000000001" lon="99.99411">
    <ele>6.66</ele>
   </trkpt>
   <trkpt lat="12.331390000281711" lon="99.99448499946669">
    <ele>6.69</ele>
   </trkpt>
   <trkpt lat="12.33178" lon="99.99486">
    <ele>6.6000000000000005</ele>
   </trkpt>
   <trkpt lat="12.331990000000001" lon="99.99509">
    <ele>6.74</ele>
   </trkpt>
   <trkpt lat="12.332210000000002" lon="99.99541">
    <ele>6.74</ele>
   </trkpt>
   <trkpt lat="12.332495000374353" lon="99.99588499942263">
    <ele>6.83</ele>
   </trkpt>
   <trkpt lat="12.332780000000001" lon="99.99636000000001">
    <ele>6.53</ele>
   </trkpt>
   <trkpt lat="12.33317" lon="99.99707000000001">
    <ele>6.44</ele>
   </trkpt>
   <trkpt lat="12.333240000000002" lon="99.9971">
    <ele>6.32</ele>
   </trkpt>
   <trkpt lat="12.334010000000001" lon="99.99697">
    <ele>6.9</ele>
   </trkpt>
   <trkpt lat="12.33487" lon="99.99686000000001">
    <ele>7.51</ele>
   </trkpt>
   <trkpt lat="12.335420000000001" lon="99.99677000000001">
    <ele>7.620000000000001</ele>
   </trkpt>
   <trkpt lat="12.335500000000001" lon="99.99673000000001">
    <ele>7.620000000000001</ele>
   </trkpt>
   <trkpt lat="12.335630000000002" lon="99.99656">
    <ele>7.580000000000001</ele>
   </trkpt>
   <trkpt lat="12.335740000000001" lon="99.99650000000001">
    <ele>7.620000000000001</ele>
   </trkpt>
   <trkpt lat="12.33586" lon="99.99649000000001">
    <ele>7.620000000000001</ele>
   </trkpt>
   <trkpt lat="12.33638" lon="99.99656">
    <ele>7.760000000000001</ele>
   </trkpt>
   <trkpt lat="12.336720000000001" lon="99.99663000000001">
    <ele>8.219999999999999</ele>
   </trkpt>
   <trkpt lat="12.337254999888398" lon="99.99678499963844">
    <ele>9.09</ele>
   </trkpt>
   <trkpt lat="12.337790000000002" lon="99.99694000000001">
    <ele>9.370000000000001</ele>
   </trkpt>
   <trkpt lat="12.33801" lon="99.99703000000001">
    <ele>9.01</ele>
   </trkpt>
   <trkpt lat="12.338270000000001" lon="99.99718000000001">
    <ele>9.01</ele>
   </trkpt>
   <trkpt lat="12.33862" lon="99.99752000000001">
    <ele>8.17</ele>
   </trkpt>
   <trkpt lat="12.339120000000001" lon="99.99794000000001">
    <ele>8.13</ele>
   </trkpt>
   <trkpt lat="12.339260000000001" lon="99.99802000000001">
    <ele>8.13</ele>
   </trkpt>
   <trkpt lat="12.33947" lon="99.99809">
    <ele>8.13</ele>
   </trkpt>
   <trkpt lat="12.339730000000001" lon="99.99811000000001">
    <ele>8.110000000000001</ele>
   </trkpt>
   <trkpt lat="12.340000000000002" lon="99.99806000000001">
    <ele>8.07</ele>
   </trkpt>
   <trkpt lat="12.340440000146677" lon="99.99788500025787">
    <ele>7.91</ele>
   </trkpt>
   <trkpt lat="12.34088" lon="99.99771000000001">
    <ele>7.82</ele>
   </trkpt>
   <trkpt lat="12.34137000021385" lon="99.99761500013949">
    <ele>7.800000000000001</ele>
   </trkpt>
   <trkpt lat="12.34186" lon="99.99752000000001">
    <ele>7.790000000000001</ele>
   </trkpt>
   <trkpt lat="12.342633333328108" lon="99.99742666722244">
    <ele>7.87</ele>
   </trkpt>
   <trkpt lat="12.343406666624468" lon="99.99733333389358">
    <ele>7.8100000000000005</ele>
   </trkpt>
   <trkpt lat="12.344180000000001" lon="99.99724">
    <ele>7.72</ele>
   </trkpt>
   <trkpt lat="12.344885000035996" lon="99.99719500011913">
    <ele>7.790000000000001</ele>
   </trkpt>
   <trkpt lat="12.345590000000001" lon="99.99715">
    <ele>7.790000000000001</ele>
   </trkpt>
   <trkpt lat="12.346065000046531" lon="99.99714000001717">
    <ele>7.8500000000000005</ele>
   </trkpt>
   <trkpt lat="12.346540000000001" lon="99.99713000000001">
    <ele>7.800000000000001</ele>
   </trkpt>
   <trkpt lat="12.34733000005816" lon="99.99713000000001">
    <ele>7.680000000000001</ele>
   </trkpt>
   <trkpt lat="12.348120000000002" lon="99.99713000000001">
    <ele>7.750000000000001</ele>
   </trkpt>
   <trkpt lat="12.348965000203997" lon="99.99714499995518">
    <ele>7.710000000000001</ele>
   </trkpt>
   <trkpt lat="12.349810000000002" lon="99.99716000000001">
    <ele>7.38</ele>
   </trkpt>
   <trkpt lat="12.350469999978491" lon="99.99716000000002">
    <ele>7.220000000000001</ele>
   </trkpt>
   <trkpt lat="12.351129999956981" lon="99.99716000000002">
    <ele>7.2</ele>
   </trkpt>
   <trkpt lat="12.351790000000001" lon="99.99716000000001">
    <ele>7.130000000000001</ele>
   </trkpt>
   <trkpt lat="12.35228000014864" lon="99.9971799999686">
    <ele>7.050000000000001</ele>
   </trkpt>
   <trkpt lat="12.352770000000001" lon="99.9972">
    <ele>7.090000000000001</ele>
   </trkpt>
   <trkpt lat="12.35336" lon="99.99726000000001">
    <ele>7.090000000000001</ele>
   </trkpt>
   <trkpt lat="12.353973333373231" lon="99.99730666645029">
    <ele>7.180000000000001</ele>
   </trkpt>
   <trkpt lat="12.35458666673852" lon="99.99735333311939">
    <ele>7.140000000000001</ele>
   </trkpt>
   <trkpt lat="12.355200000000002" lon="99.99740000000001">
    <ele>7.19</ele>
   </trkpt>
   <trkpt lat="12.355755000079746" lon="99.99748999981956">
    <ele>7.220000000000001</ele>
   </trkpt>
   <trkpt lat="12.35631" lon="99.99758000000001">
    <ele>7.260000000000001</ele>
   </trkpt>
   <trkpt lat="12.357036666716951" lon="99.99766666618778">
    <ele>7.2</ele>
   </trkpt>
   <trkpt lat="12.357763333406492" lon="99.99775333285717">
    <ele>7.220000000000001</ele>
   </trkpt>
   <trkpt lat="12.358490000000002" lon="99.99784000000001">
    <ele>7.320000000000001</ele>
   </trkpt>
   <trkpt lat="12.35922" lon="99.99796">
    <ele>7.34</ele>
   </trkpt>
   <trkpt lat="12.360090000133996" lon="99.99815999866627">
    <ele>7.430000000000001</ele>
   </trkpt>
   <trkpt lat="12.360960000122024" lon="99.99835999866346">
    <ele>7.53</ele>
   </trkpt>
   <trkpt lat="12.361830000000001" lon="99.99856000000001">
    <ele>7.44</ele>
   </trkpt>
   <trkpt lat="12.362290000000002" lon="99.99864000000001">
    <ele>7.38</ele>
   </trkpt>
   <trkpt lat="12.362805000051711" lon="99.99875999976952">
    <ele>7.140000000000001</ele>
   </trkpt>
   <trkpt lat="12.363320000000002" lon="99.99888000000001">
    <ele>7.1000000000000005</ele>
   </trkpt>
   <trkpt lat="12.364090000073741" lon="99.99901666586243">
    <ele>6.98</ele>
   </trkpt>
   <trkpt lat="12.364860000079297" lon="99.99915333253007">
    <ele>6.930000000000001</ele>
   </trkpt>
   <trkpt lat="12.365630000000001" lon="99.99929">
    <ele>6.91</ele>
   </trkpt>
   <trkpt lat="12.366285000065533" lon="99.9993799997814">
    <ele>6.890000000000001</ele>
   </trkpt>
   <trkpt lat="12.366940000000001" lon="99.99947">
    <ele>6.800000000000001</ele>
   </trkpt>
   <trkpt lat="12.36754000007685" lon="99.99957999975746">
    <ele>6.7700000000000005</ele>
   </trkpt>
   <trkpt lat="12.36814" lon="99.99969">
    <ele>6.8100000000000005</ele>
   </trkpt>
   <trkpt lat="12.368740000068003" lon="99.9997799995924">
    <ele>6.710000000000001</ele>
   </trkpt>
   <trkpt lat="12.369340000106424" lon="99.99986999959816">
    <ele>6.670000000000001</ele>
   </trkpt>
   <trkpt lat="12.369940000000001" lon="99.99996">
    <ele>6.7</ele>
   </trkpt>
   <trkpt lat="12.370790000000001" lon="100.00001">
    <ele>6.68</ele>
   </trkpt>
   <trkpt lat="12.371607500022993" lon="100.00004249969555">
    <ele>6.68</ele>
   </trkpt>
   <trkpt lat="12.37242500004213" lon="100.00007499959449">
    <ele>6.7</ele>
   </trkpt>
   <trkpt lat="12.373242500057406" lon="100.0001074996969">
    <ele>6.69</ele>
   </trkpt>
   <trkpt lat="12.374060000000002" lon="100.00014">
    <ele>6.620000000000001</ele>
   </trkpt>
   <trkpt lat="12.374695000061694" lon="100.00013000002335">
    <ele>6.630000000000001</ele>
   </trkpt>
   <trkpt lat="12.375330000000002" lon="100.00012000000001">
    <ele>6.65</ele>
   </trkpt>
   <trkpt lat="12.376034999937312" lon="100.00012000000001">
    <ele>6.580000000000001</ele>
   </trkpt>
   <trkpt lat="12.376740000000002" lon="100.00012000000001">
    <ele>6.6000000000000005</ele>
   </trkpt>
   <trkpt lat="12.37733500013079" lon="100.00009500005153">
    <ele>6.630000000000001</ele>
   </trkpt>
   <trkpt lat="12.377930000000001" lon="100.00007000000001">
    <ele>6.73</ele>
   </trkpt>
   <trkpt lat="12.378669999999376" lon="100.00001666696983">
    <ele>6.750000000000001</ele>
   </trkpt>
   <trkpt lat="12.379409999988356" lon="99.9999633336373">
    <ele>6.65</ele>
   </trkpt>
   <trkpt lat="12.38015" lon="99.99991000000001">
    <ele>6.630000000000001</ele>
   </trkpt>
   <trkpt lat="12.38094" lon="99.99983">
    <ele>6.7</ele>
   </trkpt>
   <trkpt lat="12.38174" lon="99.99971000000001">
    <ele>6.69</ele>
   </trkpt>
   <trkpt lat="12.382415000189853" lon="99.99961000023323">
    <ele>6.51</ele>
   </trkpt>
   <trkpt lat="12.383090000000001" lon="99.99951000000001">
    <ele>6.36</ele>
   </trkpt>
   <trkpt lat="12.38374750011685" lon="99.99935000121522">
    <ele>6.2</ele>
   </trkpt>
   <trkpt lat="12.38440500014011" lon="99.99919000162411">
    <ele>6.16</ele>
   </trkpt>
   <trkpt lat="12.385062500069774" lon="99.9990300012267">
    <ele>6.17</ele>
   </trkpt>
   <trkpt lat="12.385720000000001" lon="99.99887000000001">
    <ele>6.090000000000001</ele>
   </trkpt>
   <trkpt lat="12.386270000000001" lon="99.99872">
    <ele>6.0600000000000005</ele>
   </trkpt>
   <trkpt lat="12.38709" lon="99.99845">
    <ele>6.180000000000001</ele>
   </trkpt>
   <trkpt lat="12.38756" lon="99.99829000000001">
    <ele>6.220000000000001</ele>
   </trkpt>
   <trkpt lat="12.387555000420962" lon="99.99780999995974">
    <ele>5.83</ele>
   </trkpt>
   <trkpt lat="12.387550000000001" lon="99.99733">
    <ele>5.840000000000001</ele>
   </trkpt>
   <trkpt lat="12.387550000000001" lon="99.99732">
    <ele>5.840000000000001</ele>
   </trkpt>
   <trkpt lat="12.387540007531857" lon="99.99649142838177">
    <ele>6.140000000000001</ele>
   </trkpt>
   <trkpt lat="12.387530012553094" lon="99.99566285682705">
    <ele>6.46</ele>
   </trkpt>
   <trkpt lat="12.387520015063716" lon="99.9948342853358">
    <ele>6.8100000000000005</ele>
   </trkpt>
   <trkpt lat="12.38751001506372" lon="99.9940057139081">
    <ele>6.880000000000001</ele>
   </trkpt>
   <trkpt lat="12.387500012553115" lon="99.99317714254393">
    <ele>7.11</ele>
   </trkpt>
   <trkpt lat="12.387490007531898" lon="99.99234857124327">
    <ele>7.2700000000000005</ele>
   </trkpt>
   <trkpt lat="12.387480000000002" lon="99.99152000000001">
    <ele>7.8100000000000005</ele>
   </trkpt>
   <trkpt lat="12.387805721359584" lon="99.99071714886765">
    <ele>6.2700000000000005</ele>
   </trkpt>
   <trkpt lat="12.388131440361947" lon="99.9899142957303">
    <ele>6.300000000000001</ele>
   </trkpt>
   <trkpt lat="12.388457157007016" lon="99.989111440588">
    <ele>6.670000000000001</ele>
   </trkpt>
   <trkpt lat="12.388782871294723" lon="99.98830858344067">
    <ele>6.920000000000001</ele>
   </trkpt>
   <trkpt lat="12.389108583224996" lon="99.98750572428825">
    <ele>6.800000000000001</ele>
   </trkpt>
   <trkpt lat="12.38943429279777" lon="99.98670286313074">
    <ele>6.5</ele>
   </trkpt>
   <trkpt lat="12.38976" lon="99.98590000000002">
    <ele>6.38</ele>
   </trkpt>
   <trkpt lat="12.38973" lon="99.98584000000001">
    <ele>6.42</ele>
   </trkpt>
   <trkpt lat="12.389740000000002" lon="99.98581000000001">
    <ele>6.42</ele>
   </trkpt>
   <trkpt lat="12.389790000000001" lon="99.98578">
    <ele>6.430000000000001</ele>
   </trkpt>
   <trkpt lat="12.389846669496556" lon="99.98490000042221">
    <ele>6.450000000000001</ele>
   </trkpt>
   <trkpt lat="12.389903336160666" lon="99.98402000046201">
    <ele>6.91</ele>
   </trkpt>
   <trkpt lat="12.38996" lon="99.98314">
    <ele>7.140000000000001</ele>
   </trkpt>
   <trkpt lat="12.389970005515991" lon="99.9823633334689">
    <ele>9.1</ele>
   </trkpt>
   <trkpt lat="12.389980008825663" lon="99.9815866668782">
    <ele>10.07</ele>
   </trkpt>
   <trkpt lat="12.389990009929003" lon="99.98081000022795">
    <ele>8.48</ele>
   </trkpt>
   <trkpt lat="12.39000000882601" lon="99.98003333351812">
    <ele>7.620000000000001</ele>
   </trkpt>
   <trkpt lat="12.390010005516686" lon="99.97925666674875">
    <ele>6.970000000000001</ele>
   </trkpt>
   <trkpt lat="12.390020000000002" lon="99.97848">
    <ele>7.38</ele>
   </trkpt>
   <trkpt lat="12.390796666662025" lon="99.97852666638796">
    <ele>6.55</ele>
   </trkpt>
   <trkpt lat="12.391573333316087" lon="99.97857333305386">
    <ele>6.36</ele>
   </trkpt>
   <trkpt lat="12.39235" lon="99.97862">
    <ele>6.17</ele>
   </trkpt>
   <trkpt lat="12.39249" lon="99.97861">
    <ele>6.17</ele>
   </trkpt>
   <trkpt lat="12.392550000000002" lon="99.97857">
    <ele>6.1000000000000005</ele>
   </trkpt>
   <trkpt lat="12.392600000000002" lon="99.97850000000001">
    <ele>6.1000000000000005</ele>
   </trkpt>
   <trkpt lat="12.392600000000002" lon="99.97810000000001">
    <ele>5.670000000000001</ele>
   </trkpt>
   <trkpt lat="12.392560000000001" lon="99.97783000000001">
    <ele>5.65</ele>
   </trkpt>
   <trkpt lat="12.392430000466236" lon="99.97733999985769">
    <ele>5.74</ele>
   </trkpt>
   <trkpt lat="12.3923" lon="99.97685000000001">
    <ele>5.970000000000001</ele>
   </trkpt>
   <trkpt lat="12.392240000000001" lon="99.97654000000001">
    <ele>5.970000000000001</ele>
   </trkpt>
   <trkpt lat="12.392240000000001" lon="99.97642">
    <ele>6.16</ele>
   </trkpt>
   <trkpt lat="12.392280000000001" lon="99.97632">
    <ele>6.16</ele>
   </trkpt>
   <trkpt lat="12.392510000000001" lon="99.97614000000002">
    <ele>6.140000000000001</ele>
   </trkpt>
   <trkpt lat="12.393164001120589" lon="99.97574800393538">
    <ele>5.920000000000001</ele>
   </trkpt>
   <trkpt lat="12.393818001679005" lon="99.97535600590432">
    <ele>5.970000000000001</ele>
   </trkpt>
   <trkpt lat="12.39447200167521" lon="99.97496400590673">
    <ele>6.07</ele>
   </trkpt>
   <trkpt lat="12.39512600110917" lon="99.9745720039425">
    <ele>6.19</ele>
   </trkpt>
   <trkpt lat="12.39578" lon="99.97418">
    <ele>6.19</ele>
   </trkpt>
   <trkpt lat="12.39637000024059" lon="99.97384500073821">
    <ele>6.21</ele>
   </trkpt>
   <trkpt lat="12.396960000000002" lon="99.97351">
    <ele>6.260000000000001</ele>
   </trkpt>
   <trkpt lat="12.397580000133724" lon="99.97318000081985">
    <ele>6.34</ele>
   </trkpt>
   <trkpt lat="12.398200000000001" lon="99.97285000000001">
    <ele>6.37</ele>
   </trkpt>
   <trkpt lat="12.39844" lon="99.97265">
    <ele>6.5</ele>
   </trkpt>
   <trkpt lat="12.39869" lon="99.97236000000001">
    <ele>6.430000000000001</ele>
   </trkpt>
   <trkpt lat="12.398940000000001" lon="99.97203">
    <ele>6.49</ele>
   </trkpt>
   <trkpt lat="12.399260000000002" lon="99.9715">
    <ele>6.37</ele>
   </trkpt>
   <trkpt lat="12.399560001102746" lon="99.97094333467344">
    <ele>6.3100000000000005</ele>
   </trkpt>
   <trkpt lat="12.399860001071254" lon="99.97038666806522">
    <ele>6.16</ele>
   </trkpt>
   <trkpt lat="12.400160000000001" lon="99.96983">
    <ele>6.140000000000001</ele>
   </trkpt>
   <trkpt lat="12.40042" lon="99.96933000000001">
    <ele>5.85</ele>
   </trkpt>
   <trkpt lat="12.400640000466206" lon="99.96884000035412">
    <ele>5.48</ele>
   </trkpt>
   <trkpt lat="12.400860000000002" lon="99.96835000000002">
    <ele>5.4</ele>
   </trkpt>
   <trkpt lat="12.40103" lon="99.96806000000001">
    <ele>5.2700000000000005</ele>
   </trkpt>
   <trkpt lat="12.401250000000001" lon="99.96789000000001">
    <ele>5.17</ele>
   </trkpt>
   <trkpt lat="12.401660000000001" lon="99.96769">
    <ele>4.64</ele>
   </trkpt>
   <trkpt lat="12.402370000000001" lon="99.96747">
    <ele>4.0200000000000005</ele>
   </trkpt>
   <trkpt lat="12.402899999879093" lon="99.96735500026543">
    <ele>3.8400000000000003</ele>
   </trkpt>
   <trkpt lat="12.40343" lon="99.96724">
    <ele>4.3100000000000005</ele>
   </trkpt>
   <trkpt lat="12.40421" lon="99.96702">
    <ele>8.39</ele>
   </trkpt>
   <trkpt lat="12.40446" lon="99.96692">
    <ele>11.47</ele>
   </trkpt>
   <trkpt lat="12.40459" lon="99.96684">
    <ele>11.47</ele>
   </trkpt>
   <trkpt lat="12.405056667337087" lon="99.96642333479532">
    <ele>13.840000000000002</ele>
   </trkpt>
   <trkpt lat="12.405523334038442" lon="99.9660066680977">
    <ele>11.160000000000002</ele>
   </trkpt>
   <trkpt lat="12.405990000000001" lon="99.96559">
    <ele>7.44</ele>
   </trkpt>
   <trkpt lat="12.40656" lon="99.96508000000001">
    <ele>5.930000000000001</ele>
   </trkpt>
   <trkpt lat="12.40689" lon="99.96475000000001">
    <ele>6.130000000000001</ele>
   </trkpt>
   <trkpt lat="12.40717" lon="99.96431000000001">
    <ele>6.48</ele>
   </trkpt>
   <trkpt lat="12.40732" lon="99.96371">
    <ele>6.83</ele>
   </trkpt>
   <trkpt lat="12.407440000000001" lon="99.96308">
    <ele>7.8900000000000015</ele>
   </trkpt>
   <trkpt lat="12.407540000000001" lon="99.96276">
    <ele>8.650000000000002</ele>
   </trkpt>
   <trkpt lat="12.407660000000002" lon="99.96247000000001">
    <ele>8.910000000000002</ele>
   </trkpt>
   <trkpt lat="12.40806" lon="99.96168">
    <ele>10.05</ele>
   </trkpt>
   <trkpt lat="12.40846500079387" lon="99.9610350009522">
    <ele>10.540000000000001</ele>
   </trkpt>
   <trkpt lat="12.40887" lon="99.96039">
    <ele>11.080000000000002</ele>
   </trkpt>
   <trkpt lat="12.4091" lon="99.95952000000001">
    <ele>11.47</ele>
   </trkpt>
   <trkpt lat="12.40934" lon="99.95892">
    <ele>12.88</ele>
   </trkpt>
   <trkpt lat="12.40987000011041" lon="99.9589549999359">
    <ele>13.02</ele>
   </trkpt>
   <trkpt lat="12.410400000000001" lon="99.95899000000001">
    <ele>13.71</ele>
   </trkpt>
   <trkpt lat="12.410540000000001" lon="99.95893000000001">
    <ele>13.760000000000002</ele>
   </trkpt>
   <trkpt lat="12.41088" lon="99.95871000000001">
    <ele>13.9</ele>
   </trkpt>
   <trkpt lat="12.41127500004367" lon="99.95849000035884">
    <ele>14.650000000000002</ele>
   </trkpt>
   <trkpt lat="12.41167" lon="99.95827000000001">
    <ele>14.950000000000001</ele>
   </trkpt>
   <trkpt lat="12.41197" lon="99.95818000000001">
    <ele>15.13</ele>
   </trkpt>
   <trkpt lat="12.412495000049542" lon="99.95819499997117">
    <ele>15.44</ele>
   </trkpt>
   <trkpt lat="12.413020000000001" lon="99.95821000000001">
    <ele>15.73</ele>
   </trkpt>
   <trkpt lat="12.413250000000001" lon="99.95819">
    <ele>15.780000000000003</ele>
   </trkpt>
   <trkpt lat="12.41336" lon="99.95801">
    <ele>15.98</ele>
   </trkpt>
   <trkpt lat="12.413515000535508" lon="99.95745500043367">
    <ele>16.110000000000003</ele>
   </trkpt>
   <trkpt lat="12.413670000000002" lon="99.9569">
    <ele>16.060000000000002</ele>
   </trkpt>
   <trkpt lat="12.41397500089461" lon="99.95621000075799">
    <ele>15.790000000000001</ele>
   </trkpt>
   <trkpt lat="12.414280000000002" lon="99.95552">
    <ele>16.37</ele>
   </trkpt>
   <trkpt lat="12.41441" lon="99.95549000000001">
    <ele>16.400000000000002</ele>
   </trkpt>
   <trkpt lat="12.415170000221009" lon="99.95567999834114">
    <ele>18.27</ele>
   </trkpt>
   <trkpt lat="12.415930000309725" lon="99.95586999779188">
    <ele>19.810000000000002</ele>
   </trkpt>
   <trkpt lat="12.416690000266145" lon="99.95605999835233">
    <ele>21.560000000000002</ele>
   </trkpt>
   <trkpt lat="12.41745" lon="99.95625000000001">
    <ele>23.450000000000003</ele>
   </trkpt>
   <trkpt lat="12.41783" lon="99.95630000000001">
    <ele>23.85</ele>
   </trkpt>
   <trkpt lat="12.41815" lon="99.95629000000001">
    <ele>24.130000000000003</ele>
   </trkpt>
   <trkpt lat="12.418500000000002" lon="99.95618">
    <ele>24.180000000000003</ele>
   </trkpt>
   <trkpt lat="12.419110000000002" lon="99.95587">
    <ele>23.900000000000002</ele>
   </trkpt>
   <trkpt lat="12.41932" lon="99.95572000000001">
    <ele>23.73</ele>
   </trkpt>
   <trkpt lat="12.4196" lon="99.95508000000001">
    <ele>22.740000000000002</ele>
   </trkpt>
   <trkpt lat="12.419730000000001" lon="99.95495000000001">
    <ele>22.62</ele>
   </trkpt>
   <trkpt lat="12.419910000000002" lon="99.95484">
    <ele>22.3</ele>
   </trkpt>
   <trkpt lat="12.42064" lon="99.95452">
    <ele>21.87</ele>
   </trkpt>
   <trkpt lat="12.42088" lon="99.95431">
    <ele>21.550000000000004</ele>
   </trkpt>
   <trkpt lat="12.421420000000001" lon="99.95382000000001">
    <ele>21.0</ele>
   </trkpt>
   <trkpt lat="12.42162" lon="99.95367">
    <ele>20.73</ele>
   </trkpt>
   <trkpt lat="12.42177" lon="99.95363">
    <ele>20.470000000000002</ele>
   </trkpt>
   <trkpt lat="12.421930000000001" lon="99.95369000000001">
    <ele>20.28</ele>
   </trkpt>
   <trkpt lat="12.422060000000002" lon="99.95376">
    <ele>20.200000000000003</ele>
   </trkpt>
   <trkpt lat="12.42247" lon="99.95415000000001">
    <ele>20.43</ele>
   </trkpt>
   <trkpt lat="12.422885000417262" lon="99.95462499924625">
    <ele>20.73</ele>
   </trkpt>
   <trkpt lat="12.423300000000001" lon="99.9551">
    <ele>21.16</ele>
   </trkpt>
   <trkpt lat="12.423810000478221" lon="99.95558999907567">
    <ele>21.18</ele>
   </trkpt>
   <trkpt lat="12.424320000000002" lon="99.95608000000001">
    <ele>21.32</ele>
   </trkpt>
   <trkpt lat="12.42510000036535" lon="99.95639333145583">
    <ele>21.830000000000002</ele>
   </trkpt>
   <trkpt lat="12.425880000370645" lon="99.95670666479124">
    <ele>23.01</ele>
   </trkpt>
   <trkpt lat="12.426660000000002" lon="99.95702000000001">
    <ele>23.860000000000003</ele>
   </trkpt>
   <trkpt lat="12.426850000000002" lon="99.95713">
    <ele>24.180000000000003</ele>
   </trkpt>
   <trkpt lat="12.427230000000002" lon="99.95742000000001">
    <ele>25.35</ele>
   </trkpt>
   <trkpt lat="12.427900000629979" lon="99.95799999851661">
    <ele>27.35</ele>
   </trkpt>
   <trkpt lat="12.42857" lon="99.95858000000001">
    <ele>30.570000000000004</ele>
   </trkpt>
   <trkpt lat="12.429060000000002" lon="99.95878">
    <ele>32.690000000000005</ele>
   </trkpt>
   <trkpt lat="12.429350000000001" lon="99.95887">
    <ele>32.89</ele>
   </trkpt>
   <trkpt lat="12.429910000000001" lon="99.959">
    <ele>34.910000000000004</ele>
   </trkpt>
   <trkpt lat="12.430060000000001" lon="99.95909">
    <ele>34.910000000000004</ele>
   </trkpt>
   <trkpt lat="12.430100000000001" lon="99.95915000000001">
    <ele>34.910000000000004</ele>
   </trkpt>
   <trkpt lat="12.430140000000002" lon="99.95926000000001">
    <ele>35.51</ele>
   </trkpt>
   <trkpt lat="12.430200000000001" lon="99.95981">
    <ele>37.08</ele>
   </trkpt>
   <trkpt lat="12.4303" lon="99.95998">
    <ele>37.28</ele>
   </trkpt>
   <trkpt lat="12.430610000000001" lon="99.96016">
    <ele>37.95</ele>
   </trkpt>
   <trkpt lat="12.43083" lon="99.96021">
    <ele>38.3</ele>
   </trkpt>
   <trkpt lat="12.431605000109045" lon="99.96028499978594">
    <ele>38.46</ele>
   </trkpt>
   <trkpt lat="12.43238" lon="99.96036000000001">
    <ele>38.11000000000001</ele>
   </trkpt>
   <trkpt lat="12.432870000000001" lon="99.9604">
    <ele>37.720000000000006</ele>
   </trkpt>
   <trkpt lat="12.433530000098285" lon="99.96052666603083">
    <ele>37.75000000000001</ele>
   </trkpt>
   <trkpt lat="12.43419000013769" lon="99.96065333270505">
    <ele>37.73</ele>
   </trkpt>
   <trkpt lat="12.43485" lon="99.96078000000001">
    <ele>37.55</ele>
   </trkpt>
   <trkpt lat="12.435110000000002" lon="99.96077000000001">
    <ele>37.55</ele>
   </trkpt>
   <trkpt lat="12.435850000044258" lon="99.9606900006826">
    <ele>37.27</ele>
   </trkpt>
   <trkpt lat="12.43659000006503" lon="99.96061000090951">
    <ele>35.99</ele>
   </trkpt>
   <trkpt lat="12.437330000062305" lon="99.96053000068069">
    <ele>34.440000000000005</ele>
   </trkpt>
   <trkpt lat="12.438070000000002" lon="99.96045000000001">
    <ele>32.510000000000005</ele>
   </trkpt>
   <trkpt lat="12.438210000000002" lon="99.9604">
    <ele>32.510000000000005</ele>
   </trkpt>
   <trkpt lat="12.43848" lon="99.96019000000001">
    <ele>31.810000000000006</ele>
   </trkpt>
   <trkpt lat="12.438670000000002" lon="99.96011000000001">
    <ele>31.6</ele>
   </trkpt>
   <trkpt lat="12.438880000000001" lon="99.96014000000001">
    <ele>31.19</ele>
   </trkpt>
   <trkpt lat="12.439100000000002" lon="99.96023000000001">
    <ele>30.76</ele>
   </trkpt>
   <trkpt lat="12.439870000399264" lon="99.96067499870144">
    <ele>28.37</ele>
   </trkpt>
   <trkpt lat="12.44064" lon="99.96112000000001">
    <ele>25.460000000000004</ele>
   </trkpt>
   <trkpt lat="12.441070000000002" lon="99.96130000000001">
    <ele>23.430000000000003</ele>
   </trkpt>
   <trkpt lat="12.4412" lon="99.96132000000001">
    <ele>23.15</ele>
   </trkpt>
   <trkpt lat="12.44134" lon="99.96130000000001">
    <ele>23.1</ele>
   </trkpt>
   <trkpt lat="12.44216500023085" lon="99.96096500105422">
    <ele>25.66</ele>
   </trkpt>
   <trkpt lat="12.442990000000002" lon="99.96063000000001">
    <ele>30.130000000000003</ele>
   </trkpt>
   <trkpt lat="12.443190000000001" lon="99.96058000000001">
    <ele>30.050000000000004</ele>
   </trkpt>
   <trkpt lat="12.443380000000001" lon="99.96057">
    <ele>29.200000000000003</ele>
   </trkpt>
   <trkpt lat="12.443650000000002" lon="99.96058000000001">
    <ele>29.200000000000003</ele>
   </trkpt>
   <trkpt lat="12.443940000000001" lon="99.96066">
    <ele>26.080000000000002</ele>
   </trkpt>
   <trkpt lat="12.444220000000001" lon="99.9608">
    <ele>26.080000000000002</ele>
   </trkpt>
   <trkpt lat="12.444927501404937" lon="99.96130749584084">
    <ele>20.400000000000002</ele>
   </trkpt>
   <trkpt lat="12.445635001863927" lon="99.96181499444762">
    <ele>18.44</ele>
   </trkpt>
   <trkpt lat="12.4463425013769" lon="99.96232249582052">
    <ele>18.430000000000003</ele>
   </trkpt>
   <trkpt lat="12.44705" lon="99.96283000000001">
    <ele>19.630000000000003</ele>
   </trkpt>
   <trkpt lat="12.44716" lon="99.96289">
    <ele>19.8</ele>
   </trkpt>
   <trkpt lat="12.44725" lon="99.96288000000001">
    <ele>19.8</ele>
   </trkpt>
   <trkpt lat="12.447310000000002" lon="99.96284000000001">
    <ele>19.950000000000003</ele>
   </trkpt>
   <trkpt lat="12.447415000441765" lon="99.96236000010926">
    <ele>21.040000000000003</ele>
   </trkpt>
   <trkpt lat="12.44752" lon="99.96188000000001">
    <ele>22.770000000000003</ele>
   </trkpt>
   <trkpt lat="12.448136667211893" lon="99.96226333151516">
    <ele>22.63</ele>
   </trkpt>
   <trkpt lat="12.448753333883957" lon="99.96264666485182">
    <ele>22.94</ele>
   </trkpt>
   <trkpt lat="12.449370000000002" lon="99.96303">
    <ele>23.85</ele>
   </trkpt>
   <trkpt lat="12.449510000000002" lon="99.96308">
    <ele>23.919999999999998</ele>
   </trkpt>
   <trkpt lat="12.450065000235092" lon="99.96345499918232">
    <ele>23.360000000000003</ele>
   </trkpt>
   <trkpt lat="12.45062" lon="99.96383">
    <ele>23.470000000000002</ele>
   </trkpt>
   <trkpt lat="12.45124" lon="99.96418000000001">
    <ele>23.110000000000003</ele>
   </trkpt>
   <trkpt lat="12.451793333851024" lon="99.96453666517785">
    <ele>21.93</ele>
   </trkpt>
   <trkpt lat="12.452346667234586" lon="99.96489333187685">
    <ele>19.87</ele>
   </trkpt>
   <trkpt lat="12.452900000000001" lon="99.96525000000001">
    <ele>18.73</ele>
   </trkpt>
   <trkpt lat="12.453603333662704" lon="99.96554666506063">
    <ele>17.46</ele>
   </trkpt>
   <trkpt lat="12.454306667001946" lon="99.96584333172974">
    <ele>16.66</ele>
   </trkpt>
   <trkpt lat="12.455010000000001" lon="99.96614000000001">
    <ele>15.74</ele>
   </trkpt>
   <trkpt lat="12.455795001350024" lon="99.96646374314136">
    <ele>15.06</ele>
   </trkpt>
   <trkpt lat="12.456580002314782" lon="99.96678748824222">
    <ele>14.49</ele>
   </trkpt>
   <trkpt lat="12.457365002894248" lon="99.9671112353027">
    <ele>14.5</ele>
   </trkpt>
   <trkpt lat="12.458150003088395" lon="99.96743498432296">
    <ele>14.66</ele>
   </trkpt>
   <trkpt lat="12.458935002897192" lon="99.96775873530318">
    <ele>15.450000000000001</ele>
   </trkpt>
   <trkpt lat="12.459720002320614" lon="99.96808248824341">
    <ele>15.240000000000002</ele>
   </trkpt>
   <trkpt lat="12.460505001358637" lon="99.96840624314385">
    <ele>15.330000000000002</ele>
   </trkpt>
   <trkpt lat="12.461290000000002" lon="99.96873000000001">
    <ele>14.4</ele>
   </trkpt>
   <trkpt lat="12.461960000000001" lon="99.96898">
    <ele>14.370000000000001</ele>
   </trkpt>
   <trkpt lat="12.462425000165615" lon="99.96919499965165">
    <ele>14.360000000000001</ele>
   </trkpt>
   <trkpt lat="12.462890000000002" lon="99.96941000000001">
    <ele>14.600000000000001</ele>
   </trkpt>
   <trkpt lat="12.4632" lon="99.96951000000001">
    <ele>15.46</ele>
   </trkpt>
   <trkpt lat="12.46382500025486" lon="99.9697599994532">
    <ele>16.009999999999998</ele>
   </trkpt>
   <trkpt lat="12.464450000000001" lon="99.97001">
    <ele>15.98</ele>
   </trkpt>
   <trkpt lat="12.46471" lon="99.97008000000001">
    <ele>15.88</ele>
   </trkpt>
   <trkpt lat="12.464910000000001" lon="99.97022000000001">
    <ele>15.88</ele>
   </trkpt>
   <trkpt lat="12.465550000242022" lon="99.97047999871323">
    <ele>15.83</ele>
   </trkpt>
   <trkpt lat="12.46619000023538" lon="99.97073999871053">
    <ele>16.009999999999998</ele>
   </trkpt>
   <trkpt lat="12.466830000000002" lon="99.971">
    <ele>15.66</ele>
   </trkpt>
   <trkpt lat="12.467020000000002" lon="99.9711">
    <ele>15.47</ele>
   </trkpt>
   <trkpt lat="12.467780000090631" lon="99.97138999912502">
    <ele>13.260000000000002</ele>
   </trkpt>
   <trkpt lat="12.46854" lon="99.97168">
    <ele>11.950000000000001</ele>
   </trkpt>
   <trkpt lat="12.468940000000002" lon="99.97178000000001">
    <ele>11.600000000000001</ele>
   </trkpt>
   <trkpt lat="12.469470000000001" lon="99.97182000000001">
    <ele>11.48</ele>
   </trkpt>
   <trkpt lat="12.470113333368046" lon="99.97180666673219">
    <ele>11.200000000000001</ele>
   </trkpt>
   <trkpt lat="12.470756666735435" lon="99.97179333339814">
    <ele>10.83</ele>
   </trkpt>
   <trkpt lat="12.471400000000001" lon="99.97178000000001">
    <ele>10.560000000000002</ele>
   </trkpt>
   <trkpt lat="12.47203333333339" lon="99.97175666678083">
    <ele>10.14</ele>
   </trkpt>
   <trkpt lat="12.472666666664777" lon="99.97173333344759">
    <ele>10.34</ele>
   </trkpt>
   <trkpt lat="12.473300000000002" lon="99.97171">
    <ele>10.59</ele>
   </trkpt>
   <trkpt lat="12.473490000000002" lon="99.97165000000001">
    <ele>10.46</ele>
   </trkpt>
   <trkpt lat="12.47375" lon="99.97169000000001">
    <ele>10.020000000000001</ele>
   </trkpt>
   <trkpt lat="12.474590000000001" lon="99.97166000000001">
    <ele>9.44</ele>
   </trkpt>
   <trkpt lat="12.474850000000002" lon="99.97168">
    <ele>9.340000000000002</ele>
   </trkpt>
   <trkpt lat="12.475549999955795" lon="99.97166000016352">
    <ele>9.28</ele>
   </trkpt>
   <trkpt lat="12.47624999991012" lon="99.97164000021891">
    <ele>9.36</ele>
   </trkpt>
   <trkpt lat="12.476949999862972" lon="99.97162000016618">
    <ele>9.32</ele>
   </trkpt>
   <trkpt lat="12.47765" lon="99.97160000000001">
    <ele>9.11</ele>
   </trkpt>
   <trkpt lat="12.478510000000002" lon="99.97151000000001">
    <ele>9.48</ele>
   </trkpt>
   <trkpt lat="12.47868" lon="99.97155000000001">
    <ele>9.430000000000001</ele>
   </trkpt>
   <trkpt lat="12.479540000000002" lon="99.97152000000001">
    <ele>9.36</ele>
   </trkpt>
   <trkpt lat="12.480150000000002" lon="99.97145">
    <ele>9.35</ele>
   </trkpt>
   <trkpt lat="12.480685000137852" lon="99.97135500017482">
    <ele>9.28</ele>
   </trkpt>
   <trkpt lat="12.48122" lon="99.97126000000002">
    <ele>9.340000000000002</ele>
   </trkpt>
   <trkpt lat="12.48201000007157" lon="99.97107500056269">
    <ele>9.290000000000001</ele>
   </trkpt>
   <trkpt lat="12.482800000000001" lon="99.97089000000001">
    <ele>9.44</ele>
   </trkpt>
   <trkpt lat="12.483480000050667" lon="99.97079000078898">
    <ele>9.430000000000001</ele>
   </trkpt>
   <trkpt lat="12.484160000064499" lon="99.97069000105243">
    <ele>9.35</ele>
   </trkpt>
   <trkpt lat="12.484840000041492" lon="99.97059000079037">
    <ele>9.420000000000002</ele>
   </trkpt>
   <trkpt lat="12.485520000000001" lon="99.97049000000001">
    <ele>9.41</ele>
   </trkpt>
   <trkpt lat="12.486000000066495" lon="99.97043500009505">
    <ele>9.53</ele>
   </trkpt>
   <trkpt lat="12.48648" lon="99.97038">
    <ele>9.48</ele>
   </trkpt>
   <trkpt lat="12.48737" lon="99.97030000000001">
    <ele>9.39</ele>
   </trkpt>
   <trkpt lat="12.487829999923498" lon="99.97023000013748">
    <ele>9.39</ele>
   </trkpt>
   <trkpt lat="12.488290000000001" lon="99.97016">
    <ele>9.45</ele>
   </trkpt>
   <trkpt lat="12.48882" lon="99.97003000000001">
    <ele>9.38</ele>
   </trkpt>
   <trkpt lat="12.489310000000001" lon="99.97002">
    <ele>9.250000000000002</ele>
   </trkpt>
   <trkpt lat="12.48985" lon="99.96995000000001">
    <ele>9.250000000000002</ele>
   </trkpt>
   <trkpt lat="12.490615000157621" lon="99.96991500009642">
    <ele>9.19</ele>
   </trkpt>
   <trkpt lat="12.491380000000001" lon="99.96988">
    <ele>8.990000000000002</ele>
   </trkpt>
   <trkpt lat="12.49155" lon="99.96985000000001">
    <ele>8.990000000000002</ele>
   </trkpt>
   <trkpt lat="12.49213500007254" lon="99.96979500011813">
    <ele>8.870000000000001</ele>
   </trkpt>
   <trkpt lat="12.49272" lon="99.96974">
    <ele>8.8</ele>
   </trkpt>
   <trkpt lat="12.49323" lon="99.96981000000001">
    <ele>8.85</ele>
   </trkpt>
   <trkpt lat="12.49368000003201" lon="99.96978500004181">
    <ele>8.690000000000001</ele>
   </trkpt>
   <trkpt lat="12.49413" lon="99.96976000000001">
    <ele>8.950000000000001</ele>
   </trkpt>
   <trkpt lat="12.4944" lon="99.96977000000001">
    <ele>9.14</ele>
   </trkpt>
   <trkpt lat="12.49454" lon="99.96974">
    <ele>9.45</ele>
   </trkpt>
   <trkpt lat="12.495000000000001" lon="99.96971">
    <ele>9.79</ele>
   </trkpt>
   <trkpt lat="12.495170000000002" lon="99.96973000000001">
    <ele>9.91</ele>
   </trkpt>
   <trkpt lat="12.495655000069343" lon="99.9697000000521">
    <ele>10.26</ele>
   </trkpt>
   <trkpt lat="12.49614" lon="99.96967000000001">
    <ele>9.860000000000001</ele>
   </trkpt>
   <trkpt lat="12.496830000000001" lon="99.96957">
    <ele>10.32</ele>
   </trkpt>
   <trkpt lat="12.49713" lon="99.96957">
    <ele>10.610000000000001</ele>
   </trkpt>
   <trkpt lat="12.49721" lon="99.96962">
    <ele>10.64</ele>
   </trkpt>
   <trkpt lat="12.49731" lon="99.96964000000001">
    <ele>10.64</ele>
   </trkpt>
   <trkpt lat="12.49779" lon="99.96954000000001">
    <ele>10.520000000000001</ele>
   </trkpt>
   <trkpt lat="12.49788" lon="99.96974">
    <ele>10.55</ele>
   </trkpt>
   <trkpt lat="12.49788" lon="99.96978000000001">
    <ele>10.66</ele>
   </trkpt>
   <trkpt lat="12.49796" lon="99.96978000000001">
    <ele>10.66</ele>
   </trkpt>
   <trkpt lat="12.497980000000002" lon="99.96963000000001">
    <ele>10.66</ele>
   </trkpt>
   <trkpt lat="12.49802" lon="99.96962">
    <ele>10.66</ele>
   </trkpt>
   <trkpt lat="12.4981" lon="99.96940000000001">
    <ele>10.71</ele>
   </trkpt>
   <trkpt lat="12.49816" lon="99.96933000000001">
    <ele>10.650000000000002</ele>
   </trkpt>
   <trkpt lat="12.498240000000001" lon="99.9693">
    <ele>10.650000000000002</ele>
   </trkpt>
   <trkpt lat="12.498900000069543" lon="99.96918000029862">
    <ele>10.17</ele>
   </trkpt>
   <trkpt lat="12.49956" lon="99.96906000000001">
    <ele>10.32</ele>
   </trkpt>
   <trkpt lat="12.500305000060045" lon="99.9689600002827">
    <ele>10.57</ele>
   </trkpt>
   <trkpt lat="12.501050000000001" lon="99.96886">
    <ele>10.23</ele>
   </trkpt>
   <trkpt lat="12.501790000136822" lon="99.96872800151067">
    <ele>10.17</ele>
   </trkpt>
   <trkpt lat="12.502530000209374" lon="99.9685960022653">
    <ele>10.25</ele>
   </trkpt>
   <trkpt lat="12.503270000217658" lon="99.96846400226389">
    <ele>10.3</ele>
   </trkpt>
   <trkpt lat="12.504010000161662" lon="99.96833200150633">
    <ele>10.700000000000001</ele>
   </trkpt>
   <trkpt lat="12.504750000000001" lon="99.96820000000001">
    <ele>11.18</ele>
   </trkpt>
   <trkpt lat="12.504940000000001" lon="99.96814">
    <ele>11.21</ele>
   </trkpt>
   <trkpt lat="12.505775714544326" lon="99.96798857436742">
    <ele>11.49</ele>
   </trkpt>
   <trkpt lat="12.50661142900404" lon="99.96783714775505">
    <ele>11.540000000000001</ele>
   </trkpt>
   <trkpt lat="12.507447143379148" lon="99.96768572016285">
    <ele>11.64</ele>
   </trkpt>
   <trkpt lat="12.508282857669641" lon="99.9675342915907">
    <ele>12.270000000000001</ele>
   </trkpt>
   <trkpt lat="12.509118571875511" lon="99.96738286203856">
    <ele>12.84</ele>
   </trkpt>
   <trkpt lat="12.509954285996754" lon="99.96723143150633">
    <ele>12.940000000000001</ele>
   </trkpt>
   <trkpt lat="12.510790000000002" lon="99.96708000000001">
    <ele>12.93</ele>
   </trkpt>
   <trkpt lat="12.510990000000001" lon="99.96706">
    <ele>12.790000000000001</ele>
   </trkpt>
   <trkpt lat="12.511330000000001" lon="99.96698">
    <ele>12.76</ele>
   </trkpt>
   <trkpt lat="12.51180499988149" lon="99.96689000019087">
    <ele>12.92</ele>
   </trkpt>
   <trkpt lat="12.51228" lon="99.9668">
    <ele>13.36</ele>
   </trkpt>
   <trkpt lat="12.512904999804041" lon="99.96663500046445">
    <ele>13.57</ele>
   </trkpt>
   <trkpt lat="12.513530000000001" lon="99.96647000000002">
    <ele>14.34</ele>
   </trkpt>
   <trkpt lat="12.513530000000001" lon="99.96623000000001">
    <ele>14.010000000000002</ele>
   </trkpt>
   <trkpt lat="12.5135" lon="99.96609000000001">
    <ele>14.010000000000002</ele>
   </trkpt>
   <trkpt lat="12.514190000001559" lon="99.9658750006008">
    <ele>13.760000000000002</ele>
   </trkpt>
   <trkpt lat="12.514880000000002" lon="99.96566000000001">
    <ele>13.200000000000001</ele>
   </trkpt>
   <trkpt lat="12.515723333886479" lon="99.96541500400315">
    <ele>12.72</ele>
   </trkpt>
   <trkpt lat="12.516566667551329" lon="99.9651700064053">
    <ele>13.38</ele>
   </trkpt>
   <trkpt lat="12.517410000994534" lon="99.96492500720636">
    <ele>14.24</ele>
   </trkpt>
   <trkpt lat="12.518253334216075" lon="99.9646800064062">
    <ele>14.57</ele>
   </trkpt>
   <trkpt lat="12.519096667215933" lon="99.96443500400468">
    <ele>13.780000000000001</ele>
   </trkpt>
   <trkpt lat="12.519940000000002" lon="99.96419">
    <ele>12.900000000000002</ele>
   </trkpt>
   <trkpt lat="12.520520000060484" lon="99.96404000033232">
    <ele>11.81</ele>
   </trkpt>
   <trkpt lat="12.5211" lon="99.96389">
    <ele>11.19</ele>
   </trkpt>
   <trkpt lat="12.521796666817432" lon="99.96371666759296">
    <ele>10.84</ele>
   </trkpt>
   <trkpt lat="12.522493333523881" lon="99.96354333424975">
    <ele>10.71</ele>
   </trkpt>
   <trkpt lat="12.523190000000001" lon="99.96337000000001">
    <ele>11.72</ele>
   </trkpt>
   <trkpt lat="12.52317" lon="99.96321">
    <ele>11.680000000000001</ele>
   </trkpt>
   <trkpt lat="12.524013334899985" lon="99.96296401126337">
    <ele>11.45</ele>
   </trkpt>
   <trkpt lat="12.524856669576403" lon="99.96271802091815">
    <ele>10.520000000000001</ele>
   </trkpt>
   <trkpt lat="12.525700004029236" lon="99.96247202896423">
    <ele>9.64</ele>
   </trkpt>
   <trkpt lat="12.526543338258469" lon="99.9622260354015">
    <ele>9.01</ele>
   </trkpt>
   <trkpt lat="12.527386672264079" lon="99.96198004022985">
    <ele>8.59</ele>
   </trkpt>
   <trkpt lat="12.528230006046057" lon="99.96173404344911">
    <ele>8.350000000000001</ele>
   </trkpt>
   <trkpt lat="12.529073339604382" lon="99.96148804505923">
    <ele>8.39</ele>
   </trkpt>
   <trkpt lat="12.529916672939036" lon="99.96124204506002">
    <ele>8.07</ele>
   </trkpt>
   <trkpt lat="12.530760006050006" lon="99.96099604345139">
    <ele>8.030000000000001</ele>
   </trkpt>
   <trkpt lat="12.531603338937272" lon="99.96075004023322">
    <ele>8.25</ele>
   </trkpt>
   <trkpt lat="12.532446671600814" lon="99.96050403540539">
    <ele>8.190000000000001</ele>
   </trkpt>
   <trkpt lat="12.533290004040621" lon="99.96025802896776">
    <ele>8.07</ele>
   </trkpt>
   <trkpt lat="12.534133336256675" lon="99.96001202092022">
    <ele>8.120000000000001</ele>
   </trkpt>
   <trkpt lat="12.534976668248953" lon="99.95976601126266">
    <ele>8.280000000000001</ele>
   </trkpt>
   <trkpt lat="12.535820000000001" lon="99.95952000000001">
    <ele>8.700000000000001</ele>
   </trkpt>
   <trkpt lat="12.53584" lon="99.95948000000001">
    <ele>8.700000000000001</ele>
   </trkpt>
   <trkpt lat="12.535870000000001" lon="99.95945">
    <ele>8.700000000000001</ele>
   </trkpt>
   <trkpt lat="12.535910000000001" lon="99.95946">
    <ele>8.59</ele>
   </trkpt>
   <trkpt lat="12.535940000000002" lon="99.95951000000001">
    <ele>8.59</ele>
   </trkpt>
   <trkpt lat="12.53607" lon="99.95956000000001">
    <ele>8.58</ele>
   </trkpt>
   <trkpt lat="12.536380000000001" lon="99.95955000000001">
    <ele>8.6</ele>
   </trkpt>
   <trkpt lat="12.53658" lon="99.95952000000001">
    <ele>8.610000000000001</ele>
   </trkpt>
   <trkpt lat="12.537020000000002" lon="99.95954">
    <ele>8.520000000000001</ele>
   </trkpt>
   <trkpt lat="12.53738" lon="99.95965000000001">
    <ele>8.6</ele>
   </trkpt>
   <trkpt lat="12.537540000000002" lon="99.95973000000001">
    <ele>8.9</ele>
   </trkpt>
   <trkpt lat="12.537830000000001" lon="99.95997000000001">
    <ele>9.65</ele>
   </trkpt>
   <trkpt lat="12.538" lon="99.96018000000001">
    <ele>10.010000000000002</ele>
   </trkpt>
   <trkpt lat="12.53813" lon="99.9604">
    <ele>10.010000000000002</ele>
   </trkpt>
   <trkpt lat="12.53822" lon="99.96060000000001">
    <ele>12.620000000000001</ele>
   </trkpt>
   <trkpt lat="12.538340000000002" lon="99.96102">
    <ele>13.61</ele>
   </trkpt>
   <trkpt lat="12.538506668365894" lon="99.96169666581422">
    <ele>15.290000000000001</ele>
   </trkpt>
   <trkpt lat="12.53867333503825" lon="99.96237333250396">
    <ele>15.38</ele>
   </trkpt>
   <trkpt lat="12.53884" lon="99.96305000000001">
    <ele>13.450000000000001</ele>
   </trkpt>
   <trkpt lat="12.53898" lon="99.96342000000001">
    <ele>11.39</ele>
   </trkpt>
   <trkpt lat="12.539100000000001" lon="99.96360000000001">
    <ele>10.83</ele>
   </trkpt>
   <trkpt lat="12.53936" lon="99.96387000000001">
    <ele>10.290000000000001</ele>
   </trkpt>
   <trkpt lat="12.539520000000001" lon="99.96399000000001">
    <ele>10.180000000000001</ele>
   </trkpt>
   <trkpt lat="12.539760000000001" lon="99.96411">
    <ele>10.05</ele>
   </trkpt>
   <trkpt lat="12.53997" lon="99.96418000000001">
    <ele>9.98</ele>
   </trkpt>
   <trkpt lat="12.54024" lon="99.9642">
    <ele>10.0</ele>
   </trkpt>
   <trkpt lat="12.540840000000001" lon="99.96414000000001">
    <ele>10.110000000000001</ele>
   </trkpt>
   <trkpt lat="12.54146" lon="99.96402">
    <ele>10.22</ele>
   </trkpt>
   <trkpt lat="12.54217500016385" lon="99.96386500040444">
    <ele>10.040000000000001</ele>
   </trkpt>
   <trkpt lat="12.542890000000002" lon="99.96371">
    <ele>10.010000000000002</ele>
   </trkpt>
   <trkpt lat="12.54348" lon="99.96360000000001">
    <ele>10.010000000000002</ele>
   </trkpt>
   <trkpt lat="12.54338" lon="99.96295">
    <ele>9.760000000000002</ele>
   </trkpt>
  </trkseg>
 </trk>
</gpx>
