<?xml version="1.0" encoding="UTF-8"?>
<gpx creator="https://gpx.studio" version="1.1" xmlns="http://www.topografix.com/GPX/1/1" xmlns:xsi="http://www.w3.org/2001/XMLSchema-instance" xsi:schemaLocation="http://www.topografix.com/GPX/1/1 http://www.topografix.com/GPX/1/1/gpx.xsd http://www.garmin.com/xmlschemas/GpxExtensions/v3 http://www.garmin.com/xmlschemas/GpxExtensionsv3.xsd http://www.garmin.com/xmlschemas/TrackPointExtension/v1 http://www.garmin.com/xmlschemas/TrackPointExtensionv1.xsd http://www.garmin.com/xmlschemas/PowerExtension/v1 http://www.garmin.com/xmlschemas/PowerExtensionv1.xsd http://www.topografix.com/GPX/gpx_style/0/2 http://www.topografix.com/GPX/gpx_style/0/2/gpx_style.xsd" xmlns:gpxtpx="http://www.garmin.com/xmlschemas/TrackPointExtension/v1" xmlns:gpxx="http://www.garmin.com/xmlschemas/GpxExtensions/v3" xmlns:gpxpx="http://www.garmin.com/xmlschemas/PowerExtension/v1" xmlns:gpx_style="http://www.topografix.com/GPX/gpx_style/0/2">
  <metadata>
    <name>krasny_most</name>
    <author>
      <name>gpx.studio</name>
      <link href="https://gpx.studio"/>
    </author>
  </metadata>
  <trk>
    <name>krasny_most</name>
    <trkseg>
      <trkpt lat="42.613375" lon="75.823268">
        <ele>1454.75</ele>
      </trkpt>
      <trkpt lat="42.613208" lon="75.823105">
        <ele>1457.5</ele>
      </trkpt>
      <trkpt lat="42.613076" lon="75.823002">
        <ele>1460</ele>
      </trkpt>
      <trkpt lat="42.613081" lon="75.823156">
        <ele>1463.5</ele>
      </trkpt>
      <trkpt lat="42.613241" lon="75.823495">
        <ele>1465.5</ele>
      </trkpt>
      <trkpt lat="42.613373" lon="75.823898">
        <ele>1472.5</ele>
      </trkpt>
      <trkpt lat="42.613726" lon="75.824602">
        <ele>1480</ele>
      </trkpt>
      <trkpt lat="42.614117" lon="75.825306">
        <ele>1482.75</ele>
      </trkpt>
      <trkpt lat="42.614315" lon="75.825601">
        <ele>1481</ele>
      </trkpt>
      <trkpt lat="42.614376" lon="75.825889">
        <ele>1484.75</ele>
      </trkpt>
      <trkpt lat="42.614381" lon="75.826209">
        <ele>1491</ele>
      </trkpt>
      <trkpt lat="42.614358" lon="75.826657">
        <ele>1501.5</ele>
      </trkpt>
      <trkpt lat="42.614334" lon="75.826836">
        <ele>1504.5</ele>
      </trkpt>
      <trkpt lat="42.61423" lon="75.82706">
        <ele>1511.75</ele>
      </trkpt>
      <trkpt lat="42.61416" lon="75.827233">
        <ele>1516.75</ele>
      </trkpt>
      <trkpt lat="42.614146" lon="75.8274">
        <ele>1518.75</ele>
      </trkpt>
      <trkpt lat="42.614146" lon="75.827611">
        <ele>1521.75</ele>
      </trkpt>
      <trkpt lat="42.614094" lon="75.827771">
        <ele>1528.5</ele>
      </trkpt>
      <trkpt lat="42.614021" lon="75.827724">
        <ele>1531.75</ele>
      </trkpt>
      <trkpt lat="42.614018" lon="75.827584">
        <ele>1529.25</ele>
      </trkpt>
      <trkpt lat="42.613981" lon="75.827416">
        <ele>1529.5</ele>
      </trkpt>
      <trkpt lat="42.613918" lon="75.827411">
        <ele>1533.5</ele>
      </trkpt>
      <trkpt lat="42.613881" lon="75.827579">
        <ele>1537.75</ele>
      </trkpt>
      <trkpt lat="42.613865" lon="75.827846">
        <ele>1543</ele>
      </trkpt>
      <trkpt lat="42.613875" lon="75.828032">
        <ele>1545.5</ele>
      </trkpt>
      <trkpt lat="42.614011" lon="75.828507">
        <ele>1548.5</ele>
      </trkpt>
      <trkpt lat="42.614025" lon="75.828629">
        <ele>1550.75</ele>
      </trkpt>
      <trkpt lat="42.613978" lon="75.828643">
        <ele>1552.5</ele>
      </trkpt>
      <trkpt lat="42.613908" lon="75.828606">
        <ele>1553.75</ele>
      </trkpt>
      <trkpt lat="42.613831" lon="75.828511">
        <ele>1555</ele>
      </trkpt>
      <trkpt lat="42.613762" lon="75.828489">
        <ele>1557</ele>
      </trkpt>
      <trkpt lat="42.613752" lon="75.828742">
        <ele>1560.25</ele>
      </trkpt>
      <trkpt lat="42.613791" lon="75.828855">
        <ele>1560.75</ele>
      </trkpt>
      <trkpt lat="42.613778" lon="75.82905">
        <ele>1563.25</ele>
      </trkpt>
      <trkpt lat="42.613722" lon="75.829258">
        <ele>1567.5</ele>
      </trkpt>
      <trkpt lat="42.613645" lon="75.829335">
        <ele>1569.75</ele>
      </trkpt>
      <trkpt lat="42.613595" lon="75.829249">
        <ele>1567.75</ele>
      </trkpt>
      <trkpt lat="42.613592" lon="75.829113">
        <ele>1565.75</ele>
      </trkpt>
      <trkpt lat="42.613542" lon="75.829082">
        <ele>1566.25</ele>
      </trkpt>
      <trkpt lat="42.613448" lon="75.829118">
        <ele>1567.25</ele>
      </trkpt>
      <trkpt lat="42.613208" lon="75.829738">
        <ele>1581</ele>
      </trkpt>
      <trkpt lat="42.613242" lon="75.829924">
        <ele>1581.25</ele>
      </trkpt>
      <trkpt lat="42.613315" lon="75.830096">
        <ele>1581.25</ele>
      </trkpt>
      <trkpt lat="42.613398" lon="75.830254">
        <ele>1585.25</ele>
      </trkpt>
      <trkpt lat="42.613415" lon="75.830354">
        <ele>1587.75</ele>
      </trkpt>
      <trkpt lat="42.613358" lon="75.830408">
        <ele>1587</ele>
      </trkpt>
      <trkpt lat="42.613252" lon="75.830394">
        <ele>1587.75</ele>
      </trkpt>
      <trkpt lat="42.613105" lon="75.830231">
        <ele>1589.25</ele>
      </trkpt>
      <trkpt lat="42.613012" lon="75.8302">
        <ele>1591.5</ele>
      </trkpt>
      <trkpt lat="42.612949" lon="75.830376">
        <ele>1594.75</ele>
      </trkpt>
      <trkpt lat="42.612942" lon="75.830634">
        <ele>1597.25</ele>
      </trkpt>
      <trkpt lat="42.613015" lon="75.831023">
        <ele>1601</ele>
      </trkpt>
      <trkpt lat="42.613022" lon="75.83115">
        <ele>1602.75</ele>
      </trkpt>
      <trkpt lat="42.613089" lon="75.831286">
        <ele>1605</ele>
      </trkpt>
      <trkpt lat="42.613159" lon="75.831304">
        <ele>1605.75</ele>
      </trkpt>
      <trkpt lat="42.613232" lon="75.831218">
        <ele>1604</ele>
      </trkpt>
      <trkpt lat="42.613298" lon="75.831109">
        <ele>1601.25</ele>
      </trkpt>
      <trkpt lat="42.613365" lon="75.831033">
        <ele>1600.5</ele>
      </trkpt>
      <trkpt lat="42.613408" lon="75.83106">
        <ele>1603</ele>
      </trkpt>
      <trkpt lat="42.613395" lon="75.831205">
        <ele>1606.5</ele>
      </trkpt>
      <trkpt lat="42.613115" lon="75.831834">
        <ele>1618</ele>
      </trkpt>
      <trkpt lat="42.613062" lon="75.831978">
        <ele>1621.75</ele>
      </trkpt>
      <trkpt lat="42.612939" lon="75.832051">
        <ele>1621.5</ele>
      </trkpt>
      <trkpt lat="42.612805" lon="75.832083">
        <ele>1619.5</ele>
      </trkpt>
      <trkpt lat="42.612609" lon="75.832083">
        <ele>1615.25</ele>
      </trkpt>
      <trkpt lat="42.612499" lon="75.832055">
        <ele>1612.25</ele>
      </trkpt>
      <trkpt lat="42.612472" lon="75.831906">
        <ele>1609</ele>
      </trkpt>
      <trkpt lat="42.612472" lon="75.831748">
        <ele>1605</ele>
      </trkpt>
      <trkpt lat="42.612462" lon="75.831634">
        <ele>1603.5</ele>
      </trkpt>
      <trkpt lat="42.612392" lon="75.83173">
        <ele>1607.75</ele>
      </trkpt>
      <trkpt lat="42.612316" lon="75.83187">
        <ele>1613.25</ele>
      </trkpt>
      <trkpt lat="42.612136" lon="75.832046">
        <ele>1620.75</ele>
      </trkpt>
      <trkpt lat="42.611976" lon="75.832227">
        <ele>1625.25</ele>
      </trkpt>
      <trkpt lat="42.611999" lon="75.832436">
        <ele>1625.5</ele>
      </trkpt>
      <trkpt lat="42.612123" lon="75.83258">
        <ele>1627.75</ele>
      </trkpt>
      <trkpt lat="42.612303" lon="75.832635">
        <ele>1629.25</ele>
      </trkpt>
      <trkpt lat="42.612559" lon="75.832617">
        <ele>1630.25</ele>
      </trkpt>
      <trkpt lat="42.612716" lon="75.832567">
        <ele>1632.5</ele>
      </trkpt>
      <trkpt lat="42.612809" lon="75.832571">
        <ele>1635.25</ele>
      </trkpt>
      <trkpt lat="42.612839" lon="75.832635">
        <ele>1638.5</ele>
      </trkpt>
      <trkpt lat="42.612782" lon="75.832752">
        <ele>1641.75</ele>
      </trkpt>
      <trkpt lat="42.611873" lon="75.833051">
        <ele>1640.5</ele>
      </trkpt>
      <trkpt lat="42.611097" lon="75.833241">
        <ele>1647</ele>
      </trkpt>
      <trkpt lat="42.610744" lon="75.833377">
        <ele>1652</ele>
      </trkpt>
      <trkpt lat="42.610467" lon="75.833472">
        <ele>1658.5</ele>
      </trkpt>
      <trkpt lat="42.610354" lon="75.83364">
        <ele>1661.75</ele>
      </trkpt>
      <trkpt lat="42.610274" lon="75.833852">
        <ele>1663.25</ele>
      </trkpt>
      <trkpt lat="42.610114" lon="75.833966">
        <ele>1663</ele>
      </trkpt>
      <trkpt lat="42.609984" lon="75.833898">
        <ele>1663.5</ele>
      </trkpt>
      <trkpt lat="42.610007" lon="75.833671">
        <ele>1664.5</ele>
      </trkpt>
      <trkpt lat="42.610224" lon="75.833214">
        <ele>1664.5</ele>
      </trkpt>
      <trkpt lat="42.610267" lon="75.833096">
        <ele>1665.5</ele>
      </trkpt>
      <trkpt lat="42.610251" lon="75.833015">
        <ele>1667.5</ele>
      </trkpt>
      <trkpt lat="42.610134" lon="75.833119">
        <ele>1668.75</ele>
      </trkpt>
      <trkpt lat="42.609831" lon="75.83349">
        <ele>1674</ele>
      </trkpt>
      <trkpt lat="42.609125" lon="75.834721">
        <ele>1685.75</ele>
      </trkpt>
      <trkpt lat="42.608801" lon="75.835047">
        <ele>1692.5</ele>
      </trkpt>
      <trkpt lat="42.608685" lon="75.835188">
        <ele>1697</ele>
      </trkpt>
      <trkpt lat="42.608065" lon="75.835296">
        <ele>1708</ele>
      </trkpt>
      <trkpt lat="42.607929" lon="75.835459">
        <ele>1710.25</ele>
      </trkpt>
      <trkpt lat="42.607765" lon="75.835604">
        <ele>1712.5</ele>
      </trkpt>
      <trkpt lat="42.607619" lon="75.835785">
        <ele>1713.5</ele>
      </trkpt>
      <trkpt lat="42.607552" lon="75.835799">
        <ele>1714.5</ele>
      </trkpt>
      <trkpt lat="42.607312" lon="75.835699">
        <ele>1719.75</ele>
      </trkpt>
      <trkpt lat="42.606859" lon="75.835708">
        <ele>1728.5</ele>
      </trkpt>
      <trkpt lat="42.606649" lon="75.835808">
        <ele>1731.75</ele>
      </trkpt>
      <trkpt lat="42.606483" lon="75.836143">
        <ele>1740.5</ele>
      </trkpt>
      <trkpt lat="42.606333" lon="75.836373">
        <ele>1745.25</ele>
      </trkpt>
      <trkpt lat="42.60619" lon="75.836636">
        <ele>1748</ele>
      </trkpt>
      <trkpt lat="42.605996" lon="75.836699">
        <ele>1748.5</ele>
      </trkpt>
      <trkpt lat="42.605713" lon="75.836763">
        <ele>1752.5</ele>
      </trkpt>
      <trkpt lat="42.60534" lon="75.836785">
        <ele>1763.5</ele>
      </trkpt>
      <trkpt lat="42.605247" lon="75.836908">
        <ele>1766.75</ele>
      </trkpt>
      <trkpt lat="42.60511" lon="75.836813">
        <ele>1770</ele>
      </trkpt>
      <trkpt lat="42.605127" lon="75.836668">
        <ele>1769</ele>
      </trkpt>
      <trkpt lat="42.605237" lon="75.836514">
        <ele>1768.75</ele>
      </trkpt>
      <trkpt lat="42.605363" lon="75.836373">
        <ele>1767</ele>
      </trkpt>
      <trkpt lat="42.60547" lon="75.836183">
        <ele>1765.75</ele>
      </trkpt>
      <trkpt lat="42.605397" lon="75.836138">
        <ele>1769.5</ele>
      </trkpt>
      <trkpt lat="42.604897" lon="75.836446">
        <ele>1781.5</ele>
      </trkpt>
      <trkpt lat="42.604471" lon="75.836785">
        <ele>1787.5</ele>
      </trkpt>
      <trkpt lat="42.604167" lon="75.83708">
        <ele>1795</ele>
      </trkpt>
      <trkpt lat="42.604028" lon="75.83727">
        <ele>1797.75</ele>
      </trkpt>
      <trkpt lat="42.603924" lon="75.837297">
        <ele>1800.25</ele>
      </trkpt>
      <trkpt lat="42.603938" lon="75.837188">
        <ele>1800.5</ele>
      </trkpt>
      <trkpt lat="42.604018" lon="75.836975">
        <ele>1799.25</ele>
      </trkpt>
      <trkpt lat="42.604031" lon="75.836912">
        <ele>1799.25</ele>
      </trkpt>
      <trkpt lat="42.603938" lon="75.836858">
        <ele>1802.25</ele>
      </trkpt>
      <trkpt lat="42.603804" lon="75.836921">
        <ele>1805.75</ele>
      </trkpt>
      <trkpt lat="42.603438" lon="75.837491">
        <ele>1809.75</ele>
      </trkpt>
      <trkpt lat="42.603351" lon="75.837614">
        <ele>1815.5</ele>
      </trkpt>
      <trkpt lat="42.603268" lon="75.837605">
        <ele>1817.5</ele>
      </trkpt>
      <trkpt lat="42.603245" lon="75.837537">
        <ele>1815.75</ele>
      </trkpt>
      <trkpt lat="42.603285" lon="75.837424">
        <ele>1814.5</ele>
      </trkpt>
      <trkpt lat="42.603341" lon="75.837319">
        <ele>1814</ele>
      </trkpt>
      <trkpt lat="42.603358" lon="75.837238">
        <ele>1814.75</ele>
      </trkpt>
      <trkpt lat="42.603331" lon="75.837179">
        <ele>1816.25</ele>
      </trkpt>
      <trkpt lat="42.603271" lon="75.837179">
        <ele>1818.25</ele>
      </trkpt>
      <trkpt lat="42.603145" lon="75.837297">
        <ele>1821</ele>
      </trkpt>
      <trkpt lat="42.602948" lon="75.837537">
        <ele>1824.75</ele>
      </trkpt>
      <trkpt lat="42.602851" lon="75.837781">
        <ele>1833</ele>
      </trkpt>
      <trkpt lat="42.602781" lon="75.83798">
        <ele>1838.25</ele>
      </trkpt>
      <trkpt lat="42.602691" lon="75.838026">
        <ele>1840.75</ele>
      </trkpt>
      <trkpt lat="42.602602" lon="75.837958">
        <ele>1841</ele>
      </trkpt>
      <trkpt lat="42.602598" lon="75.837813">
        <ele>1839.25</ele>
      </trkpt>
      <trkpt lat="42.602688" lon="75.837605">
        <ele>1833.75</ele>
      </trkpt>
      <trkpt lat="42.602715" lon="75.837464">
        <ele>1832</ele>
      </trkpt>
      <trkpt lat="42.602708" lon="75.837356">
        <ele>1834.5</ele>
      </trkpt>
      <trkpt lat="42.602615" lon="75.83736">
        <ele>1837.5</ele>
      </trkpt>
      <trkpt lat="42.602485" lon="75.837541">
        <ele>1839</ele>
      </trkpt>
      <trkpt lat="42.602245" lon="75.838053">
        <ele>1851.5</ele>
      </trkpt>
      <trkpt lat="42.602232" lon="75.838202">
        <ele>1852.25</ele>
      </trkpt>
      <trkpt lat="42.602308" lon="75.838293">
        <ele>1850.75</ele>
      </trkpt>
      <trkpt lat="42.602402" lon="75.83832">
        <ele>1849</ele>
      </trkpt>
      <trkpt lat="42.602525" lon="75.838419">
        <ele>1850.5</ele>
      </trkpt>
      <trkpt lat="42.602622" lon="75.838551">
        <ele>1855.75</ele>
      </trkpt>
      <trkpt lat="42.602642" lon="75.838618">
        <ele>1858.75</ele>
      </trkpt>
      <trkpt lat="42.602605" lon="75.838691">
        <ele>1862</ele>
      </trkpt>
      <trkpt lat="42.602468" lon="75.838668">
        <ele>1862</ele>
      </trkpt>
      <trkpt lat="42.602315" lon="75.838587">
        <ele>1860.25</ele>
      </trkpt>
      <trkpt lat="42.602128" lon="75.838551">
        <ele>1861.5</ele>
      </trkpt>
      <trkpt lat="42.601959" lon="75.838446">
        <ele>1861.25</ele>
      </trkpt>
      <trkpt lat="42.601869" lon="75.838374">
        <ele>1861.25</ele>
      </trkpt>
      <trkpt lat="42.601872" lon="75.838057">
        <ele>1862.75</ele>
      </trkpt>
      <trkpt lat="42.601989" lon="75.83779">
        <ele>1860.5</ele>
      </trkpt>
      <trkpt lat="42.602025" lon="75.837618">
        <ele>1859.75</ele>
      </trkpt>
      <trkpt lat="42.601959" lon="75.837532">
        <ele>1863</ele>
      </trkpt>
      <trkpt lat="42.601862" lon="75.837663">
        <ele>1866.25</ele>
      </trkpt>
      <trkpt lat="42.601725" lon="75.837912">
        <ele>1869</ele>
      </trkpt>
      <trkpt lat="42.601529" lon="75.838293">
        <ele>1870</ele>
      </trkpt>
      <trkpt lat="42.601382" lon="75.838809">
        <ele>1874</ele>
      </trkpt>
      <trkpt lat="42.601209" lon="75.838962">
        <ele>1875</ele>
      </trkpt>
      <trkpt lat="42.600959" lon="75.839148">
        <ele>1873.5</ele>
      </trkpt>
      <trkpt lat="42.600616" lon="75.839641">
        <ele>1873.5</ele>
      </trkpt>
      <trkpt lat="42.600303" lon="75.839732">
        <ele>1863</ele>
      </trkpt>
      <trkpt lat="42.600273" lon="75.839741">
        <ele>1862.25</ele>
      </trkpt>
      <trkpt lat="42.600246" lon="75.83961">
        <ele>1860.75</ele>
      </trkpt>
      <trkpt lat="42.600289" lon="75.839424">
        <ele>1860.75</ele>
      </trkpt>
      <trkpt lat="42.600279" lon="75.839347">
        <ele>1860</ele>
      </trkpt>
      <trkpt lat="42.600149" lon="75.839171">
        <ele>1855.75</ele>
      </trkpt>
      <trkpt lat="42.59992" lon="75.839103">
        <ele>1852</ele>
      </trkpt>
      <trkpt lat="42.599856" lon="75.839216">
        <ele>1848.75</ele>
      </trkpt>
      <trkpt lat="42.59984" lon="75.83946">
        <ele>1849</ele>
      </trkpt>
      <trkpt lat="42.599676" lon="75.839759">
        <ele>1847.25</ele>
      </trkpt>
      <trkpt lat="42.599576" lon="75.839972">
        <ele>1846.5</ele>
      </trkpt>
      <trkpt lat="42.599636" lon="75.840633">
        <ele>1860.75</ele>
      </trkpt>
      <trkpt lat="42.599763" lon="75.841398">
        <ele>1868.75</ele>
      </trkpt>
      <trkpt lat="42.600069" lon="75.842167">
        <ele>1869.25</ele>
      </trkpt>
      <trkpt lat="42.600426" lon="75.842837">
        <ele>1880.5</ele>
      </trkpt>
      <trkpt lat="42.600429" lon="75.843072">
        <ele>1880.5</ele>
      </trkpt>
      <trkpt lat="42.600353" lon="75.843339">
        <ele>1879.75</ele>
      </trkpt>
      <trkpt lat="42.60018" lon="75.843787">
        <ele>1882.5</ele>
      </trkpt>
      <trkpt lat="42.600159" lon="75.84415">
        <ele>1886</ele>
      </trkpt>
      <trkpt lat="42.600159" lon="75.84453">
        <ele>1889</ele>
      </trkpt>
      <trkpt lat="42.600056" lon="75.84472">
        <ele>1888.25</ele>
      </trkpt>
      <trkpt lat="42.5997" lon="75.845449">
        <ele>1900.25</ele>
      </trkpt>
      <trkpt lat="42.599643" lon="75.845684">
        <ele>1903</ele>
      </trkpt>
      <trkpt lat="42.599653" lon="75.845983">
        <ele>1904.5</ele>
      </trkpt>
      <trkpt lat="42.59969" lon="75.846168">
        <ele>1905</ele>
      </trkpt>
      <trkpt lat="42.599716" lon="75.84653">
        <ele>1906.5</ele>
      </trkpt>
      <trkpt lat="42.599723" lon="75.847549">
        <ele>1917</ele>
      </trkpt>
      <trkpt lat="42.59965" lon="75.847961">
        <ele>1920.5</ele>
      </trkpt>
      <trkpt lat="42.599576" lon="75.848223">
        <ele>1921.75</ele>
      </trkpt>
      <trkpt lat="42.599363" lon="75.848726">
        <ele>1920.75</ele>
      </trkpt>
      <trkpt lat="42.59923" lon="75.849119">
        <ele>1918.75</ele>
      </trkpt>
      <trkpt lat="42.599007" lon="75.849821">
        <ele>1930</ele>
      </trkpt>
      <trkpt lat="42.59885" lon="75.850142">
        <ele>1935.25</ele>
      </trkpt>
      <trkpt lat="42.598753" lon="75.850423">
        <ele>1939.5</ele>
      </trkpt>
      <trkpt lat="42.598687" lon="75.850749">
        <ele>1943.5</ele>
      </trkpt>
      <trkpt lat="42.598734" lon="75.85098">
        <ele>1946.5</ele>
      </trkpt>
      <trkpt lat="42.59877" lon="75.851324">
        <ele>1950</ele>
      </trkpt>
      <trkpt lat="42.598737" lon="75.851595">
        <ele>1952.25</ele>
      </trkpt>
      <trkpt lat="42.598744" lon="75.852274">
        <ele>1960.75</ele>
      </trkpt>
      <trkpt lat="42.598827" lon="75.852523">
        <ele>1964.25</ele>
      </trkpt>
      <trkpt lat="42.598917" lon="75.852835">
        <ele>1966.75</ele>
      </trkpt>
      <trkpt lat="42.598963" lon="75.853143">
        <ele>1968.5</ele>
      </trkpt>
      <trkpt lat="42.599037" lon="75.853442">
        <ele>1969.75</ele>
      </trkpt>
      <trkpt lat="42.59915" lon="75.853691">
        <ele>1969.5</ele>
      </trkpt>
      <trkpt lat="42.59938" lon="75.85399">
        <ele>1973.5</ele>
      </trkpt>
      <trkpt lat="42.599693" lon="75.854089">
        <ele>1977.5</ele>
      </trkpt>
      <trkpt lat="42.60003" lon="75.85403">
        <ele>1983.25</ele>
      </trkpt>
      <trkpt lat="42.600196" lon="75.854076">
        <ele>1987</ele>
      </trkpt>
      <trkpt lat="42.600336" lon="75.854288">
        <ele>1989.75</ele>
      </trkpt>
      <trkpt lat="42.600499" lon="75.854976">
        <ele>1998.5</ele>
      </trkpt>
      <trkpt lat="42.600516" lon="75.855198">
        <ele>2001.25</ele>
      </trkpt>
      <trkpt lat="42.600506" lon="75.855547">
        <ele>2005.25</ele>
      </trkpt>
      <trkpt lat="42.600409" lon="75.856221">
        <ele>2012.75</ele>
      </trkpt>
      <trkpt lat="42.600343" lon="75.856868">
        <ele>2021</ele>
      </trkpt>
      <trkpt lat="42.600403" lon="75.857633">
        <ele>2034.25</ele>
      </trkpt>
      <trkpt lat="42.600416" lon="75.858289">
        <ele>2044.25</ele>
      </trkpt>
      <trkpt lat="42.600486" lon="75.858552">
        <ele>2049.5</ele>
      </trkpt>
      <trkpt lat="42.600526" lon="75.858869">
        <ele>2055</ele>
      </trkpt>
      <trkpt lat="42.600466" lon="75.859177">
        <ele>2056.5</ele>
      </trkpt>
      <trkpt lat="42.600363" lon="75.860028">
        <ele>2065</ele>
      </trkpt>
      <trkpt lat="42.600386" lon="75.860326">
        <ele>2067</ele>
      </trkpt>
      <trkpt lat="42.600449" lon="75.860548">
        <ele>2069.75</ele>
      </trkpt>
      <trkpt lat="42.600473" lon="75.860756">
        <ele>2071</ele>
      </trkpt>
      <trkpt lat="42.600423" lon="75.860883">
        <ele>2070.25</ele>
      </trkpt>
      <trkpt lat="42.600259" lon="75.860933">
        <ele>2067</ele>
      </trkpt>
      <trkpt lat="42.60008" lon="75.860964">
        <ele>2063.25</ele>
      </trkpt>
      <trkpt lat="42.59994" lon="75.861127">
        <ele>2065</ele>
      </trkpt>
      <trkpt lat="42.599956" lon="75.861286">
        <ele>2066.5</ele>
      </trkpt>
      <trkpt lat="42.600096" lon="75.861462">
        <ele>2069</ele>
      </trkpt>
      <trkpt lat="42.600359" lon="75.861539">
        <ele>2074</ele>
      </trkpt>
      <trkpt lat="42.600429" lon="75.861729">
        <ele>2076.75</ele>
      </trkpt>
      <trkpt lat="42.600453" lon="75.862114">
        <ele>2081.5</ele>
      </trkpt>
      <trkpt lat="42.600459" lon="75.862422">
        <ele>2085.25</ele>
      </trkpt>
      <trkpt lat="42.600666" lon="75.863223">
        <ele>2091.5</ele>
      </trkpt>
      <trkpt lat="42.600686" lon="75.8634">
        <ele>2093</ele>
      </trkpt>
      <trkpt lat="42.600589" lon="75.863603">
        <ele>2095</ele>
      </trkpt>
      <trkpt lat="42.59987" lon="75.864151">
        <ele>2097</ele>
      </trkpt>
      <trkpt lat="42.599686" lon="75.864187">
        <ele>2099.5</ele>
      </trkpt>
      <trkpt lat="42.599337" lon="75.864056">
        <ele>2102</ele>
      </trkpt>
      <trkpt lat="42.59911" lon="75.86416">
        <ele>2105.5</ele>
      </trkpt>
      <trkpt lat="42.598963" lon="75.864346">
        <ele>2111</ele>
      </trkpt>
      <trkpt lat="42.598497" lon="75.86521">
        <ele>2118.5</ele>
      </trkpt>
      <trkpt lat="42.59819" lon="75.865685">
        <ele>2123</ele>
      </trkpt>
      <trkpt lat="42.598037" lon="75.865866">
        <ele>2126</ele>
      </trkpt>
      <trkpt lat="42.597877" lon="75.866084">
        <ele>2130</ele>
      </trkpt>
      <trkpt lat="42.597581" lon="75.866821">
        <ele>2134</ele>
      </trkpt>
      <trkpt lat="42.597554" lon="75.867211">
        <ele>2138</ele>
      </trkpt>
      <trkpt lat="42.597611" lon="75.867532">
        <ele>2143.5</ele>
      </trkpt>
      <trkpt lat="42.597677" lon="75.867826">
        <ele>2147.75</ele>
      </trkpt>
      <trkpt lat="42.597701" lon="75.868139">
        <ele>2151.25</ele>
      </trkpt>
      <trkpt lat="42.597647" lon="75.868374">
        <ele>2151.25</ele>
      </trkpt>
      <trkpt lat="42.597484" lon="75.8687">
        <ele>2148.75</ele>
      </trkpt>
      <trkpt lat="42.597361" lon="75.869166">
        <ele>2153.5</ele>
      </trkpt>
      <trkpt lat="42.597287" lon="75.869542">
        <ele>2159.5</ele>
      </trkpt>
      <trkpt lat="42.597148" lon="75.869831">
        <ele>2162.5</ele>
      </trkpt>
      <trkpt lat="42.596988" lon="75.870062">
        <ele>2163.25</ele>
      </trkpt>
      <trkpt lat="42.596721" lon="75.870257">
        <ele>2162</ele>
      </trkpt>
      <trkpt lat="42.596618" lon="75.870474">
        <ele>2164</ele>
      </trkpt>
      <trkpt lat="42.596601" lon="75.870823">
        <ele>2167</ele>
      </trkpt>
      <trkpt lat="42.596504" lon="75.871148">
        <ele>2171.5</ele>
      </trkpt>
      <trkpt lat="42.596395" lon="75.871651">
        <ele>2176</ele>
      </trkpt>
      <trkpt lat="42.596401" lon="75.87209">
        <ele>2181.75</ele>
      </trkpt>
      <trkpt lat="42.596328" lon="75.872389">
        <ele>2185</ele>
      </trkpt>
      <trkpt lat="42.596195" lon="75.872583">
        <ele>2186.75</ele>
      </trkpt>
      <trkpt lat="42.595758" lon="75.872982">
        <ele>2189.25</ele>
      </trkpt>
      <trkpt lat="42.595615" lon="75.873221">
        <ele>2193.5</ele>
      </trkpt>
      <trkpt lat="42.595532" lon="75.873561">
        <ele>2197.75</ele>
      </trkpt>
      <trkpt lat="42.595538" lon="75.873697">
        <ele>2199.5</ele>
      </trkpt>
      <trkpt lat="42.595575" lon="75.873783">
        <ele>2200.75</ele>
      </trkpt>
      <trkpt lat="42.595602" lon="75.873784">
        <ele>2200.75</ele>
      </trkpt>
      <trkpt lat="42.595655" lon="75.873787">
        <ele>2201</ele>
      </trkpt>
      <trkpt lat="42.595755" lon="75.87371">
        <ele>2200</ele>
      </trkpt>
      <trkpt lat="42.595825" lon="75.87362">
        <ele>2199</ele>
      </trkpt>
      <trkpt lat="42.596131" lon="75.873104">
        <ele>2198</ele>
      </trkpt>
      <trkpt lat="42.596305" lon="75.872959">
        <ele>2198.5</ele>
      </trkpt>
      <trkpt lat="42.596491" lon="75.872878">
        <ele>2200</ele>
      </trkpt>
      <trkpt lat="42.596661" lon="75.872719">
        <ele>2198</ele>
      </trkpt>
      <trkpt lat="42.597018" lon="75.872334">
        <ele>2198.25</ele>
      </trkpt>
      <trkpt lat="42.597071" lon="75.872208">
        <ele>2197.5</ele>
      </trkpt>
      <trkpt lat="42.597148" lon="75.872126">
        <ele>2198</ele>
      </trkpt>
      <trkpt lat="42.597214" lon="75.872131">
        <ele>2200.25</ele>
      </trkpt>
      <trkpt lat="42.597347" lon="75.872298">
        <ele>2207.5</ele>
      </trkpt>
      <trkpt lat="42.597547" lon="75.872429">
        <ele>2215.75</ele>
      </trkpt>
      <trkpt lat="42.597677" lon="75.872384">
        <ele>2218.75</ele>
      </trkpt>
      <trkpt lat="42.597757" lon="75.872262">
        <ele>2218.75</ele>
      </trkpt>
      <trkpt lat="42.597807" lon="75.872008">
        <ele>2215.75</ele>
      </trkpt>
      <trkpt lat="42.597797" lon="75.871818">
        <ele>2212.25</ele>
      </trkpt>
      <trkpt lat="42.597717" lon="75.871597">
        <ele>2206.25</ele>
      </trkpt>
      <trkpt lat="42.597644" lon="75.87142">
        <ele>2201.75</ele>
      </trkpt>
      <trkpt lat="42.597634" lon="75.871275">
        <ele>2200</ele>
      </trkpt>
      <trkpt lat="42.597697" lon="75.871081">
        <ele>2200</ele>
      </trkpt>
      <trkpt lat="42.597861" lon="75.871049">
        <ele>2205</ele>
      </trkpt>
      <trkpt lat="42.59822" lon="75.871094">
        <ele>2217</ele>
      </trkpt>
      <trkpt lat="42.598387" lon="75.871017">
        <ele>2221</ele>
      </trkpt>
      <trkpt lat="42.59852" lon="75.870895">
        <ele>2222.5</ele>
      </trkpt>
      <trkpt lat="42.598657" lon="75.870714">
        <ele>2222</ele>
      </trkpt>
      <trkpt lat="42.598833" lon="75.870546">
        <ele>2222.5</ele>
      </trkpt>
      <trkpt lat="42.598947" lon="75.870393">
        <ele>2222.25</ele>
      </trkpt>
      <trkpt lat="42.599" lon="75.870284">
        <ele>2221.5</ele>
      </trkpt>
      <trkpt lat="42.599123" lon="75.870175">
        <ele>2222.75</ele>
      </trkpt>
      <trkpt lat="42.59953" lon="75.870153">
        <ele>2225.25</ele>
      </trkpt>
      <trkpt lat="42.599716" lon="75.870166">
        <ele>2226</ele>
      </trkpt>
      <trkpt lat="42.59985" lon="75.870166">
        <ele>2226.5</ele>
      </trkpt>
      <trkpt lat="42.59997" lon="75.87008">
        <ele>2227.25</ele>
      </trkpt>
      <trkpt lat="42.60002" lon="75.869813">
        <ele>2226.25</ele>
      </trkpt>
      <trkpt lat="42.600036" lon="75.869596">
        <ele>2224.25</ele>
      </trkpt>
      <trkpt lat="42.60008" lon="75.869424">
        <ele>2223.5</ele>
      </trkpt>
      <trkpt lat="42.60013" lon="75.869311">
        <ele>2223.5</ele>
      </trkpt>
      <trkpt lat="42.600203" lon="75.869211">
        <ele>2224.5</ele>
      </trkpt>
      <trkpt lat="42.600309" lon="75.869085">
        <ele>2225.5</ele>
      </trkpt>
      <trkpt lat="42.600369" lon="75.86889">
        <ele>2224</ele>
      </trkpt>
      <trkpt lat="42.600516" lon="75.868591">
        <ele>2223.25</ele>
      </trkpt>
      <trkpt lat="42.600546" lon="75.868392">
        <ele>2221</ele>
      </trkpt>
      <trkpt lat="42.600496" lon="75.868179">
        <ele>2216.75</ele>
      </trkpt>
      <trkpt lat="42.600473" lon="75.868048">
        <ele>2214</ele>
      </trkpt>
      <trkpt lat="42.600483" lon="75.867881">
        <ele>2211.5</ele>
      </trkpt>
      <trkpt lat="42.600569" lon="75.867795">
        <ele>2211.5</ele>
      </trkpt>
      <trkpt lat="42.600663" lon="75.867781">
        <ele>2212.5</ele>
      </trkpt>
      <trkpt lat="42.600833" lon="75.867795">
        <ele>2215.25</ele>
      </trkpt>
      <trkpt lat="42.601186" lon="75.867871">
        <ele>2216</ele>
      </trkpt>
      <trkpt lat="42.601486" lon="75.867835">
        <ele>2214.5</ele>
      </trkpt>
      <trkpt lat="42.601745" lon="75.867722">
        <ele>2210.5</ele>
      </trkpt>
      <trkpt lat="42.601959" lon="75.8676">
        <ele>2208</ele>
      </trkpt>
      <trkpt lat="42.602108" lon="75.867541">
        <ele>2207.5</ele>
      </trkpt>
      <trkpt lat="42.602295" lon="75.867383">
        <ele>2206</ele>
      </trkpt>
      <trkpt lat="42.602378" lon="75.867224">
        <ele>2203.75</ele>
      </trkpt>
      <trkpt lat="42.602502" lon="75.866858">
        <ele>2199</ele>
      </trkpt>
      <trkpt lat="42.602578" lon="75.866473">
        <ele>2192.25</ele>
      </trkpt>
      <trkpt lat="42.602652" lon="75.866324">
        <ele>2190</ele>
      </trkpt>
      <trkpt lat="42.602822" lon="75.866147">
        <ele>2188.5</ele>
      </trkpt>
      <trkpt lat="42.602921" lon="75.865993">
        <ele>2188</ele>
      </trkpt>
      <trkpt lat="42.602991" lon="75.865903">
        <ele>2188</ele>
      </trkpt>
      <trkpt lat="42.603081" lon="75.86574">
        <ele>2188.5</ele>
      </trkpt>
      <trkpt lat="42.603115" lon="75.865531">
        <ele>2188.5</ele>
      </trkpt>
      <trkpt lat="42.603195" lon="75.865287">
        <ele>2189.5</ele>
      </trkpt>
      <trkpt lat="42.603285" lon="75.865183">
        <ele>2191</ele>
      </trkpt>
      <trkpt lat="42.603371" lon="75.865047">
        <ele>2190.5</ele>
      </trkpt>
      <trkpt lat="42.603528" lon="75.86478">
        <ele>2186.5</ele>
      </trkpt>
      <trkpt lat="42.603618" lon="75.864839">
        <ele>2182.25</ele>
      </trkpt>
      <trkpt lat="42.603651" lon="75.864948">
        <ele>2179.75</ele>
      </trkpt>
      <trkpt lat="42.603678" lon="75.865011">
        <ele>2178.25</ele>
      </trkpt>
      <trkpt lat="42.603741" lon="75.864966">
        <ele>2176</ele>
      </trkpt>
      <trkpt lat="42.603754" lon="75.864862">
        <ele>2176.75</ele>
      </trkpt>
      <trkpt lat="42.603751" lon="75.864599">
        <ele>2179.75</ele>
      </trkpt>
      <trkpt lat="42.603804" lon="75.864495">
        <ele>2178.75</ele>
      </trkpt>
      <trkpt lat="42.603874" lon="75.864386">
        <ele>2177</ele>
      </trkpt>
      <trkpt lat="42.603924" lon="75.864327">
        <ele>2175.75</ele>
      </trkpt>
      <trkpt lat="42.603994" lon="75.86426">
        <ele>2173.75</ele>
      </trkpt>
      <trkpt lat="42.604051" lon="75.864264">
        <ele>2171.5</ele>
      </trkpt>
      <trkpt lat="42.604071" lon="75.864395">
        <ele>2169.25</ele>
      </trkpt>
      <trkpt lat="42.603974" lon="75.86464">
        <ele>2170.5</ele>
      </trkpt>
      <trkpt lat="42.603977" lon="75.864798">
        <ele>2168.5</ele>
      </trkpt>
      <trkpt lat="42.604018" lon="75.864907">
        <ele>2165.75</ele>
      </trkpt>
      <trkpt lat="42.604187" lon="75.865545">
        <ele>2157.75</ele>
      </trkpt>
      <trkpt lat="42.604227" lon="75.86602">
        <ele>2154</ele>
      </trkpt>
      <trkpt lat="42.604191" lon="75.866432">
        <ele>2152</ele>
      </trkpt>
      <trkpt lat="42.603918" lon="75.86731">
        <ele>2151.75</ele>
      </trkpt>
      <trkpt lat="42.603838" lon="75.867609">
        <ele>2150.5</ele>
      </trkpt>
      <trkpt lat="42.603851" lon="75.867772">
        <ele>2147</ele>
      </trkpt>
      <trkpt lat="42.603941" lon="75.867745">
        <ele>2142.75</ele>
      </trkpt>
      <trkpt lat="42.604031" lon="75.867546">
        <ele>2141.5</ele>
      </trkpt>
      <trkpt lat="42.604078" lon="75.86741">
        <ele>2141.5</ele>
      </trkpt>
      <trkpt lat="42.604457" lon="75.866722">
        <ele>2136</ele>
      </trkpt>
      <trkpt lat="42.604517" lon="75.866509">
        <ele>2135.25</ele>
      </trkpt>
      <trkpt lat="42.604571" lon="75.866441">
        <ele>2133</ele>
      </trkpt>
      <trkpt lat="42.604614" lon="75.866441">
        <ele>2130.75</ele>
      </trkpt>
      <trkpt lat="42.604627" lon="75.866509">
        <ele>2129.75</ele>
      </trkpt>
      <trkpt lat="42.604434" lon="75.867455">
        <ele>2123.25</ele>
      </trkpt>
      <trkpt lat="42.604324" lon="75.868152">
        <ele>2116.25</ele>
      </trkpt>
      <trkpt lat="42.604281" lon="75.86836">
        <ele>2114.75</ele>
      </trkpt>
      <trkpt lat="42.604284" lon="75.868464">
        <ele>2112.25</ele>
      </trkpt>
      <trkpt lat="42.604311" lon="75.868514">
        <ele>2109.75</ele>
      </trkpt>
      <trkpt lat="42.604414" lon="75.868392">
        <ele>2107.5</ele>
      </trkpt>
      <trkpt lat="42.604491" lon="75.868256">
        <ele>2106.25</ele>
      </trkpt>
      <trkpt lat="42.605157" lon="75.866935">
        <ele>2097.25</ele>
      </trkpt>
      <trkpt lat="42.605207" lon="75.866912">
        <ele>2094.75</ele>
      </trkpt>
      <trkpt lat="42.60521" lon="75.86707">
        <ele>2092.25</ele>
      </trkpt>
      <trkpt lat="42.604904" lon="75.868265">
        <ele>2086</ele>
      </trkpt>
      <trkpt lat="42.60485" lon="75.868605">
        <ele>2082.5</ele>
      </trkpt>
      <trkpt lat="42.604694" lon="75.869021">
        <ele>2082</ele>
      </trkpt>
      <trkpt lat="42.604737" lon="75.869121">
        <ele>2078.5</ele>
      </trkpt>
      <trkpt lat="42.604827" lon="75.869066">
        <ele>2075.75</ele>
      </trkpt>
      <trkpt lat="42.605523" lon="75.86746">
        <ele>2070</ele>
      </trkpt>
      <trkpt lat="42.60568" lon="75.867197">
        <ele>2065</ele>
      </trkpt>
      <trkpt lat="42.605807" lon="75.866953">
        <ele>2060.5</ele>
      </trkpt>
      <trkpt lat="42.605906" lon="75.866812">
        <ele>2057.5</ele>
      </trkpt>
      <trkpt lat="42.60596" lon="75.866853">
        <ele>2055</ele>
      </trkpt>
      <trkpt lat="42.606063" lon="75.867052">
        <ele>2050</ele>
      </trkpt>
      <trkpt lat="42.606163" lon="75.867174">
        <ele>2046.25</ele>
      </trkpt>
      <trkpt lat="42.606386" lon="75.86727">
        <ele>2039</ele>
      </trkpt>
      <trkpt lat="42.606776" lon="75.867559">
        <ele>2023.5</ele>
      </trkpt>
      <trkpt lat="42.606786" lon="75.867813">
        <ele>2019.5</ele>
      </trkpt>
      <trkpt lat="42.606769" lon="75.868012">
        <ele>2018.25</ele>
      </trkpt>
      <trkpt lat="42.606683" lon="75.868093">
        <ele>2023</ele>
      </trkpt>
      <trkpt lat="42.606519" lon="75.868102">
        <ele>2027</ele>
      </trkpt>
      <trkpt lat="42.606346" lon="75.868093">
        <ele>2030.5</ele>
      </trkpt>
      <trkpt lat="42.606083" lon="75.868225">
        <ele>2033.5</ele>
      </trkpt>
      <trkpt lat="42.605903" lon="75.868392">
        <ele>2033.25</ele>
      </trkpt>
      <trkpt lat="42.60582" lon="75.86865">
        <ele>2029.75</ele>
      </trkpt>
      <trkpt lat="42.605783" lon="75.868872">
        <ele>2027</ele>
      </trkpt>
      <trkpt lat="42.605783" lon="75.869048">
        <ele>2023.5</ele>
      </trkpt>
      <trkpt lat="42.60586" lon="75.869094">
        <ele>2018.5</ele>
      </trkpt>
      <trkpt lat="42.605973" lon="75.868944">
        <ele>2018.5</ele>
      </trkpt>
      <trkpt lat="42.606106" lon="75.868813">
        <ele>2018</ele>
      </trkpt>
      <trkpt lat="42.606223" lon="75.868763">
        <ele>2016.25</ele>
      </trkpt>
      <trkpt lat="42.606373" lon="75.86875">
        <ele>2012.75</ele>
      </trkpt>
      <trkpt lat="42.606446" lon="75.868822">
        <ele>2008.25</ele>
      </trkpt>
      <trkpt lat="42.606473" lon="75.868989">
        <ele>2001.75</ele>
      </trkpt>
      <trkpt lat="42.60635" lon="75.869347">
        <ele>1994.25</ele>
      </trkpt>
      <trkpt lat="42.606326" lon="75.869483">
        <ele>1990.75</ele>
      </trkpt>
      <trkpt lat="42.60594" lon="75.869714">
        <ele>1997.5</ele>
      </trkpt>
      <trkpt lat="42.60583" lon="75.869931">
        <ele>1995.25</ele>
      </trkpt>
      <trkpt lat="42.605553" lon="75.870827">
        <ele>1985.25</ele>
      </trkpt>
      <trkpt lat="42.605377" lon="75.87113">
        <ele>1993</ele>
      </trkpt>
      <trkpt lat="42.605237" lon="75.871298">
        <ele>1997.5</ele>
      </trkpt>
      <trkpt lat="42.605193" lon="75.871434">
        <ele>1997.5</ele>
      </trkpt>
      <trkpt lat="42.605244" lon="75.871619">
        <ele>1993.5</ele>
      </trkpt>
      <trkpt lat="42.605237" lon="75.871909">
        <ele>1991</ele>
      </trkpt>
      <trkpt lat="42.605207" lon="75.872122">
        <ele>1989.5</ele>
      </trkpt>
      <trkpt lat="42.60509" lon="75.873104">
        <ele>1980.75</ele>
      </trkpt>
      <trkpt lat="42.604927" lon="75.873357">
        <ele>1978.75</ele>
      </trkpt>
      <trkpt lat="42.604744" lon="75.873534">
        <ele>1984.5</ele>
      </trkpt>
      <trkpt lat="42.60454" lon="75.873683">
        <ele>1988.25</ele>
      </trkpt>
      <trkpt lat="42.604271" lon="75.873701">
        <ele>1991</ele>
      </trkpt>
      <trkpt lat="42.604041" lon="75.873792">
        <ele>1994.25</ele>
      </trkpt>
      <trkpt lat="42.603781" lon="75.873946">
        <ele>1996.75</ele>
      </trkpt>
      <trkpt lat="42.603671" lon="75.874367">
        <ele>1995.75</ele>
      </trkpt>
      <trkpt lat="42.603461" lon="75.874697">
        <ele>1997.25</ele>
      </trkpt>
      <trkpt lat="42.603328" lon="75.874941">
        <ele>1996</ele>
      </trkpt>
      <trkpt lat="42.603188" lon="75.875236">
        <ele>2004</ele>
      </trkpt>
      <trkpt lat="42.603038" lon="75.875666">
        <ele>2012.25</ele>
      </trkpt>
      <trkpt lat="42.602918" lon="75.875851">
        <ele>2012.25</ele>
      </trkpt>
      <trkpt lat="42.602698" lon="75.876159">
        <ele>2012.75</ele>
      </trkpt>
      <trkpt lat="42.602518" lon="75.876471">
        <ele>2011.5</ele>
      </trkpt>
      <trkpt lat="42.602398" lon="75.877078">
        <ele>2023.25</ele>
      </trkpt>
      <trkpt lat="42.602322" lon="75.877354">
        <ele>2027.5</ele>
      </trkpt>
      <trkpt lat="42.602052" lon="75.877884">
        <ele>2029.5</ele>
      </trkpt>
      <trkpt lat="42.601962" lon="75.878132">
        <ele>2029</ele>
      </trkpt>
      <trkpt lat="42.601579" lon="75.878422">
        <ele>2024</ele>
      </trkpt>
      <trkpt lat="42.601469" lon="75.878676">
        <ele>2028.75</ele>
      </trkpt>
      <trkpt lat="42.601379" lon="75.878938">
        <ele>2031</ele>
      </trkpt>
      <trkpt lat="42.601289" lon="75.879314">
        <ele>2032</ele>
      </trkpt>
      <trkpt lat="42.601216" lon="75.879744">
        <ele>2033.25</ele>
      </trkpt>
      <trkpt lat="42.601319" lon="75.880934">
        <ele>2042.5</ele>
      </trkpt>
      <trkpt lat="42.601229" lon="75.881278">
        <ele>2043.25</ele>
      </trkpt>
      <trkpt lat="42.60113" lon="75.881703">
        <ele>2043.5</ele>
      </trkpt>
      <trkpt lat="42.60094" lon="75.8824">
        <ele>2042.5</ele>
      </trkpt>
      <trkpt lat="42.600896" lon="75.882617">
        <ele>2042.25</ele>
      </trkpt>
      <trkpt lat="42.600866" lon="75.882912">
        <ele>2042.75</ele>
      </trkpt>
      <trkpt lat="42.600776" lon="75.883269">
        <ele>2045</ele>
      </trkpt>
      <trkpt lat="42.600653" lon="75.884134">
        <ele>2055.75</ele>
      </trkpt>
      <trkpt lat="42.600576" lon="75.884451">
        <ele>2059.5</ele>
      </trkpt>
      <trkpt lat="42.600377" lon="75.885161">
        <ele>2064</ele>
      </trkpt>
      <trkpt lat="42.599943" lon="75.886479">
        <ele>2062</ele>
      </trkpt>
      <trkpt lat="42.599983" lon="75.886832">
        <ele>2064.25</ele>
      </trkpt>
      <trkpt lat="42.60007" lon="75.887294">
        <ele>2072.5</ele>
      </trkpt>
      <trkpt lat="42.600156" lon="75.887692">
        <ele>2077.25</ele>
      </trkpt>
      <trkpt lat="42.60019" lon="75.888109">
        <ele>2076.5</ele>
      </trkpt>
      <trkpt lat="42.600629" lon="75.888403">
        <ele>2086.75</ele>
      </trkpt>
      <trkpt lat="42.600858" lon="75.888573">
        <ele>2092.5</ele>
      </trkpt>
      <trkpt lat="42.600959" lon="75.888688">
        <ele>2095.5</ele>
      </trkpt>
      <trkpt lat="42.601079" lon="75.888909">
        <ele>2098</ele>
      </trkpt>
      <trkpt lat="42.601668" lon="75.889512">
        <ele>2113.5</ele>
      </trkpt>
      <trkpt lat="42.601845" lon="75.889733">
        <ele>2120.75</ele>
      </trkpt>
      <trkpt lat="42.601955" lon="75.89001">
        <ele>2126.5</ele>
      </trkpt>
      <trkpt lat="42.601968" lon="75.890213">
        <ele>2130.5</ele>
      </trkpt>
      <trkpt lat="42.602011" lon="75.890399">
        <ele>2134.25</ele>
      </trkpt>
      <trkpt lat="42.602101" lon="75.890621">
        <ele>2138.5</ele>
      </trkpt>
      <trkpt lat="42.602338" lon="75.891137">
        <ele>2145.25</ele>
      </trkpt>
      <trkpt lat="42.602411" lon="75.891363">
        <ele>2147.25</ele>
      </trkpt>
      <trkpt lat="42.602485" lon="75.89149">
        <ele>2147.5</ele>
      </trkpt>
      <trkpt lat="42.602575" lon="75.891562">
        <ele>2150.5</ele>
      </trkpt>
      <trkpt lat="42.602651" lon="75.891594">
        <ele>2153.25</ele>
      </trkpt>
      <trkpt lat="42.602718" lon="75.891666">
        <ele>2156</ele>
      </trkpt>
      <trkpt lat="42.602734" lon="75.891856">
        <ele>2158.75</ele>
      </trkpt>
      <trkpt lat="42.602674" lon="75.891997">
        <ele>2158.5</ele>
      </trkpt>
      <trkpt lat="42.602671" lon="75.892191">
        <ele>2161</ele>
      </trkpt>
      <trkpt lat="42.602651" lon="75.892341">
        <ele>2162.25</ele>
      </trkpt>
      <trkpt lat="42.602521" lon="75.892612">
        <ele>2162.75</ele>
      </trkpt>
      <trkpt lat="42.602428" lon="75.892829">
        <ele>2167.75</ele>
      </trkpt>
      <trkpt lat="42.602368" lon="75.893305">
        <ele>2177.5</ele>
      </trkpt>
      <trkpt lat="42.602361" lon="75.893563">
        <ele>2180.75</ele>
      </trkpt>
      <trkpt lat="42.602398" lon="75.893857">
        <ele>2183.75</ele>
      </trkpt>
      <trkpt lat="42.602475" lon="75.894196">
        <ele>2186.5</ele>
      </trkpt>
      <trkpt lat="42.602631" lon="75.894653">
        <ele>2194.25</ele>
      </trkpt>
      <trkpt lat="42.602791" lon="75.894907">
        <ele>2199.25</ele>
      </trkpt>
      <trkpt lat="42.603034" lon="75.895219">
        <ele>2206</ele>
      </trkpt>
      <trkpt lat="42.603234" lon="75.895341">
        <ele>2208.75</ele>
      </trkpt>
      <trkpt lat="42.603527" lon="75.895473">
        <ele>2215.25</ele>
      </trkpt>
      <trkpt lat="42.604094" lon="75.895704">
        <ele>2229.75</ele>
      </trkpt>
      <trkpt lat="42.604313" lon="75.89588">
        <ele>2235.25</ele>
      </trkpt>
      <trkpt lat="42.60456" lon="75.896224">
        <ele>2245.5</ele>
      </trkpt>
      <trkpt lat="42.605323" lon="75.896717">
        <ele>2269.25</ele>
      </trkpt>
      <trkpt lat="42.605973" lon="75.896957">
        <ele>2291.5</ele>
      </trkpt>
      <trkpt lat="42.606249" lon="75.89698">
        <ele>2299.25</ele>
      </trkpt>
      <trkpt lat="42.606402" lon="75.896926">
        <ele>2302.5</ele>
      </trkpt>
      <trkpt lat="42.606486" lon="75.896885">
        <ele>2304.25</ele>
      </trkpt>
      <trkpt lat="42.606529" lon="75.89684">
        <ele>2305</ele>
      </trkpt>
      <trkpt lat="42.606436" lon="75.896663">
        <ele>2300</ele>
      </trkpt>
      <trkpt lat="42.606332" lon="75.896559">
        <ele>2298.25</ele>
      </trkpt>
      <trkpt lat="42.606276" lon="75.89636">
        <ele>2298.75</ele>
      </trkpt>
      <trkpt lat="42.606289" lon="75.896256">
        <ele>2300.5</ele>
      </trkpt>
      <trkpt lat="42.606376" lon="75.895808">
        <ele>2309.25</ele>
      </trkpt>
      <trkpt lat="42.606412" lon="75.89574">
        <ele>2312.25</ele>
      </trkpt>
      <trkpt lat="42.606456" lon="75.895862">
        <ele>2310.75</ele>
      </trkpt>
      <trkpt lat="42.606459" lon="75.896088">
        <ele>2308</ele>
      </trkpt>
      <trkpt lat="42.606499" lon="75.896301">
        <ele>2306.5</ele>
      </trkpt>
      <trkpt lat="42.606589" lon="75.896396">
        <ele>2308</ele>
      </trkpt>
      <trkpt lat="42.606762" lon="75.896487">
        <ele>2313.25</ele>
      </trkpt>
      <trkpt lat="42.606869" lon="75.896518">
        <ele>2317.5</ele>
      </trkpt>
      <trkpt lat="42.607005" lon="75.896586">
        <ele>2322.25</ele>
      </trkpt>
      <trkpt lat="42.607065" lon="75.896681">
        <ele>2323.75</ele>
      </trkpt>
      <trkpt lat="42.607095" lon="75.896917">
        <ele>2327.25</ele>
      </trkpt>
      <trkpt lat="42.607122" lon="75.896966">
        <ele>2328.75</ele>
      </trkpt>
      <trkpt lat="42.607209" lon="75.896966">
        <ele>2332.5</ele>
      </trkpt>
      <trkpt lat="42.607262" lon="75.896903">
        <ele>2334</ele>
      </trkpt>
      <trkpt lat="42.607269" lon="75.896717">
        <ele>2332.5</ele>
      </trkpt>
      <trkpt lat="42.607265" lon="75.896554">
        <ele>2334</ele>
      </trkpt>
      <trkpt lat="42.607299" lon="75.896432">
        <ele>2337.5</ele>
      </trkpt>
      <trkpt lat="42.607345" lon="75.896373">
        <ele>2340.75</ele>
      </trkpt>
      <trkpt lat="42.607405" lon="75.89645">
        <ele>2342</ele>
      </trkpt>
      <trkpt lat="42.607715" lon="75.896763">
        <ele>2352.5</ele>
      </trkpt>
      <trkpt lat="42.607781" lon="75.896867">
        <ele>2356.25</ele>
      </trkpt>
      <trkpt lat="42.607858" lon="75.896903">
        <ele>2360</ele>
      </trkpt>
      <trkpt lat="42.607892" lon="75.896862">
        <ele>2361.5</ele>
      </trkpt>
      <trkpt lat="42.607895" lon="75.896726">
        <ele>2360.75</ele>
      </trkpt>
      <trkpt lat="42.607815" lon="75.896351">
        <ele>2362</ele>
      </trkpt>
      <trkpt lat="42.607778" lon="75.896229">
        <ele>2362.5</ele>
      </trkpt>
      <trkpt lat="42.607795" lon="75.896156">
        <ele>2364.5</ele>
      </trkpt>
      <trkpt lat="42.607838" lon="75.896143">
        <ele>2366.5</ele>
      </trkpt>
      <trkpt lat="42.607905" lon="75.896269">
        <ele>2367.25</ele>
      </trkpt>
      <trkpt lat="42.607978" lon="75.896364">
        <ele>2369</ele>
      </trkpt>
      <trkpt lat="42.608088" lon="75.896469">
        <ele>2372.25</ele>
      </trkpt>
      <trkpt lat="42.608165" lon="75.896595">
        <ele>2374</ele>
      </trkpt>
      <trkpt lat="42.608265" lon="75.896831">
        <ele>2378.25</ele>
      </trkpt>
      <trkpt lat="42.608328" lon="75.89703">
        <ele>2382</ele>
      </trkpt>
      <trkpt lat="42.608318" lon="75.897161">
        <ele>2382</ele>
      </trkpt>
      <trkpt lat="42.608235" lon="75.897324">
        <ele>2379</ele>
      </trkpt>
      <trkpt lat="42.608125" lon="75.897432">
        <ele>2374.75</ele>
      </trkpt>
      <trkpt lat="42.607928" lon="75.897672">
        <ele>2369.25</ele>
      </trkpt>
      <trkpt lat="42.607951" lon="75.897722">
        <ele>2371</ele>
      </trkpt>
      <trkpt lat="42.608118" lon="75.897623">
        <ele>2376.5</ele>
      </trkpt>
      <trkpt lat="42.608275" lon="75.897568">
        <ele>2382.5</ele>
      </trkpt>
      <trkpt lat="42.608574" lon="75.897347">
        <ele>2393.75</ele>
      </trkpt>
      <trkpt lat="42.608828" lon="75.897134">
        <ele>2404</ele>
      </trkpt>
      <trkpt lat="42.608824" lon="75.896994">
        <ele>2403.25</ele>
      </trkpt>
      <trkpt lat="42.608768" lon="75.896781">
        <ele>2400</ele>
      </trkpt>
      <trkpt lat="42.608784" lon="75.896717">
        <ele>2400.5</ele>
      </trkpt>
      <trkpt lat="42.608888" lon="75.896754">
        <ele>2405.25</ele>
      </trkpt>
      <trkpt lat="42.608997" lon="75.896975">
        <ele>2410.75</ele>
      </trkpt>
      <trkpt lat="42.609081" lon="75.897193">
        <ele>2415</ele>
      </trkpt>
      <trkpt lat="42.609081" lon="75.897297">
        <ele>2415.5</ele>
      </trkpt>
      <trkpt lat="42.608961" lon="75.897559">
        <ele>2412</ele>
      </trkpt>
      <trkpt lat="42.608831" lon="75.89774">
        <ele>2409</ele>
      </trkpt>
      <trkpt lat="42.608751" lon="75.898003">
        <ele>2409.5</ele>
      </trkpt>
      <trkpt lat="42.608641" lon="75.898247">
        <ele>2408.25</ele>
      </trkpt>
      <trkpt lat="42.608731" lon="75.898243">
        <ele>2412.25</ele>
      </trkpt>
      <trkpt lat="42.608808" lon="75.898053">
        <ele>2412.75</ele>
      </trkpt>
      <trkpt lat="42.608911" lon="75.897844">
        <ele>2414</ele>
      </trkpt>
      <trkpt lat="42.608941" lon="75.897758">
        <ele>2414</ele>
      </trkpt>
      <trkpt lat="42.608994" lon="75.897709">
        <ele>2415.5</ele>
      </trkpt>
      <trkpt lat="42.609197" lon="75.897596">
        <ele>2420.75</ele>
      </trkpt>
      <trkpt lat="42.609261" lon="75.897532">
        <ele>2418.75</ele>
      </trkpt>
      <trkpt lat="42.609304" lon="75.897369">
        <ele>2417.25</ele>
      </trkpt>
      <trkpt lat="42.609371" lon="75.897161">
        <ele>2415.75</ele>
      </trkpt>
      <trkpt lat="42.609421" lon="75.897089">
        <ele>2414.75</ele>
      </trkpt>
      <trkpt lat="42.609511" lon="75.897184">
        <ele>2413.75</ele>
      </trkpt>
      <trkpt lat="42.609597" lon="75.897333">
        <ele>2412.75</ele>
      </trkpt>
      <trkpt lat="42.609684" lon="75.897618">
        <ele>2413</ele>
      </trkpt>
      <trkpt lat="42.609694" lon="75.897736">
        <ele>2414</ele>
      </trkpt>
      <trkpt lat="42.60975" lon="75.897749">
        <ele>2413</ele>
      </trkpt>
      <trkpt lat="42.609747" lon="75.897333">
        <ele>2410.5</ele>
      </trkpt>
      <trkpt lat="42.609794" lon="75.897193">
        <ele>2409.5</ele>
      </trkpt>
      <trkpt lat="42.609844" lon="75.897016">
        <ele>2408.5</ele>
      </trkpt>
      <trkpt lat="42.609787" lon="75.896726">
        <ele>2408.75</ele>
      </trkpt>
      <trkpt lat="42.609757" lon="75.896392">
        <ele>2410</ele>
      </trkpt>
      <trkpt lat="42.609764" lon="75.896211">
        <ele>2410.5</ele>
      </trkpt>
      <trkpt lat="42.609804" lon="75.896129">
        <ele>2410</ele>
      </trkpt>
      <trkpt lat="42.609844" lon="75.896124">
        <ele>2409.25</ele>
      </trkpt>
      <trkpt lat="42.609907" lon="75.896364">
        <ele>2407.5</ele>
      </trkpt>
      <trkpt lat="42.610044" lon="75.896821">
        <ele>2403.75</ele>
      </trkpt>
      <trkpt lat="42.610247" lon="75.897692">
        <ele>2395</ele>
      </trkpt>
      <trkpt lat="42.610313" lon="75.89814">
        <ele>2394.5</ele>
      </trkpt>
      <trkpt lat="42.610713" lon="75.899388">
        <ele>2387.75</ele>
      </trkpt>
      <trkpt lat="42.610953" lon="75.899734">
        <ele>2385.75</ele>
      </trkpt>
      <trkpt lat="42.611354" lon="75.900169">
        <ele>2387.75</ele>
      </trkpt>
      <trkpt lat="42.611317" lon="75.900444">
        <ele>2391.5</ele>
      </trkpt>
      <trkpt lat="42.611361" lon="75.900525">
        <ele>2391.5</ele>
      </trkpt>
    </trkseg>
  </trk>
</gpx>
