<?xml version="1.0" encoding="UTF-8"?>
<gpx creator="StravaGPX" version="1.1" xmlns="http://www.topografix.com/GPX/1/1" xmlns:xsi="http://www.w3.org/2001/XMLSchema-instance" xsi:schemaLocation="http://www.topografix.com/GPX/1/1 http://www.topografix.com/GPX/1/1/gpx.xsd">
 <metadata>
  <name>Enbekshi</name>
  <author>
   <name>Vladimir Sumarokov 🇰🇿🇷🇺🇹🇭</name>
   <link href="https://www.strava.com/athletes/16069938"/>
  </author>
  <copyright author="OpenStreetMap contributors">
   <year>2020</year>
   <license>https://www.openstreetmap.org/copyright</license>
  </copyright>
  <link href="https://www.strava.com/routes/3281998123845833686"/>
 </metadata>
 <trk>
  <name>Enbekshi</name>
  <link href="https://www.strava.com/routes/3281998123845833686"/>
  <type>cycling</type>
  <trkseg>
   <trkpt lat="42.346810000000005" lon="69.61164000000001">
    <ele>570.0</ele>
   </trkpt>
   <trkpt lat="42.34689" lon="69.61153">
    <ele>570.0</ele>
   </trkpt>
   <trkpt lat="42.346970000000006" lon="69.61153">
    <ele>570.0</ele>
   </trkpt>
   <trkpt lat="42.34723" lon="69.61167">
    <ele>567.2</ele>
   </trkpt>
   <trkpt lat="42.34732" lon="69.61178000000001">
    <ele>567.2</ele>
   </trkpt>
   <trkpt lat="42.34741" lon="69.61194">
    <ele>567.2</ele>
   </trkpt>
   <trkpt lat="42.347570000000005" lon="69.61157">
    <ele>567.99</ele>
   </trkpt>
   <trkpt lat="42.34807500033845" lon="69.61186999755868">
    <ele>564.74</ele>
   </trkpt>
   <trkpt lat="42.348580000000005" lon="69.61217">
    <ele>563.4</ele>
   </trkpt>
   <trkpt lat="42.3492" lon="69.61261">
    <ele>560.0200000000001</ele>
   </trkpt>
   <trkpt lat="42.349935000789976" lon="69.61300999537431">
    <ele>557.06</ele>
   </trkpt>
   <trkpt lat="42.35067" lon="69.61341">
    <ele>554.88</ele>
   </trkpt>
   <trkpt lat="42.35079" lon="69.6136">
    <ele>553.97</ele>
   </trkpt>
   <trkpt lat="42.35087" lon="69.61377">
    <ele>553.09</ele>
   </trkpt>
   <trkpt lat="42.35089000000001" lon="69.61387">
    <ele>552.89</ele>
   </trkpt>
   <trkpt lat="42.35089000000001" lon="69.61402000000001">
    <ele>552.89</ele>
   </trkpt>
   <trkpt lat="42.350460000000005" lon="69.61445">
    <ele>550.13</ele>
   </trkpt>
   <trkpt lat="42.349900000000005" lon="69.61485">
    <ele>549.5000000000001</ele>
   </trkpt>
   <trkpt lat="42.349460000378045" lon="69.615145002065">
    <ele>549.21</ele>
   </trkpt>
   <trkpt lat="42.34902" lon="69.61544">
    <ele>549.7</ele>
   </trkpt>
   <trkpt lat="42.34886" lon="69.61568000000001">
    <ele>549.98</ele>
   </trkpt>
   <trkpt lat="42.34859" lon="69.61630000000001">
    <ele>550.1100000000001</ele>
   </trkpt>
   <trkpt lat="42.348510000000005" lon="69.61667">
    <ele>550.35</ele>
   </trkpt>
   <trkpt lat="42.348470000000006" lon="69.61704">
    <ele>550.95</ele>
   </trkpt>
   <trkpt lat="42.348400000000005" lon="69.61824">
    <ele>551.07</ele>
   </trkpt>
   <trkpt lat="42.34836500417094" lon="69.61922000059238">
    <ele>550.98</ele>
   </trkpt>
   <trkpt lat="42.348330000000004" lon="69.62020000000001">
    <ele>551.49</ele>
   </trkpt>
   <trkpt lat="42.348330000000004" lon="69.62019000000001">
    <ele>551.49</ele>
   </trkpt>
   <trkpt lat="42.34828" lon="69.62124">
    <ele>556.9200000000001</ele>
   </trkpt>
   <trkpt lat="42.3483" lon="69.6224">
    <ele>556.0500000000001</ele>
   </trkpt>
   <trkpt lat="42.34836500302465" lon="69.62323499907815">
    <ele>559.72</ele>
   </trkpt>
   <trkpt lat="42.34843" lon="69.62407">
    <ele>563.3100000000001</ele>
   </trkpt>
   <trkpt lat="42.34843" lon="69.62429">
    <ele>564.34</ele>
   </trkpt>
   <trkpt lat="42.348380000000006" lon="69.62477000000001">
    <ele>566.01</ele>
   </trkpt>
   <trkpt lat="42.34823000255365" lon="69.62553000158974">
    <ele>569.9399999999999</ele>
   </trkpt>
   <trkpt lat="42.34808" lon="69.62629000000001">
    <ele>569.13</ele>
   </trkpt>
   <trkpt lat="42.34790500273841" lon="69.6270800020778">
    <ele>569.3600000000001</ele>
   </trkpt>
   <trkpt lat="42.347730000000006" lon="69.62787">
    <ele>572.01</ele>
   </trkpt>
   <trkpt lat="42.34750502050827" lon="69.62884168406195">
    <ele>573.86</ele>
   </trkpt>
   <trkpt lat="42.34728003281243" lon="69.62981336116866">
    <ele>571.59</ele>
   </trkpt>
   <trkpt lat="42.34705503691264" lon="69.63078503131996">
    <ele>570.08</ele>
   </trkpt>
   <trkpt lat="42.34683003280903" lon="69.6317566945157">
    <ele>569.23</ele>
   </trkpt>
   <trkpt lat="42.346605020501684" lon="69.63272835075574">
    <ele>564.91</ele>
   </trkpt>
   <trkpt lat="42.34638" lon="69.6337">
    <ele>561.61</ele>
   </trkpt>
   <trkpt lat="42.34638" lon="69.63372000000001">
    <ele>561.57</ele>
   </trkpt>
   <trkpt lat="42.346210000000006" lon="69.63442">
    <ele>558.0200000000001</ele>
   </trkpt>
   <trkpt lat="42.345613333789714" lon="69.6341799954266">
    <ele>563.4</ele>
   </trkpt>
   <trkpt lat="42.34501666707892" lon="69.63393999540892">
    <ele>569.11</ele>
   </trkpt>
   <trkpt lat="42.34442000000001" lon="69.6337">
    <ele>572.01</ele>
   </trkpt>
   <trkpt lat="42.34398499988644" lon="69.63351499860846">
    <ele>574.8000000000001</ele>
   </trkpt>
   <trkpt lat="42.34355" lon="69.63333">
    <ele>575.91</ele>
   </trkpt>
   <trkpt lat="42.342760000694774" lon="69.63294999525773">
    <ele>575.0600000000001</ele>
   </trkpt>
   <trkpt lat="42.34197" lon="69.63257">
    <ele>575.86</ele>
   </trkpt>
   <trkpt lat="42.34154" lon="69.63241000000001">
    <ele>576.0200000000001</ele>
   </trkpt>
   <trkpt lat="42.34075000000001" lon="69.63206000000001">
    <ele>576.1700000000001</ele>
   </trkpt>
   <trkpt lat="42.340450000000004" lon="69.63195">
    <ele>576.4100000000001</ele>
   </trkpt>
   <trkpt lat="42.3402475107849" lon="69.63286000882897">
    <ele>578.2</ele>
   </trkpt>
   <trkpt lat="42.34004501437429" lon="69.6337700117968">
    <ele>580.4100000000001</ele>
   </trkpt>
   <trkpt lat="42.33984251076828" lon="69.63468000890336">
    <ele>582.5600000000001</ele>
   </trkpt>
   <trkpt lat="42.33964" lon="69.63559000000001">
    <ele>583.34</ele>
   </trkpt>
   <trkpt lat="42.33941500369354" lon="69.63651500340747">
    <ele>582.87</ele>
   </trkpt>
   <trkpt lat="42.33919" lon="69.63744000000001">
    <ele>581.94</ele>
   </trkpt>
   <trkpt lat="42.33899500334495" lon="69.63831500262965">
    <ele>580.07</ele>
   </trkpt>
   <trkpt lat="42.338800000000006" lon="69.63919">
    <ele>580.22</ele>
   </trkpt>
   <trkpt lat="42.338640000000005" lon="69.63977">
    <ele>580.83</ele>
   </trkpt>
   <trkpt lat="42.338480000000004" lon="69.64028">
    <ele>581.38</ele>
   </trkpt>
   <trkpt lat="42.33825" lon="69.64059">
    <ele>582.0600000000001</ele>
   </trkpt>
   <trkpt lat="42.338060000000006" lon="69.64073">
    <ele>582.2900000000001</ele>
   </trkpt>
   <trkpt lat="42.33769" lon="69.64094">
    <ele>582.5600000000001</ele>
   </trkpt>
   <trkpt lat="42.336930000683076" lon="69.64133500477102">
    <ele>581.8199999999999</ele>
   </trkpt>
   <trkpt lat="42.33617" lon="69.64173000000001">
    <ele>580.48</ele>
   </trkpt>
   <trkpt lat="42.33552750162441" lon="69.64208501089043">
    <ele>579.47</ele>
   </trkpt>
   <trkpt lat="42.33488500215376" lon="69.64244001452705">
    <ele>574.99</ele>
   </trkpt>
   <trkpt lat="42.33424250158809" lon="69.64279501091016">
    <ele>572.6300000000001</ele>
   </trkpt>
   <trkpt lat="42.333600000000004" lon="69.64315">
    <ele>570.23</ele>
   </trkpt>
   <trkpt lat="42.33298000046036" lon="69.64346500309034">
    <ele>567.47</ele>
   </trkpt>
   <trkpt lat="42.33236" lon="69.64378">
    <ele>565.61</ele>
   </trkpt>
   <trkpt lat="42.33212" lon="69.64393000000001">
    <ele>565.2</ele>
   </trkpt>
   <trkpt lat="42.331790000000005" lon="69.64410000000001">
    <ele>565.16</ele>
   </trkpt>
   <trkpt lat="42.33106000274307" lon="69.64449801848168">
    <ele>565.12</ele>
   </trkpt>
   <trkpt lat="42.330330004109726" lon="69.64489602772474">
    <ele>565.8100000000001</ele>
   </trkpt>
   <trkpt lat="42.329600004099994" lon="69.64529402772956">
    <ele>566.74</ele>
   </trkpt>
   <trkpt lat="42.32887000271396" lon="69.64569201849662">
    <ele>567.9399999999999</ele>
   </trkpt>
   <trkpt lat="42.328140000000005" lon="69.64609">
    <ele>569.44</ele>
   </trkpt>
   <trkpt lat="42.32749250154445" lon="69.64643751074618">
    <ele>571.8199999999999</ele>
   </trkpt>
   <trkpt lat="42.32684500203964" lon="69.64678501433856">
    <ele>573.11</ele>
   </trkpt>
   <trkpt lat="42.32619750148563" lon="69.64713251077742">
    <ele>574.96</ele>
   </trkpt>
   <trkpt lat="42.32555000000001" lon="69.64748">
    <ele>576.1</ele>
   </trkpt>
   <trkpt lat="42.325430000000004" lon="69.64765">
    <ele>576.3100000000001</ele>
   </trkpt>
   <trkpt lat="42.325230000000005" lon="69.6478">
    <ele>576.55</ele>
   </trkpt>
   <trkpt lat="42.324740000000006" lon="69.64808000000001">
    <ele>577.09</ele>
   </trkpt>
   <trkpt lat="42.32408" lon="69.64806">
    <ele>577.47</ele>
   </trkpt>
   <trkpt lat="42.32361" lon="69.64788">
    <ele>576.5300000000001</ele>
   </trkpt>
   <trkpt lat="42.32307" lon="69.64762">
    <ele>574.58</ele>
   </trkpt>
   <trkpt lat="42.322252002245754" lon="69.64726198139098">
    <ele>570.98</ele>
   </trkpt>
   <trkpt lat="42.32143400337787" lon="69.64690397209104">
    <ele>565.1700000000001</ele>
   </trkpt>
   <trkpt lat="42.320616003396395" lon="69.64654597209967">
    <ele>560.97</ele>
   </trkpt>
   <trkpt lat="42.319798002301404" lon="69.64618798141639">
    <ele>558.79</ele>
   </trkpt>
   <trkpt lat="42.31898" lon="69.64583">
    <ele>559.0</ele>
   </trkpt>
   <trkpt lat="42.31821500045763" lon="69.64548499577906">
    <ele>559.09</ele>
   </trkpt>
   <trkpt lat="42.31745" lon="69.64514000000001">
    <ele>559.13</ele>
   </trkpt>
   <trkpt lat="42.31676500030579" lon="69.6448449967578">
    <ele>558.82</ele>
   </trkpt>
   <trkpt lat="42.31608000000001" lon="69.64455000000001">
    <ele>557.7500000000001</ele>
   </trkpt>
   <trkpt lat="42.31540000026836" lon="69.64427999706345">
    <ele>557.0500000000001</ele>
   </trkpt>
   <trkpt lat="42.31472" lon="69.64401000000001">
    <ele>554.7800000000001</ele>
   </trkpt>
   <trkpt lat="42.3140266674222" lon="69.6437066599642">
    <ele>548.15</ele>
   </trkpt>
   <trkpt lat="42.31333333404495" lon="69.64340332661176">
    <ele>544.1700000000001</ele>
   </trkpt>
   <trkpt lat="42.31264" lon="69.6431">
    <ele>543.5500000000001</ele>
   </trkpt>
   <trkpt lat="42.311865002290595" lon="69.64277497999005">
    <ele>543.58</ele>
   </trkpt>
   <trkpt lat="42.311090003663395" lon="69.642449967984">
    <ele>543.33</ele>
   </trkpt>
   <trkpt lat="42.31031500411845" lon="69.64212496398143">
    <ele>541.74</ele>
   </trkpt>
   <trkpt lat="42.30954000365582" lon="69.64179996798195">
    <ele>541.2</ele>
   </trkpt>
   <trkpt lat="42.30876500227555" lon="69.64147497998516">
    <ele>540.03</ele>
   </trkpt>
   <trkpt lat="42.307990000000004" lon="69.64115000000001">
    <ele>539.76</ele>
   </trkpt>
   <trkpt lat="42.3077400055585" lon="69.6422800044354">
    <ele>540.24</ele>
   </trkpt>
   <trkpt lat="42.30749" lon="69.64341">
    <ele>541.27</ele>
   </trkpt>
   <trkpt lat="42.30726000000001" lon="69.6443">
    <ele>543.15</ele>
   </trkpt>
   <trkpt lat="42.30701000220365" lon="69.64501500288856">
    <ele>545.44</ele>
   </trkpt>
   <trkpt lat="42.306760000000004" lon="69.64573">
    <ele>549.46</ele>
   </trkpt>
   <trkpt lat="42.30653" lon="69.64616000000001">
    <ele>552.09</ele>
   </trkpt>
   <trkpt lat="42.30618000131622" lon="69.64668000268068">
    <ele>554.5400000000001</ele>
   </trkpt>
   <trkpt lat="42.30583" lon="69.64720000000001">
    <ele>555.5500000000001</ele>
   </trkpt>
   <trkpt lat="42.30537" lon="69.64779">
    <ele>555.8100000000001</ele>
   </trkpt>
   <trkpt lat="42.304840000000006" lon="69.64823000000001">
    <ele>556.19</ele>
   </trkpt>
   <trkpt lat="42.30411" lon="69.64864">
    <ele>556.49</ele>
   </trkpt>
   <trkpt lat="42.30331750495403" lon="69.64904378557551">
    <ele>556.58</ele>
   </trkpt>
   <trkpt lat="42.302525008491585" lon="69.64944756098602">
    <ele>556.18</ele>
   </trkpt>
   <trkpt lat="42.30173251061274" lon="69.64985132623202">
    <ele>555.95</ele>
   </trkpt>
   <trkpt lat="42.30094001131753" lon="69.65025508131403">
    <ele>555.13</ele>
   </trkpt>
   <trkpt lat="42.30014751060609" lon="69.6506588262326">
    <ele>553.71</ele>
   </trkpt>
   <trkpt lat="42.29935500847847" lon="69.65106256098822">
    <ele>550.1400000000001</ele>
   </trkpt>
   <trkpt lat="42.29856250493474" lon="69.65146628558145">
    <ele>547.1</ele>
   </trkpt>
   <trkpt lat="42.29777000000001" lon="69.65187">
    <ele>545.82</ele>
   </trkpt>
   <trkpt lat="42.29715000097571" lon="69.65219333966485">
    <ele>545.4300000000001</ele>
   </trkpt>
   <trkpt lat="42.29653000104312" lon="69.65251667296293">
    <ele>545.7700000000001</ele>
   </trkpt>
   <trkpt lat="42.295910000000006" lon="69.65284000000001">
    <ele>546.76</ele>
   </trkpt>
   <trkpt lat="42.29527" lon="69.65317">
    <ele>547.49</ele>
   </trkpt>
   <trkpt lat="42.29452250143464" lon="69.65350251184191">
    <ele>548.4300000000001</ele>
   </trkpt>
   <trkpt lat="42.29377500190874" lon="69.65383501579076">
    <ele>550.03</ele>
   </trkpt>
   <trkpt lat="42.29302750142236" lon="69.65416751184696">
    <ele>551.89</ele>
   </trkpt>
   <trkpt lat="42.292280000000005" lon="69.6545">
    <ele>554.3800000000001</ele>
   </trkpt>
   <trkpt lat="42.291850000000004" lon="69.65483">
    <ele>555.09</ele>
   </trkpt>
   <trkpt lat="42.291630000000005" lon="69.65505">
    <ele>556.0400000000001</ele>
   </trkpt>
   <trkpt lat="42.29135" lon="69.65545">
    <ele>556.6300000000001</ele>
   </trkpt>
   <trkpt lat="42.291090000000004" lon="69.65592000000001">
    <ele>556.98</ele>
   </trkpt>
   <trkpt lat="42.29099" lon="69.65615000000001">
    <ele>557.13</ele>
   </trkpt>
   <trkpt lat="42.29069000757057" lon="69.6570833422157">
    <ele>557.11</ele>
   </trkpt>
   <trkpt lat="42.290390007573144" lon="69.65801667554085">
    <ele>557.2</ele>
   </trkpt>
   <trkpt lat="42.290090000000006" lon="69.65895">
    <ele>557.39</ele>
   </trkpt>
   <trkpt lat="42.28988000162831" lon="69.65956500209316">
    <ele>557.5600000000001</ele>
   </trkpt>
   <trkpt lat="42.28967" lon="69.66018000000001">
    <ele>557.7500000000001</ele>
   </trkpt>
   <trkpt lat="42.28947" lon="69.66068">
    <ele>557.8700000000001</ele>
   </trkpt>
   <trkpt lat="42.28913" lon="69.66134000000001">
    <ele>557.88</ele>
   </trkpt>
   <trkpt lat="42.28891" lon="69.66165000000001">
    <ele>557.88</ele>
   </trkpt>
   <trkpt lat="42.28844000120445" lon="69.66219000410051">
    <ele>558.1</ele>
   </trkpt>
   <trkpt lat="42.28797" lon="69.66273000000001">
    <ele>558.45</ele>
   </trkpt>
   <trkpt lat="42.28755000089337" lon="69.66318000298554">
    <ele>558.5</ele>
   </trkpt>
   <trkpt lat="42.287130000000005" lon="69.66363000000001">
    <ele>558.7700000000001</ele>
   </trkpt>
   <trkpt lat="42.28674" lon="69.66420000000001">
    <ele>558.9399999999999</ele>
   </trkpt>
   <trkpt lat="42.286640000000006" lon="69.66442">
    <ele>558.96</ele>
   </trkpt>
   <trkpt lat="42.286530000000006" lon="69.66474000000001">
    <ele>559.0200000000001</ele>
   </trkpt>
   <trkpt lat="42.286325002524755" lon="69.66551000269598">
    <ele>559.1700000000001</ele>
   </trkpt>
   <trkpt lat="42.286120000000004" lon="69.66628">
    <ele>560.21</ele>
   </trkpt>
   <trkpt lat="42.286010000000005" lon="69.66662000000001">
    <ele>560.52</ele>
   </trkpt>
   <trkpt lat="42.28585" lon="69.66698000000001">
    <ele>561.5</ele>
   </trkpt>
   <trkpt lat="42.28567" lon="69.66729000000001">
    <ele>562.22</ele>
   </trkpt>
   <trkpt lat="42.28542" lon="69.66762">
    <ele>562.9000000000001</ele>
   </trkpt>
   <trkpt lat="42.285065000624066" lon="69.66801000223784">
    <ele>564.59</ele>
   </trkpt>
   <trkpt lat="42.284710000000004" lon="69.6684">
    <ele>565.6300000000001</ele>
   </trkpt>
   <trkpt lat="42.28434500056773" lon="69.66878000226347">
    <ele>566.4800000000001</ele>
   </trkpt>
   <trkpt lat="42.28398000000001" lon="69.66916">
    <ele>567.77</ele>
   </trkpt>
   <trkpt lat="42.28387" lon="69.66923">
    <ele>567.77</ele>
   </trkpt>
   <trkpt lat="42.2837" lon="69.66929">
    <ele>568.1</ele>
   </trkpt>
   <trkpt lat="42.2834" lon="69.66934">
    <ele>568.59</ele>
   </trkpt>
   <trkpt lat="42.28313000000001" lon="69.66937">
    <ele>568.83</ele>
   </trkpt>
   <trkpt lat="42.282970000000006" lon="69.66932">
    <ele>568.86</ele>
   </trkpt>
   <trkpt lat="42.2828" lon="69.6692">
    <ele>568.77</ele>
   </trkpt>
   <trkpt lat="42.2820275048035" lon="69.66859247765085">
    <ele>567.55</ele>
   </trkpt>
   <trkpt lat="42.281255006400706" lon="69.66798497019856">
    <ele>565.6800000000001</ele>
   </trkpt>
   <trkpt lat="42.280482504791784" lon="69.66737747764246">
    <ele>562.61</ele>
   </trkpt>
   <trkpt lat="42.27971" lon="69.66677">
    <ele>562.32</ele>
   </trkpt>
   <trkpt lat="42.2792" lon="69.66632">
    <ele>563.06</ele>
   </trkpt>
   <trkpt lat="42.27901000000001" lon="69.66614">
    <ele>563.06</ele>
   </trkpt>
   <trkpt lat="42.278870000000005" lon="69.66596000000001">
    <ele>563.0200000000001</ele>
   </trkpt>
   <trkpt lat="42.278850000000006" lon="69.66583">
    <ele>563.1700000000001</ele>
   </trkpt>
   <trkpt lat="42.27877" lon="69.66573000000001">
    <ele>563.1700000000001</ele>
   </trkpt>
   <trkpt lat="42.27866" lon="69.66572000000001">
    <ele>563.46</ele>
   </trkpt>
   <trkpt lat="42.27857" lon="69.66581000000001">
    <ele>563.46</ele>
   </trkpt>
   <trkpt lat="42.27854000000001" lon="69.66595000000001">
    <ele>563.46</ele>
   </trkpt>
   <trkpt lat="42.27834" lon="69.66618000000001">
    <ele>563.5300000000001</ele>
   </trkpt>
   <trkpt lat="42.27799" lon="69.6665">
    <ele>563.95</ele>
   </trkpt>
   <trkpt lat="42.27736" lon="69.66702000000001">
    <ele>564.38</ele>
   </trkpt>
   <trkpt lat="42.276970000000006" lon="69.66746">
    <ele>564.4800000000001</ele>
   </trkpt>
   <trkpt lat="42.27676" lon="69.66783000000001">
    <ele>564.47</ele>
   </trkpt>
   <trkpt lat="42.27637500944854" lon="69.66868251567244">
    <ele>564.24</ele>
   </trkpt>
   <trkpt lat="42.275990012583414" lon="69.66953502092869">
    <ele>564.2600000000001</ele>
   </trkpt>
   <trkpt lat="42.2756050094048" lon="69.67038751576884">
    <ele>564.18</ele>
   </trkpt>
   <trkpt lat="42.275220000000004" lon="69.67124000000001">
    <ele>564.4300000000001</ele>
   </trkpt>
   <trkpt lat="42.274800010001485" lon="69.67231334765602">
    <ele>564.6800000000001</ele>
   </trkpt>
   <trkpt lat="42.27438000999479" lon="69.67338668100619">
    <ele>565.4</ele>
   </trkpt>
   <trkpt lat="42.27396" lon="69.67446000000001">
    <ele>566.25</ele>
   </trkpt>
   <trkpt lat="42.2736400128336" lon="69.67545251512527">
    <ele>567.01</ele>
   </trkpt>
   <trkpt lat="42.27332001710968" lon="69.67644502017221">
    <ele>567.67</ele>
   </trkpt>
   <trkpt lat="42.27300001282841" lon="69.67743751514082">
    <ele>568.11</ele>
   </trkpt>
   <trkpt lat="42.27268" lon="69.67843">
    <ele>569.0400000000001</ele>
   </trkpt>
   <trkpt lat="42.272380000000005" lon="69.67946">
    <ele>569.37</ele>
   </trkpt>
   <trkpt lat="42.27218000276339" lon="69.68026000260451">
    <ele>570.01</ele>
   </trkpt>
   <trkpt lat="42.271980000000006" lon="69.68106">
    <ele>570.5600000000001</ele>
   </trkpt>
   <trkpt lat="42.271722511338105" lon="69.68199251140274">
    <ele>572.01</ele>
   </trkpt>
   <trkpt lat="42.271465015122175" lon="69.68292501518643">
    <ele>574.44</ele>
   </trkpt>
   <trkpt lat="42.27120751135231" lon="69.68385751135096">
    <ele>577.74</ele>
   </trkpt>
   <trkpt lat="42.270950000000006" lon="69.68479">
    <ele>579.45</ele>
   </trkpt>
   <trkpt lat="42.2706800047536" lon="69.68583500443626">
    <ele>579.9000000000001</ele>
   </trkpt>
   <trkpt lat="42.270410000000005" lon="69.68688">
    <ele>578.52</ele>
   </trkpt>
   <trkpt lat="42.27016667247048" lon="69.68769667293837">
    <ele>576.5100000000001</ele>
   </trkpt>
   <trkpt lat="42.26992333914713" lon="69.68851333957147">
    <ele>575.84</ele>
   </trkpt>
   <trkpt lat="42.26968" lon="69.68933000000001">
    <ele>576.74</ele>
   </trkpt>
   <trkpt lat="42.26929500417837" lon="69.69031000596816">
    <ele>577.3000000000001</ele>
   </trkpt>
   <trkpt lat="42.268910000000005" lon="69.69129000000001">
    <ele>577.88</ele>
   </trkpt>
   <trkpt lat="42.268460000000005" lon="69.69229">
    <ele>578.61</ele>
   </trkpt>
   <trkpt lat="42.26802334847965" lon="69.69312502891201">
    <ele>578.89</ele>
   </trkpt>
   <trkpt lat="42.267586690902185" lon="69.69396004625585">
    <ele>579.08</ele>
   </trkpt>
   <trkpt lat="42.26715002726776" lon="69.69479505203171">
    <ele>579.38</ele>
   </trkpt>
   <trkpt lat="42.26671335757659" lon="69.69563004623971">
    <ele>578.5600000000001</ele>
   </trkpt>
   <trkpt lat="42.26627668182879" lon="69.69646502888008">
    <ele>578.08</ele>
   </trkpt>
   <trkpt lat="42.265840000000004" lon="69.69730000000001">
    <ele>578.2900000000001</ele>
   </trkpt>
   <trkpt lat="42.26546000600911" lon="69.6981333434308">
    <ele>578.47</ele>
   </trkpt>
   <trkpt lat="42.265080005985546" lon="69.69896667681563">
    <ele>578.6999999999999</ele>
   </trkpt>
   <trkpt lat="42.264700000000005" lon="69.69980000000001">
    <ele>579.5</ele>
   </trkpt>
   <trkpt lat="42.26436500308389" lon="69.70064500453401">
    <ele>579.6600000000001</ele>
   </trkpt>
   <trkpt lat="42.264030000000005" lon="69.70149">
    <ele>580.32</ele>
   </trkpt>
   <trkpt lat="42.26381000000001" lon="69.70217000000001">
    <ele>581.9700000000001</ele>
   </trkpt>
   <trkpt lat="42.263600000000004" lon="69.70294000000001">
    <ele>584.6999999999999</ele>
   </trkpt>
   <trkpt lat="42.26342000253234" lon="69.70370500222464">
    <ele>586.23</ele>
   </trkpt>
   <trkpt lat="42.26324" lon="69.70447">
    <ele>587.07</ele>
   </trkpt>
   <trkpt lat="42.2629" lon="69.70556">
    <ele>587.6300000000001</ele>
   </trkpt>
   <trkpt lat="42.262730000000005" lon="69.706">
    <ele>586.92</ele>
   </trkpt>
   <trkpt lat="42.26231000367419" lon="69.70692000613295">
    <ele>585.5400000000001</ele>
   </trkpt>
   <trkpt lat="42.26189" lon="69.70784">
    <ele>585.58</ele>
   </trkpt>
   <trkpt lat="42.26144801600939" lon="69.70880002692313">
    <ele>586.13</ele>
   </trkpt>
   <trkpt lat="42.26100602401268" lon="69.70976004038707">
    <ele>587.3900000000001</ele>
   </trkpt>
   <trkpt lat="42.26056402401014" lon="69.71072004039195">
    <ele>588.33</ele>
   </trkpt>
   <trkpt lat="42.26012201600196" lon="69.71168002693796">
    <ele>590.8000000000001</ele>
   </trkpt>
   <trkpt lat="42.25968" lon="69.71264000000001">
    <ele>592.55</ele>
   </trkpt>
   <trkpt lat="42.259385001668896" lon="69.71324000259287">
    <ele>593.2</ele>
   </trkpt>
   <trkpt lat="42.25909" lon="69.71384">
    <ele>594.89</ele>
   </trkpt>
   <trkpt lat="42.25885" lon="69.71430000000001">
    <ele>595.1500000000001</ele>
   </trkpt>
   <trkpt lat="42.25845" lon="69.71497000000001">
    <ele>595.6700000000001</ele>
   </trkpt>
   <trkpt lat="42.25845" lon="69.71496">
    <ele>595.6800000000001</ele>
   </trkpt>
   <trkpt lat="42.25808001158841" lon="69.71590251655525">
    <ele>598.1</ele>
   </trkpt>
   <trkpt lat="42.25771001546017" lon="69.71684502205048">
    <ele>598.04</ele>
   </trkpt>
   <trkpt lat="42.25734001161549" lon="69.71778751648573">
    <ele>597.38</ele>
   </trkpt>
   <trkpt lat="42.25697" lon="69.71873000000001">
    <ele>598.86</ele>
   </trkpt>
   <trkpt lat="42.256710000000005" lon="69.71915">
    <ele>598.33</ele>
   </trkpt>
   <trkpt lat="42.256350000000005" lon="69.71910000000001">
    <ele>594.65</ele>
   </trkpt>
   <trkpt lat="42.25575000252993" lon="69.71865998744698">
    <ele>592.1700000000001</ele>
   </trkpt>
   <trkpt lat="42.255150003378034" lon="69.71821998326641">
    <ele>588.1</ele>
   </trkpt>
   <trkpt lat="42.25455000254443" lon="69.71777998745799">
    <ele>589.7300000000001</ele>
   </trkpt>
   <trkpt lat="42.25395" lon="69.71734000000001">
    <ele>587.97</ele>
   </trkpt>
   <trkpt lat="42.25324400576647" lon="69.71676397421177">
    <ele>586.3600000000001</ele>
   </trkpt>
   <trkpt lat="42.252538008650724" lon="69.71618796131918">
    <ele>583.9100000000001</ele>
   </trkpt>
   <trkpt lat="42.25183200865295" lon="69.71561196132167">
    <ele>588.37</ele>
   </trkpt>
   <trkpt lat="42.251126005773244" lon="69.71503597421865">
    <ele>596.09</ele>
   </trkpt>
   <trkpt lat="42.250420000000005" lon="69.71446">
    <ele>606.35</ele>
   </trkpt>
   <trkpt lat="42.24981144036712" lon="69.71378710390519">
    <ele>611.85</ele>
   </trkpt>
   <trkpt lat="42.24920287680116" lon="69.7131142207941">
    <ele>615.1</ele>
   </trkpt>
   <trkpt lat="42.24859430930229" lon="69.7124413506663">
    <ele>617.4000000000001</ele>
   </trkpt>
   <trkpt lat="42.24798573787069" lon="69.71176849352132">
    <ele>618.21</ele>
   </trkpt>
   <trkpt lat="42.24737716250651" lon="69.71109564935875">
    <ele>618.85</ele>
   </trkpt>
   <trkpt lat="42.2467685832099" lon="69.71042281817815">
    <ele>621.8800000000001</ele>
   </trkpt>
   <trkpt lat="42.24616" lon="69.70975">
    <ele>625.9800000000001</ele>
   </trkpt>
   <trkpt lat="42.24556000288149" lon="69.7089349922443">
    <ele>624.85</ele>
   </trkpt>
   <trkpt lat="42.244960000000006" lon="69.70812000000001">
    <ele>631.46</ele>
   </trkpt>
   <trkpt lat="42.244485003549116" lon="69.70722999350329">
    <ele>635.08</ele>
   </trkpt>
   <trkpt lat="42.24401" lon="69.70634000000001">
    <ele>637.87</ele>
   </trkpt>
   <trkpt lat="42.2437014529531" lon="69.70537282878406">
    <ele>640.54</ele>
   </trkpt>
   <trkpt lat="42.243392897780936" lon="69.70440566702801">
    <ele>642.05</ele>
   </trkpt>
   <trkpt lat="42.2430843344837" lon="69.70343851473193">
    <ele>642.08</ele>
   </trkpt>
   <trkpt lat="42.242775763061545" lon="69.70247137189584">
    <ele>640.47</ele>
   </trkpt>
   <trkpt lat="42.242467183514634" lon="69.7015042385198">
    <ele>634.8900000000001</ele>
   </trkpt>
   <trkpt lat="42.242158595843165" lon="69.70053711460389">
    <ele>632.9800000000001</ele>
   </trkpt>
   <trkpt lat="42.24185000000001" lon="69.69957000000001">
    <ele>625.5</ele>
   </trkpt>
   <trkpt lat="42.24159002386852" lon="69.69852164507945">
    <ele>622.97</ele>
   </trkpt>
   <trkpt lat="42.24133003819053" lon="69.6974732987981">
    <ele>618.3000000000001</ele>
   </trkpt>
   <trkpt lat="42.24107004296621" lon="69.69642496115611">
    <ele>612.12</ele>
   </trkpt>
   <trkpt lat="42.24081003819572" lon="69.69537663215367">
    <ele>613.23</ele>
   </trkpt>
   <trkpt lat="42.24055002387922" lon="69.69432831179094">
    <ele>614.1600000000001</ele>
   </trkpt>
   <trkpt lat="42.24029" lon="69.69328">
    <ele>608.0000000000001</ele>
   </trkpt>
   <trkpt lat="42.24000589361915" lon="69.69215661102083">
    <ele>600.0000000000001</ele>
   </trkpt>
   <trkpt lat="42.23972177627642" lon="69.69103323215792">
    <ele>591.74</ele>
   </trkpt>
   <trkpt lat="42.23943764797203" lon="69.68990986341143">
    <ele>589.0300000000001</ele>
   </trkpt>
   <trkpt lat="42.239153508706146" lon="69.68878650478158">
    <ele>586.96</ele>
   </trkpt>
   <trkpt lat="42.23886935847901" lon="69.68766315626857">
    <ele>584.83</ele>
   </trkpt>
   <trkpt lat="42.238585197290845" lon="69.68653981787261">
    <ele>583.33</ele>
   </trkpt>
   <trkpt lat="42.23830102514181" lon="69.68541648959388">
    <ele>581.6</ele>
   </trkpt>
   <trkpt lat="42.23801684203215" lon="69.68429317143257">
    <ele>573.77</ele>
   </trkpt>
   <trkpt lat="42.237732647962076" lon="69.68316986338891">
    <ele>570.01</ele>
   </trkpt>
   <trkpt lat="42.237448442931765" lon="69.68204656546307">
    <ele>569.85</ele>
   </trkpt>
   <trkpt lat="42.23716422694145" lon="69.68092327765527">
    <ele>574.5600000000001</ele>
   </trkpt>
   <trkpt lat="42.236880000000006" lon="69.6798">
    <ele>573.89</ele>
   </trkpt>
   <trkpt lat="42.236606048160134" lon="69.67868995662658">
    <ele>575.0</ele>
   </trkpt>
   <trkpt lat="42.236332085617384" lon="69.6775799228908">
    <ele>575.0</ele>
   </trkpt>
   <trkpt lat="42.23605811237198" lon="69.67646989879287">
    <ele>578.0300000000001</ele>
   </trkpt>
   <trkpt lat="42.2357841284241" lon="69.67535988433296">
    <ele>576.97</ele>
   </trkpt>
   <trkpt lat="42.23551013377396" lon="69.67424987951131">
    <ele>580.1</ele>
   </trkpt>
   <trkpt lat="42.235236128421725" lon="69.6731398843281">
    <ele>579.8000000000001</ele>
   </trkpt>
   <trkpt lat="42.23496211236762" lon="69.6720298987835">
    <ele>581.92</ele>
   </trkpt>
   <trkpt lat="42.23468808561182" lon="69.67091992287777">
    <ele>582.86</ele>
   </trkpt>
   <trkpt lat="42.234414048154534" lon="69.66980995661109">
    <ele>584.0600000000001</ele>
   </trkpt>
   <trkpt lat="42.234140000000004" lon="69.6687">
    <ele>584.22</ele>
   </trkpt>
   <trkpt lat="42.23387359774849" lon="69.66758163525975">
    <ele>584.0000000000001</ele>
   </trkpt>
   <trkpt lat="42.233607184633144" lon="69.6664632799609">
    <ele>586.0000000000001</ele>
   </trkpt>
   <trkpt lat="42.23334076065415" lon="69.66534493410366">
    <ele>585.01</ele>
   </trkpt>
   <trkpt lat="42.233074325811735" lon="69.66422659768827">
    <ele>586.86</ele>
   </trkpt>
   <trkpt lat="42.23280788010605" lon="69.66310827071494">
    <ele>584.5600000000001</ele>
   </trkpt>
   <trkpt lat="42.23254142353732" lon="69.66198995318389">
    <ele>577.62</ele>
   </trkpt>
   <trkpt lat="42.23227495610571" lon="69.66087164509531">
    <ele>572.86</ele>
   </trkpt>
   <trkpt lat="42.23200847781143" lon="69.65975334644946">
    <ele>569.97</ele>
   </trkpt>
   <trkpt lat="42.23174198865468" lon="69.65863505724653">
    <ele>567.03</ele>
   </trkpt>
   <trkpt lat="42.23147548863565" lon="69.65751677748673">
    <ele>568.73</ele>
   </trkpt>
   <trkpt lat="42.23120897775452" lon="69.65639850717031">
    <ele>573.0500000000001</ele>
   </trkpt>
   <trkpt lat="42.230942456011476" lon="69.65528024629745">
    <ele>578.0500000000001</ele>
   </trkpt>
   <trkpt lat="42.23067592340676" lon="69.65416199486839">
    <ele>579.45</ele>
   </trkpt>
   <trkpt lat="42.23040937994051" lon="69.65304375288333">
    <ele>583.0300000000001</ele>
   </trkpt>
   <trkpt lat="42.23014282561294" lon="69.65192552034252">
    <ele>584.92</ele>
   </trkpt>
   <trkpt lat="42.229876260424255" lon="69.65080729724613">
    <ele>586.28</ele>
   </trkpt>
   <trkpt lat="42.22960968437463" lon="69.64968908359441">
    <ele>589.26</ele>
   </trkpt>
   <trkpt lat="42.22934309746426" lon="69.64857087938756">
    <ele>593.0300000000001</ele>
   </trkpt>
   <trkpt lat="42.22907649969335" lon="69.6474526846258">
    <ele>595.16</ele>
   </trkpt>
   <trkpt lat="42.22880989106209" lon="69.64633449930936">
    <ele>599.0600000000001</ele>
   </trkpt>
   <trkpt lat="42.22854327157067" lon="69.64521632343845">
    <ele>604.0300000000001</ele>
   </trkpt>
   <trkpt lat="42.228276641219274" lon="69.64409815701327">
    <ele>602.8</ele>
   </trkpt>
   <trkpt lat="42.228010000000005" lon="69.64298000000001">
    <ele>593.71</ele>
   </trkpt>
   <trkpt lat="42.22777253248585" lon="69.64194622276966">
    <ele>591.9100000000001</ele>
   </trkpt>
   <trkpt lat="42.227535055689266" lon="69.64091245331704">
    <ele>588.95</ele>
   </trkpt>
   <trkpt lat="42.22729756961043" lon="69.63987869164235">
    <ele>586.94</ele>
   </trkpt>
   <trkpt lat="42.22706007424944" lon="69.63884493774574">
    <ele>579.33</ele>
   </trkpt>
   <trkpt lat="42.22682256960647" lon="69.63781119162743">
    <ele>571.1400000000001</ele>
   </trkpt>
   <trkpt lat="42.22658505568166" lon="69.63677745328758">
    <ele>565.28</ele>
   </trkpt>
   <trkpt lat="42.22634753247517" lon="69.63574372272637">
    <ele>558.5100000000001</ele>
   </trkpt>
   <trkpt lat="42.226110000000006" lon="69.63471000000001">
    <ele>554.03</ele>
   </trkpt>
   <trkpt lat="42.225860000000004" lon="69.63377000000001">
    <ele>554.08</ele>
   </trkpt>
   <trkpt lat="42.22563001065492" lon="69.63266332535328">
    <ele>562.11</ele>
   </trkpt>
   <trkpt lat="42.22540001067221" lon="69.63155665876995">
    <ele>561.89</ele>
   </trkpt>
   <trkpt lat="42.225170000000006" lon="69.63045000000001">
    <ele>561.88</ele>
   </trkpt>
   <trkpt lat="42.22496251492252" lon="69.62937998948085">
    <ele>563.83</ele>
   </trkpt>
   <trkpt lat="42.224755019900606" lon="69.62830998599495">
    <ele>565.71</ele>
   </trkpt>
   <trkpt lat="42.2245475149344" lon="69.62723998954253">
    <ele>567.0500000000001</ele>
   </trkpt>
   <trkpt lat="42.224340000000005" lon="69.62617">
    <ele>569.33</ele>
   </trkpt>
   <trkpt lat="42.22414251612023" lon="69.6250574895332">
    <ele>571.8700000000001</ele>
   </trkpt>
   <trkpt lat="42.2239450214904" lon="69.62394498602637">
    <ele>572.89</ele>
   </trkpt>
   <trkpt lat="42.223747516110656" lon="69.62283248947978">
    <ele>574.9000000000001</ele>
   </trkpt>
   <trkpt lat="42.22355" lon="69.62172000000001">
    <ele>576.62</ele>
   </trkpt>
   <trkpt lat="42.22342001776041" lon="69.62055249280408">
    <ele>581.5400000000001</ele>
   </trkpt>
   <trkpt lat="42.22329002368162" lon="69.61938499041555">
    <ele>587.1500000000001</ele>
   </trkpt>
   <trkpt lat="42.223160017763774" lon="69.61821749283486">
    <ele>590.0200000000001</ele>
   </trkpt>
   <trkpt lat="42.22303" lon="69.61705">
    <ele>595.21</ele>
   </trkpt>
   <trkpt lat="42.222930000000005" lon="69.61614">
    <ele>598.2</ele>
   </trkpt>
   <trkpt lat="42.22289000299477" lon="69.61530999953612">
    <ele>598.7900000000001</ele>
   </trkpt>
   <trkpt lat="42.22285" lon="69.61448">
    <ele>595.38</ele>
   </trkpt>
   <trkpt lat="42.2228750032169" lon="69.61362000017101">
    <ele>595.0500000000001</ele>
   </trkpt>
   <trkpt lat="42.2229" lon="69.61276000000001">
    <ele>592.23</ele>
   </trkpt>
   <trkpt lat="42.22302000627952" lon="69.61191000320187">
    <ele>589.97</ele>
   </trkpt>
   <trkpt lat="42.223140006283664" lon="69.61106000317261">
    <ele>587.67</ele>
   </trkpt>
   <trkpt lat="42.22326" lon="69.61021000000001">
    <ele>587.94</ele>
   </trkpt>
   <trkpt lat="42.22350000298027" lon="69.60938000319493">
    <ele>589.1200000000001</ele>
   </trkpt>
   <trkpt lat="42.22374000000001" lon="69.60855000000001">
    <ele>592.57</ele>
   </trkpt>
   <trkpt lat="42.224070002930326" lon="69.60772500437601">
    <ele>594.11</ele>
   </trkpt>
   <trkpt lat="42.2244" lon="69.60690000000001">
    <ele>596.94</ele>
   </trkpt>
   <trkpt lat="42.224645001156645" lon="69.60637500212384">
    <ele>598.44</ele>
   </trkpt>
   <trkpt lat="42.22489" lon="69.60585">
    <ele>600.1200000000001</ele>
   </trkpt>
   <trkpt lat="42.22537000199845" lon="69.60518000502576">
    <ele>604.5500000000001</ele>
   </trkpt>
   <trkpt lat="42.22585" lon="69.60451">
    <ele>606.9300000000001</ele>
   </trkpt>
   <trkpt lat="42.22632333619884" lon="69.6039300087665">
    <ele>607.9</ele>
   </trkpt>
   <trkpt lat="42.226796669475824" lon="69.60335000883565">
    <ele>605.33</ele>
   </trkpt>
   <trkpt lat="42.227270000000004" lon="69.60277">
    <ele>602.37</ele>
   </trkpt>
   <trkpt lat="42.22787000249668" lon="69.60203000688733">
    <ele>599.0000000000001</ele>
   </trkpt>
   <trkpt lat="42.22847" lon="69.60129">
    <ele>608.72</ele>
   </trkpt>
   <trkpt lat="42.22909000273267" lon="69.60050500763876">
    <ele>612.97</ele>
   </trkpt>
   <trkpt lat="42.229710000000004" lon="69.59972">
    <ele>603.35</ele>
   </trkpt>
   <trkpt lat="42.23011500124149" lon="69.59918500343476">
    <ele>595.49</ele>
   </trkpt>
   <trkpt lat="42.230520000000006" lon="69.59865">
    <ele>586.9100000000001</ele>
   </trkpt>
   <trkpt lat="42.23094500188341" lon="69.5979750046964">
    <ele>589.31</ele>
   </trkpt>
   <trkpt lat="42.231370000000005" lon="69.5973">
    <ele>593.1</ele>
   </trkpt>
   <trkpt lat="42.2318700027763" lon="69.59650000634248">
    <ele>585.84</ele>
   </trkpt>
   <trkpt lat="42.23237" lon="69.59570000000001">
    <ele>577.84</ele>
   </trkpt>
   <trkpt lat="42.23274000192131" lon="69.5950350038971">
    <ele>578.6300000000001</ele>
   </trkpt>
   <trkpt lat="42.23311" lon="69.59437000000001">
    <ele>584.64</ele>
   </trkpt>
   <trkpt lat="42.23354000343549" lon="69.59349000584758">
    <ele>585.09</ele>
   </trkpt>
   <trkpt lat="42.23397000000001" lon="69.59261000000001">
    <ele>575.87</ele>
   </trkpt>
   <trkpt lat="42.23428000677812" lon="69.59172667534253">
    <ele>580.47</ele>
   </trkpt>
   <trkpt lat="42.23459000677881" lon="69.59084334200736">
    <ele>583.0300000000001</ele>
   </trkpt>
   <trkpt lat="42.2349" lon="69.58996">
    <ele>584.25</ele>
   </trkpt>
   <trkpt lat="42.235085001482595" lon="69.58939000145047">
    <ele>593.26</ele>
   </trkpt>
   <trkpt lat="42.23527000000001" lon="69.58882000000001">
    <ele>601.7600000000001</ele>
   </trkpt>
   <trkpt lat="42.235730000000004" lon="69.58810000000001">
    <ele>597.2900000000001</ele>
   </trkpt>
   <trkpt lat="42.23628" lon="69.58761000000001">
    <ele>593.1800000000001</ele>
   </trkpt>
   <trkpt lat="42.23653" lon="69.58715000000001">
    <ele>590.5100000000001</ele>
   </trkpt>
   <trkpt lat="42.236740002260035" lon="69.5864200026182">
    <ele>591.8100000000001</ele>
   </trkpt>
   <trkpt lat="42.23695" lon="69.58569">
    <ele>593.09</ele>
   </trkpt>
   <trkpt lat="42.23717667655196" lon="69.58462334098436">
    <ele>587.96</ele>
   </trkpt>
   <trkpt lat="42.237403343221146" lon="69.58355667430601">
    <ele>601.1700000000001</ele>
   </trkpt>
   <trkpt lat="42.23763" lon="69.58249">
    <ele>612.6</ele>
   </trkpt>
   <trkpt lat="42.23788251066993" lon="69.58158501086812">
    <ele>603.63</ele>
   </trkpt>
   <trkpt lat="42.238135014225826" lon="69.58068001449375">
    <ele>599.57</ele>
   </trkpt>
   <trkpt lat="42.23838751066756" lon="69.57977501087696">
    <ele>608.16</ele>
   </trkpt>
   <trkpt lat="42.238640000000004" lon="69.57887000000001">
    <ele>608.75</ele>
   </trkpt>
   <trkpt lat="42.23895335921374" lon="69.57777836043147">
    <ele>599.77</ele>
   </trkpt>
   <trkpt lat="42.2392667080763" lon="69.5766867100211">
    <ele>598.22</ele>
   </trkpt>
   <trkpt lat="42.23958004658745" lon="69.57559504876905">
    <ele>591.22</ele>
   </trkpt>
   <trkpt lat="42.23989337474699" lon="69.57450337667542">
    <ele>583.11</ele>
   </trkpt>
   <trkpt lat="42.24020669255468" lon="69.57341169374037">
    <ele>577.2900000000001</ele>
   </trkpt>
   <trkpt lat="42.240520000000004" lon="69.57232">
    <ele>570.76</ele>
   </trkpt>
   <trkpt lat="42.24083751541113" lon="69.57123251640974">
    <ele>566.6300000000001</ele>
   </trkpt>
   <trkpt lat="42.24115502054965" lon="69.57014502187495">
    <ele>568.07</ele>
   </trkpt>
   <trkpt lat="42.24147251541538" lon="69.56905751639576">
    <ele>564.46</ele>
   </trkpt>
   <trkpt lat="42.24179" lon="69.56797">
    <ele>570.1700000000001</ele>
   </trkpt>
   <trkpt lat="42.242062512006726" lon="69.56701001244228">
    <ele>567.45</ele>
   </trkpt>
   <trkpt lat="42.24233501600834" lon="69.56605001659217">
    <ele>558.58</ele>
   </trkpt>
   <trkpt lat="42.24260751200472" lon="69.56509001244977">
    <ele>552.49</ele>
   </trkpt>
   <trkpt lat="42.24288000000001" lon="69.56413">
    <ele>548.13</ele>
   </trkpt>
   <trkpt lat="42.243050000000004" lon="69.56355">
    <ele>543.42</ele>
   </trkpt>
   <trkpt lat="42.24336" lon="69.56308">
    <ele>541.98</ele>
   </trkpt>
   <trkpt lat="42.24372" lon="69.56282">
    <ele>542.01</ele>
   </trkpt>
   <trkpt lat="42.24414" lon="69.56263">
    <ele>544.19</ele>
   </trkpt>
   <trkpt lat="42.244550000000004" lon="69.56227000000001">
    <ele>545.83</ele>
   </trkpt>
   <trkpt lat="42.244800000000005" lon="69.56183">
    <ele>543.84</ele>
   </trkpt>
   <trkpt lat="42.244980000000005" lon="69.56115000000001">
    <ele>538.09</ele>
   </trkpt>
   <trkpt lat="42.24492" lon="69.56044">
    <ele>536.47</ele>
   </trkpt>
   <trkpt lat="42.24477" lon="69.55992">
    <ele>535.24</ele>
   </trkpt>
   <trkpt lat="42.244580000000006" lon="69.55957000000001">
    <ele>534.91</ele>
   </trkpt>
   <trkpt lat="42.24441" lon="69.55919">
    <ele>533.13</ele>
   </trkpt>
   <trkpt lat="42.2443" lon="69.55884">
    <ele>531.98</ele>
   </trkpt>
   <trkpt lat="42.24428" lon="69.5584">
    <ele>529.02</ele>
   </trkpt>
   <trkpt lat="42.244400000000006" lon="69.55768">
    <ele>524.1300000000001</ele>
   </trkpt>
   <trkpt lat="42.24814000000001" lon="69.54310000000001">
    <ele>518.7400000000001</ele>
   </trkpt>
   <trkpt lat="42.248767501480636" lon="69.54343748992608">
    <ele>517.05</ele>
   </trkpt>
   <trkpt lat="42.24939500197186" lon="69.54377498656666">
    <ele>516.35</ele>
   </trkpt>
   <trkpt lat="42.25002250147366" lon="69.54411248992203">
    <ele>515.5300000000001</ele>
   </trkpt>
   <trkpt lat="42.25065" lon="69.54445000000001">
    <ele>515.29</ele>
   </trkpt>
   <trkpt lat="42.251223334107735" lon="69.54473999475013">
    <ele>515.48</ele>
   </trkpt>
   <trkpt lat="42.251796667484946" lon="69.54502999477226">
    <ele>515.33</ele>
   </trkpt>
   <trkpt lat="42.252370000000006" lon="69.54532">
    <ele>515.33</ele>
   </trkpt>
   <trkpt lat="42.25315750222242" lon="69.54572998465882">
    <ele>515.34</ele>
   </trkpt>
   <trkpt lat="42.25394500298468" lon="69.5461399795559">
    <ele>515.39</ele>
   </trkpt>
   <trkpt lat="42.25473250228674" lon="69.54654998469175">
    <ele>515.4300000000001</ele>
   </trkpt>
   <trkpt lat="42.255520000000004" lon="69.54696000000001">
    <ele>515.0100000000001</ele>
   </trkpt>
   <trkpt lat="42.25551" lon="69.54695000000001">
    <ele>515.02</ele>
   </trkpt>
   <trkpt lat="42.256346887150336" lon="69.54738178902652">
    <ele>514.48</ele>
   </trkpt>
   <trkpt lat="42.25718377268109" lon="69.54781358951328">
    <ele>513.8600000000001</ele>
   </trkpt>
   <trkpt lat="42.25802065659213" lon="69.54824540146093">
    <ele>512.94</ele>
   </trkpt>
   <trkpt lat="42.25885753888341" lon="69.54867722487008">
    <ele>510.92</ele>
   </trkpt>
   <trkpt lat="42.259694419554805" lon="69.54910905974133">
    <ele>507.36</ele>
   </trkpt>
   <trkpt lat="42.260531298606246" lon="69.54954090607531">
    <ele>502.81000000000006</ele>
   </trkpt>
   <trkpt lat="42.261368176037635" lon="69.54997276387263">
    <ele>499.26000000000005</ele>
   </trkpt>
   <trkpt lat="42.26220505184888" lon="69.55040463313394">
    <ele>497.96</ele>
   </trkpt>
   <trkpt lat="42.2630419260399" lon="69.55083651385984">
    <ele>498.50000000000006</ele>
   </trkpt>
   <trkpt lat="42.2638787986106" lon="69.55126840605094">
    <ele>501.18000000000006</ele>
   </trkpt>
   <trkpt lat="42.26471566956088" lon="69.55170030970785">
    <ele>503.50000000000006</ele>
   </trkpt>
   <trkpt lat="42.26555253889065" lon="69.55213222483123">
    <ele>509.21999999999997</ele>
   </trkpt>
   <trkpt lat="42.26638940659984" lon="69.55256415142165">
    <ele>512.88</ele>
   </trkpt>
   <trkpt lat="42.26722627268835" lon="69.55299608947976">
    <ele>514.93</ele>
   </trkpt>
   <trkpt lat="42.26806313715607" lon="69.55342803900616">
    <ele>516.6800000000001</ele>
   </trkpt>
   <trkpt lat="42.2689" lon="69.55386">
    <ele>518.0600000000001</ele>
   </trkpt>
   <trkpt lat="42.26968500486638" lon="69.55425996512987">
    <ele>518.61</ele>
   </trkpt>
   <trkpt lat="42.27047000834301" lon="69.5546599402219">
    <ele>518.6200000000001</ele>
   </trkpt>
   <trkpt lat="42.271255010429876" lon="69.55505992527658">
    <ele>519.58</ele>
   </trkpt>
   <trkpt lat="42.272040011126855" lon="69.55545992029442">
    <ele>520.96</ele>
   </trkpt>
   <trkpt lat="42.27282501043389" lon="69.55585992527593">
    <ele>522.81</ele>
   </trkpt>
   <trkpt lat="42.27361000835094" lon="69.5562599402216">
    <ele>524.64</ele>
   </trkpt>
   <trkpt lat="42.274395004877896" lon="69.55665996513196">
    <ele>525.6</ele>
   </trkpt>
   <trkpt lat="42.275180000000006" lon="69.55706">
    <ele>526.2900000000001</ele>
   </trkpt>
   <trkpt lat="42.27586800199367" lon="69.55739798524422">
    <ele>526.6700000000001</ele>
   </trkpt>
   <trkpt lat="42.276556002994944" lon="69.55773597786816">
    <ele>527.15</ele>
   </trkpt>
   <trkpt lat="42.27724400300377" lon="69.55807397787214">
    <ele>528.8000000000001</ele>
   </trkpt>
   <trkpt lat="42.27793200202011" lon="69.55841198525651">
    <ele>529.6500000000001</ele>
   </trkpt>
   <trkpt lat="42.278620000000004" lon="69.55875">
    <ele>531.13</ele>
   </trkpt>
   <trkpt lat="42.27917000006355" lon="69.55894499826195">
    <ele>532.1800000000001</ele>
   </trkpt>
   <trkpt lat="42.279720000000005" lon="69.55914">
    <ele>533.6899999999999</ele>
   </trkpt>
   <trkpt lat="42.28043000036229" lon="69.5593699974513">
    <ele>534.83</ele>
   </trkpt>
   <trkpt lat="42.28114" lon="69.5596">
    <ele>535.5300000000001</ele>
   </trkpt>
   <trkpt lat="42.28160500020059" lon="69.55973999900156">
    <ele>535.71</ele>
   </trkpt>
   <trkpt lat="42.282070000000004" lon="69.55988">
    <ele>536.0</ele>
   </trkpt>
   <trkpt lat="42.28258" lon="69.56006000000001">
    <ele>536.19</ele>
   </trkpt>
   <trkpt lat="42.2832" lon="69.56032">
    <ele>536.0600000000001</ele>
   </trkpt>
   <trkpt lat="42.2836900005756" lon="69.56059499799991">
    <ele>535.72</ele>
   </trkpt>
   <trkpt lat="42.284180000000006" lon="69.56087000000001">
    <ele>535.27</ele>
   </trkpt>
   <trkpt lat="42.284880006306054" lon="69.5614083034349">
    <ele>533.09</ele>
   </trkpt>
   <trkpt lat="42.285580010094684" lon="69.56194661883222">
    <ele>530.35</ele>
   </trkpt>
   <trkpt lat="42.28628001136576" lon="69.56248494619244">
    <ele>528.0400000000001</ele>
   </trkpt>
   <trkpt lat="42.28698001011916" lon="69.5630232855161">
    <ele>526.44</ele>
   </trkpt>
   <trkpt lat="42.28768000635478" lon="69.5635616368037">
    <ele>524.6899999999999</ele>
   </trkpt>
   <trkpt lat="42.288380000000004" lon="69.56410000000001">
    <ele>524.07</ele>
   </trkpt>
   <trkpt lat="42.28894000156691" lon="69.56451999255815">
    <ele>523.37</ele>
   </trkpt>
   <trkpt lat="42.28950000160135" lon="69.56493999258389">
    <ele>523.03</ele>
   </trkpt>
   <trkpt lat="42.290060000000004" lon="69.56536000000001">
    <ele>523.05</ele>
   </trkpt>
   <trkpt lat="42.2907850016544" lon="69.5659549932471">
    <ele>523.07</ele>
   </trkpt>
   <trkpt lat="42.29151" lon="69.56655">
    <ele>522.63</ele>
   </trkpt>
   <trkpt lat="42.2922400021487" lon="69.56724499199294">
    <ele>520.61</ele>
   </trkpt>
   <trkpt lat="42.292970000000004" lon="69.56794000000001">
    <ele>517.69</ele>
   </trkpt>
   <trkpt lat="42.29344333554284" lon="69.56844665902885">
    <ele>514.87</ele>
   </trkpt>
   <trkpt lat="42.29391666885548" lon="69.56895332567329">
    <ele>512.47</ele>
   </trkpt>
   <trkpt lat="42.29439" lon="69.56946">
    <ele>510.2300000000001</ele>
   </trkpt>
   <trkpt lat="42.29476000101115" lon="69.56989999761738">
    <ele>508.15</ele>
   </trkpt>
   <trkpt lat="42.29513" lon="69.57034">
    <ele>504.6</ele>
   </trkpt>
   <trkpt lat="42.29573500180409" lon="69.57096999403107">
    <ele>499.77000000000004</ele>
   </trkpt>
   <trkpt lat="42.29634" lon="69.5716">
    <ele>496.14000000000004</ele>
   </trkpt>
   <trkpt lat="42.296710000000004" lon="69.57189000000001">
    <ele>494.46000000000004</ele>
   </trkpt>
   <trkpt lat="42.297185000343156" lon="69.57214999806595">
    <ele>493.42</ele>
   </trkpt>
   <trkpt lat="42.29766" lon="69.57241">
    <ele>491.72</ele>
   </trkpt>
   <trkpt lat="42.298210000000005" lon="69.57264">
    <ele>490.17</ele>
   </trkpt>
   <trkpt lat="42.29883500027831" lon="69.57287999762869">
    <ele>489.61</ele>
   </trkpt>
   <trkpt lat="42.29946" lon="69.57312">
    <ele>489.26</ele>
   </trkpt>
   <trkpt lat="42.30026000085642" lon="69.57343665861418">
    <ele>488.78000000000003</ele>
   </trkpt>
   <trkpt lat="42.30106000084165" lon="69.57375332527486">
    <ele>488.37</ele>
   </trkpt>
   <trkpt lat="42.301860000000005" lon="69.57407">
    <ele>487.33000000000004</ele>
   </trkpt>
   <trkpt lat="42.302652004383255" lon="69.5744049620706">
    <ele>487.02000000000004</ele>
   </trkpt>
   <trkpt lat="42.30344400779169" lon="69.57473993256842">
    <ele>491.15000000000003</ele>
   </trkpt>
   <trkpt lat="42.30423601022527" lon="69.57507491149387">
    <ele>491.2900000000001</ele>
   </trkpt>
   <trkpt lat="42.305028011683916" lon="69.57540989884743">
    <ele>490.59000000000003</ele>
   </trkpt>
   <trkpt lat="42.30582001216761" lon="69.5757448946295">
    <ele>490.73</ele>
   </trkpt>
   <trkpt lat="42.30661201167627" lon="69.57607989884053">
    <ele>492.01000000000005</ele>
   </trkpt>
   <trkpt lat="42.307404010209865" lon="69.57641491148095">
    <ele>493.16</ele>
   </trkpt>
   <trkpt lat="42.30819600776834" lon="69.57674993255121">
    <ele>494.61</ele>
   </trkpt>
   <trkpt lat="42.30898800435164" lon="69.57708496205173">
    <ele>495.97</ele>
   </trkpt>
   <trkpt lat="42.30978" lon="69.57742">
    <ele>498.01000000000005</ele>
   </trkpt>
   <trkpt lat="42.310572501415166" lon="69.57774998753354">
    <ele>500.48</ele>
   </trkpt>
   <trkpt lat="42.31136500188423" lon="69.57807998337663">
    <ele>502.28000000000003</ele>
   </trkpt>
   <trkpt lat="42.312157501407135" lon="69.57840998752974">
    <ele>503.7900000000001</ele>
   </trkpt>
   <trkpt lat="42.31295" lon="69.57874000000001">
    <ele>505.95</ele>
   </trkpt>
   <trkpt lat="42.31372500441563" lon="69.57919163884823">
    <ele>507.92</ele>
   </trkpt>
   <trkpt lat="42.31450000705898" lon="69.57964328881951">
    <ele>510.24</ele>
   </trkpt>
   <trkpt lat="42.31527500792997" lon="69.58009494991441">
    <ele>511.93</ele>
   </trkpt>
   <trkpt lat="42.31605000702853" lon="69.58054662213347">
    <ele>512.49</ele>
   </trkpt>
   <trkpt lat="42.316825004354556" lon="69.58099830547728">
    <ele>513.41</ele>
   </trkpt>
   <trkpt lat="42.317600000000006" lon="69.58145">
    <ele>514.37</ele>
   </trkpt>
   <trkpt lat="42.31805000334895" lon="69.58207332438103">
    <ele>514.7400000000001</ele>
   </trkpt>
   <trkpt lat="42.31850000332209" lon="69.58269665767706">
    <ele>515.8000000000001</ele>
   </trkpt>
   <trkpt lat="42.31895" lon="69.58332">
    <ele>516.14</ele>
   </trkpt>
   <trkpt lat="42.319500000000005" lon="69.58409">
    <ele>517.87</ele>
   </trkpt>
   <trkpt lat="42.31956" lon="69.58422">
    <ele>517.9200000000001</ele>
   </trkpt>
   <trkpt lat="42.31985334354178" lon="69.58530332327554">
    <ele>518.37</ele>
   </trkpt>
   <trkpt lat="42.32014667688675" lon="69.58638665665167">
    <ele>519.48</ele>
   </trkpt>
   <trkpt lat="42.320440000000005" lon="69.58747000000001">
    <ele>521.1999999999999</ele>
   </trkpt>
   <trkpt lat="42.32048" lon="69.58788000000001">
    <ele>521.5200000000001</ele>
   </trkpt>
   <trkpt lat="42.32109000091512" lon="69.58755667293238">
    <ele>521.22</ele>
   </trkpt>
   <trkpt lat="42.32170000092192" lon="69.58723333959551">
    <ele>521.36</ele>
   </trkpt>
   <trkpt lat="42.32231" lon="69.58691">
    <ele>521.57</ele>
   </trkpt>
   <trkpt lat="42.32249" lon="69.58755000000001">
    <ele>521.6700000000001</ele>
   </trkpt>
   <trkpt lat="42.3227450044763" lon="69.5885649958891">
    <ele>523.72</ele>
   </trkpt>
   <trkpt lat="42.323" lon="69.58958000000001">
    <ele>524.3500000000001</ele>
   </trkpt>
   <trkpt lat="42.323752001842074" lon="69.58990598441149">
    <ele>525.05</ele>
   </trkpt>
   <trkpt lat="42.32450400276082" lon="69.59023197661583">
    <ele>526.27</ele>
   </trkpt>
   <trkpt lat="42.32525600275621" lon="69.59055797661341">
    <ele>527.44</ele>
   </trkpt>
   <trkpt lat="42.326008001828185" lon="69.59088398440466">
    <ele>528.52</ele>
   </trkpt>
   <trkpt lat="42.32676" lon="69.59121">
    <ele>529.91</ele>
   </trkpt>
   <trkpt lat="42.32758286033786" lon="69.59155997253072">
    <ele>530.6800000000001</ele>
   </trkpt>
   <trkpt lat="42.3284057196115" lon="69.59190995421734">
    <ele>531.5600000000001</ele>
   </trkpt>
   <trkpt lat="42.32922857782085" lon="69.59225994506033">
    <ele>531.8900000000001</ele>
   </trkpt>
   <trkpt lat="42.33005143496585" lon="69.5926099450602">
    <ele>531.66</ele>
   </trkpt>
   <trkpt lat="42.330874291046456" lon="69.59295995421746">
    <ele>531.42</ele>
   </trkpt>
   <trkpt lat="42.3316971460626" lon="69.59330997253257">
    <ele>530.74</ele>
   </trkpt>
   <trkpt lat="42.33252" lon="69.59366">
    <ele>530.13</ele>
   </trkpt>
   <trkpt lat="42.332980000000006" lon="69.59373000000001">
    <ele>530.3</ele>
   </trkpt>
   <trkpt lat="42.33361" lon="69.59371">
    <ele>530.6899999999999</ele>
   </trkpt>
   <trkpt lat="42.333980000000004" lon="69.59370000000001">
    <ele>531.08</ele>
   </trkpt>
   <trkpt lat="42.334320000000005" lon="69.59406">
    <ele>531.7900000000001</ele>
   </trkpt>
   <trkpt lat="42.33457000000001" lon="69.59439">
    <ele>532.42</ele>
   </trkpt>
   <trkpt lat="42.334830000000004" lon="69.59463000000001">
    <ele>533.0500000000001</ele>
   </trkpt>
   <trkpt lat="42.33505" lon="69.59476000000001">
    <ele>533.4100000000001</ele>
   </trkpt>
   <trkpt lat="42.335330000000006" lon="69.59483">
    <ele>533.6200000000001</ele>
   </trkpt>
   <trkpt lat="42.33572" lon="69.59486000000001">
    <ele>533.71</ele>
   </trkpt>
   <trkpt lat="42.33616000000001" lon="69.59477000000001">
    <ele>534.12</ele>
   </trkpt>
   <trkpt lat="42.33654000000001" lon="69.59458000000001">
    <ele>534.1400000000001</ele>
   </trkpt>
   <trkpt lat="42.336940000000006" lon="69.59507">
    <ele>535.24</ele>
   </trkpt>
   <trkpt lat="42.33731" lon="69.59569">
    <ele>535.9900000000001</ele>
   </trkpt>
   <trkpt lat="42.337500000000006" lon="69.59582">
    <ele>536.47</ele>
   </trkpt>
   <trkpt lat="42.33814500029377" lon="69.59607499738891">
    <ele>537.34</ele>
   </trkpt>
   <trkpt lat="42.33879" lon="69.59633000000001">
    <ele>537.9900000000001</ele>
   </trkpt>
   <trkpt lat="42.33878000000001" lon="69.59633000000001">
    <ele>537.97</ele>
   </trkpt>
   <trkpt lat="42.33950000083531" lon="69.59663332640184">
    <ele>539.19</ele>
   </trkpt>
   <trkpt lat="42.34022000087114" lon="69.59693665975016">
    <ele>540.8900000000001</ele>
   </trkpt>
   <trkpt lat="42.34094" lon="69.59724">
    <ele>541.71</ele>
   </trkpt>
   <trkpt lat="42.341770000000004" lon="69.59764000000001">
    <ele>542.5699999999999</ele>
   </trkpt>
   <trkpt lat="42.342275000577544" lon="69.59795499756129">
    <ele>543.79</ele>
   </trkpt>
   <trkpt lat="42.342780000000005" lon="69.59827">
    <ele>544.3800000000001</ele>
   </trkpt>
   <trkpt lat="42.3436" lon="69.59865">
    <ele>545.44</ele>
   </trkpt>
   <trkpt lat="42.34441" lon="69.59899">
    <ele>546.83</ele>
   </trkpt>
   <trkpt lat="42.344850000201475" lon="69.59918499865132">
    <ele>547.51</ele>
   </trkpt>
   <trkpt lat="42.345290000000006" lon="69.59938000000001">
    <ele>548.0200000000001</ele>
   </trkpt>
   <trkpt lat="42.34588000063319" lon="69.5996266620804">
    <ele>549.42</ele>
   </trkpt>
   <trkpt lat="42.3464700007377" lon="69.5998733287907">
    <ele>550.9200000000001</ele>
   </trkpt>
   <trkpt lat="42.347060000000006" lon="69.60012">
    <ele>551.5300000000001</ele>
   </trkpt>
   <trkpt lat="42.347150000000006" lon="69.60017">
    <ele>551.7</ele>
   </trkpt>
   <trkpt lat="42.347170000000006" lon="69.60028000000001">
    <ele>551.9000000000001</ele>
   </trkpt>
   <trkpt lat="42.346970005303554" lon="69.60106333842845">
    <ele>552.5300000000001</ele>
   </trkpt>
   <trkpt lat="42.34677000527524" lon="69.6018466718726">
    <ele>553.6500000000001</ele>
   </trkpt>
   <trkpt lat="42.34657000000001" lon="69.60263">
    <ele>555.0500000000001</ele>
   </trkpt>
   <trkpt lat="42.347" lon="69.60281">
    <ele>556.0500000000001</ele>
   </trkpt>
   <trkpt lat="42.34680000347303" lon="69.60370500287927">
    <ele>557.91</ele>
   </trkpt>
   <trkpt lat="42.3466" lon="69.6046">
    <ele>559.98</ele>
   </trkpt>
   <trkpt lat="42.34633667705331" lon="69.6056933424942">
    <ele>563.38</ele>
   </trkpt>
   <trkpt lat="42.3460733437196" lon="69.6067866758289">
    <ele>565.99</ele>
   </trkpt>
   <trkpt lat="42.34581" lon="69.60788000000001">
    <ele>569.08</ele>
   </trkpt>
   <trkpt lat="42.345690000000005" lon="69.60817">
    <ele>569.2400000000001</ele>
   </trkpt>
   <trkpt lat="42.345580000000005" lon="69.6083">
    <ele>569.13</ele>
   </trkpt>
   <trkpt lat="42.34548" lon="69.60837000000001">
    <ele>568.99</ele>
   </trkpt>
   <trkpt lat="42.345380000000006" lon="69.60843000000001">
    <ele>569.46</ele>
   </trkpt>
   <trkpt lat="42.345330000000004" lon="69.60849">
    <ele>569.96</ele>
   </trkpt>
   <trkpt lat="42.345270000000006" lon="69.60868">
    <ele>570.32</ele>
   </trkpt>
   <trkpt lat="42.345290000000006" lon="69.60905000000001">
    <ele>571.83</ele>
   </trkpt>
   <trkpt lat="42.34539" lon="69.60932000000001">
    <ele>571.99</ele>
   </trkpt>
   <trkpt lat="42.345510000000004" lon="69.60952">
    <ele>572.22</ele>
   </trkpt>
   <trkpt lat="42.34563000000001" lon="69.60961">
    <ele>572.2400000000001</ele>
   </trkpt>
   <trkpt lat="42.34572" lon="69.60964">
    <ele>572.1800000000001</ele>
   </trkpt>
   <trkpt lat="42.34597" lon="69.60990000000001">
    <ele>571.79</ele>
   </trkpt>
   <trkpt lat="42.346360000000004" lon="69.6106">
    <ele>572.01</ele>
   </trkpt>
   <trkpt lat="42.34619" lon="69.61086">
    <ele>574.72</ele>
   </trkpt>
   <trkpt lat="42.346120000000006" lon="69.61106000000001">
    <ele>574.72</ele>
   </trkpt>
   <trkpt lat="42.34613" lon="69.61114">
    <ele>574.72</ele>
   </trkpt>
   <trkpt lat="42.34611" lon="69.61125000000001">
    <ele>574.4800000000001</ele>
   </trkpt>
   <trkpt lat="42.346090000000004" lon="69.61129000000001">
    <ele>574.4800000000001</ele>
   </trkpt>
   <trkpt lat="42.346000000000004" lon="69.61132">
    <ele>574.4800000000001</ele>
   </trkpt>
  </trkseg>
 </trk>
</gpx>
