<?xml version="1.0" encoding="UTF-8"?>
<gpx creator="StravaGPX" version="1.1" xmlns="http://www.topografix.com/GPX/1/1" xmlns:xsi="http://www.w3.org/2001/XMLSchema-instance" xsi:schemaLocation="http://www.topografix.com/GPX/1/1 http://www.topografix.com/GPX/1/1/gpx.xsd">
 <metadata>
  <name>Tekesu</name>
  <author>
   <name>Vladimir Sumarokov 🇰🇿🇷🇺🇹🇭</name>
   <link href="https://www.strava.com/athletes/16069938"/>
  </author>
  <copyright author="OpenStreetMap contributors">
   <year>2020</year>
   <license>https://www.openstreetmap.org/copyright</license>
  </copyright>
  <link href="https://www.strava.com/routes/3281990344636139686"/>
 </metadata>
 <trk>
  <name>Tekesu</name>
  <link href="https://www.strava.com/routes/3281990344636139686"/>
  <type>cycling</type>
  <trkseg>
   <trkpt lat="42.31007" lon="69.63232">
    <ele>533.7900000000001</ele>
   </trkpt>
   <trkpt lat="42.309810037049296" lon="69.63342378189971">
    <ele>533.98</ele>
   </trkpt>
   <trkpt lat="42.30955006351353" lon="69.63452755468211">
    <ele>534.32</ele>
   </trkpt>
   <trkpt lat="42.30929007939289" lon="69.63563131834698">
    <ele>535.1700000000001</ele>
   </trkpt>
   <trkpt lat="42.30903008468759" lon="69.63673507289414">
    <ele>536.86</ele>
   </trkpt>
   <trkpt lat="42.308770079397796" lon="69.63783881832333">
    <ele>537.24</ele>
   </trkpt>
   <trkpt lat="42.30851006352369" lon="69.63894255463438">
    <ele>537.5000000000001</ele>
   </trkpt>
   <trkpt lat="42.30825003706547" lon="69.64004628182707">
    <ele>538.09</ele>
   </trkpt>
   <trkpt lat="42.307990000000004" lon="69.64115000000001">
    <ele>539.76</ele>
   </trkpt>
   <trkpt lat="42.3077400055585" lon="69.6422800044354">
    <ele>540.24</ele>
   </trkpt>
   <trkpt lat="42.30749" lon="69.64341">
    <ele>541.27</ele>
   </trkpt>
   <trkpt lat="42.30726000000001" lon="69.6443">
    <ele>543.15</ele>
   </trkpt>
   <trkpt lat="42.30701000220365" lon="69.64501500288856">
    <ele>545.44</ele>
   </trkpt>
   <trkpt lat="42.306760000000004" lon="69.64573">
    <ele>549.46</ele>
   </trkpt>
   <trkpt lat="42.30653" lon="69.64616000000001">
    <ele>552.09</ele>
   </trkpt>
   <trkpt lat="42.30618000131622" lon="69.64668000268068">
    <ele>554.5400000000001</ele>
   </trkpt>
   <trkpt lat="42.30583" lon="69.64720000000001">
    <ele>555.5500000000001</ele>
   </trkpt>
   <trkpt lat="42.30537" lon="69.64779">
    <ele>555.73</ele>
   </trkpt>
   <trkpt lat="42.304840000000006" lon="69.64823000000001">
    <ele>556.19</ele>
   </trkpt>
   <trkpt lat="42.30411" lon="69.64864">
    <ele>556.49</ele>
   </trkpt>
   <trkpt lat="42.30331750495403" lon="69.64904378557551">
    <ele>556.58</ele>
   </trkpt>
   <trkpt lat="42.302525008491585" lon="69.64944756098602">
    <ele>556.2600000000001</ele>
   </trkpt>
   <trkpt lat="42.30173251061274" lon="69.64985132623202">
    <ele>555.95</ele>
   </trkpt>
   <trkpt lat="42.30094001131753" lon="69.65025508131403">
    <ele>555.13</ele>
   </trkpt>
   <trkpt lat="42.30014751060609" lon="69.6506588262326">
    <ele>553.71</ele>
   </trkpt>
   <trkpt lat="42.29935500847847" lon="69.65106256098822">
    <ele>550.1400000000001</ele>
   </trkpt>
   <trkpt lat="42.29856250493474" lon="69.65146628558145">
    <ele>547.32</ele>
   </trkpt>
   <trkpt lat="42.29777000000001" lon="69.65187">
    <ele>546.0400000000001</ele>
   </trkpt>
   <trkpt lat="42.29693666830553" lon="69.65230334479797">
    <ele>545.4</ele>
   </trkpt>
   <trkpt lat="42.29610333497964" lon="69.65273667812721">
    <ele>546.21</ele>
   </trkpt>
   <trkpt lat="42.29527" lon="69.65317">
    <ele>547.2900000000001</ele>
   </trkpt>
   <trkpt lat="42.29452250143464" lon="69.65350251184191">
    <ele>548.4300000000001</ele>
   </trkpt>
   <trkpt lat="42.29377500190874" lon="69.65383501579076">
    <ele>550.03</ele>
   </trkpt>
   <trkpt lat="42.29302750142236" lon="69.65416751184696">
    <ele>551.89</ele>
   </trkpt>
   <trkpt lat="42.292280000000005" lon="69.6545">
    <ele>554.0</ele>
   </trkpt>
   <trkpt lat="42.291850000000004" lon="69.65483">
    <ele>555.09</ele>
   </trkpt>
   <trkpt lat="42.291630000000005" lon="69.65505">
    <ele>555.69</ele>
   </trkpt>
   <trkpt lat="42.29135" lon="69.65545">
    <ele>556.3</ele>
   </trkpt>
   <trkpt lat="42.291090000000004" lon="69.65592000000001">
    <ele>556.98</ele>
   </trkpt>
   <trkpt lat="42.29099" lon="69.65615000000001">
    <ele>557.13</ele>
   </trkpt>
   <trkpt lat="42.29069000757057" lon="69.6570833422157">
    <ele>557.11</ele>
   </trkpt>
   <trkpt lat="42.290390007573144" lon="69.65801667554085">
    <ele>557.2</ele>
   </trkpt>
   <trkpt lat="42.290090000000006" lon="69.65895">
    <ele>557.39</ele>
   </trkpt>
   <trkpt lat="42.28988000162831" lon="69.65956500209316">
    <ele>557.5100000000001</ele>
   </trkpt>
   <trkpt lat="42.28967" lon="69.66018000000001">
    <ele>557.7500000000001</ele>
   </trkpt>
   <trkpt lat="42.28947" lon="69.66068">
    <ele>557.8700000000001</ele>
   </trkpt>
   <trkpt lat="42.28913" lon="69.66134000000001">
    <ele>557.88</ele>
   </trkpt>
   <trkpt lat="42.28891" lon="69.66165000000001">
    <ele>557.88</ele>
   </trkpt>
   <trkpt lat="42.28844000120445" lon="69.66219000410051">
    <ele>558.1</ele>
   </trkpt>
   <trkpt lat="42.28797" lon="69.66273000000001">
    <ele>558.45</ele>
   </trkpt>
   <trkpt lat="42.28755000089337" lon="69.66318000298554">
    <ele>558.5</ele>
   </trkpt>
   <trkpt lat="42.287130000000005" lon="69.66363000000001">
    <ele>558.7700000000001</ele>
   </trkpt>
   <trkpt lat="42.28674" lon="69.66420000000001">
    <ele>558.9399999999999</ele>
   </trkpt>
   <trkpt lat="42.286640000000006" lon="69.66442">
    <ele>558.96</ele>
   </trkpt>
   <trkpt lat="42.286530000000006" lon="69.66474000000001">
    <ele>559.0200000000001</ele>
   </trkpt>
   <trkpt lat="42.286325002524755" lon="69.66551000269598">
    <ele>559.1700000000001</ele>
   </trkpt>
   <trkpt lat="42.286120000000004" lon="69.66628">
    <ele>559.76</ele>
   </trkpt>
   <trkpt lat="42.286010000000005" lon="69.66662000000001">
    <ele>560.52</ele>
   </trkpt>
   <trkpt lat="42.28585" lon="69.66698000000001">
    <ele>561.5</ele>
   </trkpt>
   <trkpt lat="42.28567" lon="69.66729000000001">
    <ele>562.22</ele>
   </trkpt>
   <trkpt lat="42.28542" lon="69.66762">
    <ele>562.9000000000001</ele>
   </trkpt>
   <trkpt lat="42.285065000624066" lon="69.66801000223784">
    <ele>563.79</ele>
   </trkpt>
   <trkpt lat="42.284710000000004" lon="69.6684">
    <ele>564.8100000000001</ele>
   </trkpt>
   <trkpt lat="42.28434500056773" lon="69.66878000226347">
    <ele>566.4800000000001</ele>
   </trkpt>
   <trkpt lat="42.28398000000001" lon="69.66916">
    <ele>567.45</ele>
   </trkpt>
   <trkpt lat="42.28387" lon="69.66923">
    <ele>567.77</ele>
   </trkpt>
   <trkpt lat="42.2837" lon="69.66929">
    <ele>568.1</ele>
   </trkpt>
   <trkpt lat="42.28361" lon="69.6693">
    <ele>568.1700000000001</ele>
   </trkpt>
   <trkpt lat="42.28361" lon="69.66933">
    <ele>568.8000000000001</ele>
   </trkpt>
   <trkpt lat="42.28349" lon="69.66931000000001">
    <ele>568.37</ele>
   </trkpt>
   <trkpt lat="42.2834" lon="69.66934">
    <ele>568.59</ele>
   </trkpt>
   <trkpt lat="42.28313000000001" lon="69.66937">
    <ele>568.77</ele>
   </trkpt>
   <trkpt lat="42.282970000000006" lon="69.66932">
    <ele>568.83</ele>
   </trkpt>
   <trkpt lat="42.2828" lon="69.6692">
    <ele>568.8700000000001</ele>
   </trkpt>
   <trkpt lat="42.2820275048035" lon="69.66859247765085">
    <ele>567.9399999999999</ele>
   </trkpt>
   <trkpt lat="42.281255006400706" lon="69.66798497019856">
    <ele>565.6800000000001</ele>
   </trkpt>
   <trkpt lat="42.280482504791784" lon="69.66737747764246">
    <ele>563.1</ele>
   </trkpt>
   <trkpt lat="42.27971" lon="69.66677">
    <ele>562.25</ele>
   </trkpt>
   <trkpt lat="42.2792" lon="69.66632">
    <ele>562.98</ele>
   </trkpt>
   <trkpt lat="42.27901000000001" lon="69.66614">
    <ele>563.07</ele>
   </trkpt>
   <trkpt lat="42.278870000000005" lon="69.66596000000001">
    <ele>563.0200000000001</ele>
   </trkpt>
   <trkpt lat="42.278850000000006" lon="69.66583">
    <ele>563.0200000000001</ele>
   </trkpt>
   <trkpt lat="42.27877" lon="69.66573000000001">
    <ele>563.1700000000001</ele>
   </trkpt>
   <trkpt lat="42.27843" lon="69.66563000000001">
    <ele>563.38</ele>
   </trkpt>
   <trkpt lat="42.27826" lon="69.66555000000001">
    <ele>563.4</ele>
   </trkpt>
   <trkpt lat="42.277930000000005" lon="69.66535">
    <ele>563.2900000000001</ele>
   </trkpt>
   <trkpt lat="42.277460000000005" lon="69.66501000000001">
    <ele>562.7800000000001</ele>
   </trkpt>
   <trkpt lat="42.27686335582132" lon="69.66420549462502">
    <ele>560.3</ele>
   </trkpt>
   <trkpt lat="42.27626670602011" lon="69.66340100448373">
    <ele>558.49</ele>
   </trkpt>
   <trkpt lat="42.275670050596574" lon="69.6625965295757">
    <ele>557.5</ele>
   </trkpt>
   <trkpt lat="42.27507338955098" lon="69.6617920699004">
    <ele>556.07</ele>
   </trkpt>
   <trkpt lat="42.274476722883506" lon="69.66098762545742">
    <ele>555.11</ele>
   </trkpt>
   <trkpt lat="42.273880050594414" lon="69.6601831962463">
    <ele>553.42</ele>
   </trkpt>
   <trkpt lat="42.273283372683885" lon="69.65937878226654">
    <ele>552.48</ele>
   </trkpt>
   <trkpt lat="42.27268668915219" lon="69.65857438351772">
    <ele>552.2900000000001</ele>
   </trkpt>
   <trkpt lat="42.272090000000006" lon="69.65777">
    <ele>552.4100000000001</ele>
   </trkpt>
   <trkpt lat="42.27148500046198" lon="69.6574549969926">
    <ele>552.7</ele>
   </trkpt>
   <trkpt lat="42.270880000000005" lon="69.65714000000001">
    <ele>552.9000000000001</ele>
   </trkpt>
   <trkpt lat="42.27028999992084" lon="69.65700499870016">
    <ele>553.1600000000001</ele>
   </trkpt>
   <trkpt lat="42.2697" lon="69.65687000000001">
    <ele>552.91</ele>
   </trkpt>
   <trkpt lat="42.269005000061846" lon="69.65672999845174">
    <ele>552.19</ele>
   </trkpt>
   <trkpt lat="42.26831000000001" lon="69.65659000000001">
    <ele>551.8100000000001</ele>
   </trkpt>
   <trkpt lat="42.26845379073676" lon="69.65543251847126">
    <ele>550.88</ele>
   </trkpt>
   <trkpt lat="42.268597569834924" lon="69.65427503166217">
    <ele>550.6500000000001</ele>
   </trkpt>
   <trkpt lat="42.2687413372944" lon="69.65311753957309">
    <ele>549.7200000000001</ele>
   </trkpt>
   <trkpt lat="42.268885093115045" lon="69.65196004220441">
    <ele>549.2600000000001</ele>
   </trkpt>
   <trkpt lat="42.26902883729677" lon="69.6508025395565">
    <ele>548.6600000000001</ele>
   </trkpt>
   <trkpt lat="42.26917256983946" lon="69.64964503162973">
    <ele>547.84</ele>
   </trkpt>
   <trkpt lat="42.269316290743014" lon="69.64848751842449">
    <ele>547.1100000000001</ele>
   </trkpt>
   <trkpt lat="42.26946" lon="69.64733000000001">
    <ele>546.88</ele>
   </trkpt>
   <trkpt lat="42.269450000000006" lon="69.64714000000001">
    <ele>546.88</ele>
   </trkpt>
   <trkpt lat="42.26941" lon="69.64699">
    <ele>546.85</ele>
   </trkpt>
   <trkpt lat="42.269330000000004" lon="69.64684000000001">
    <ele>546.7500000000001</ele>
   </trkpt>
   <trkpt lat="42.26921" lon="69.64672">
    <ele>546.5500000000001</ele>
   </trkpt>
   <trkpt lat="42.26903" lon="69.64663">
    <ele>546.4499999999999</ele>
   </trkpt>
   <trkpt lat="42.26815230969916" lon="69.64643381338283">
    <ele>545.96</ele>
   </trkpt>
   <trkpt lat="42.26727461906398" lon="69.6462376322287">
    <ele>545.71</ele>
   </trkpt>
   <trkpt lat="42.266396928094466" lon="69.6460414565373">
    <ele>545.47</ele>
   </trkpt>
   <trkpt lat="42.26551923679066" lon="69.6458452863083">
    <ele>545.24</ele>
   </trkpt>
   <trkpt lat="42.26464154515256" lon="69.64564912154142">
    <ele>545.19</ele>
   </trkpt>
   <trkpt lat="42.26376385318018" lon="69.6454529622363">
    <ele>545.12</ele>
   </trkpt>
   <trkpt lat="42.26288616087355" lon="69.64525680839265">
    <ele>545.1700000000001</ele>
   </trkpt>
   <trkpt lat="42.262008468232715" lon="69.64506066001013">
    <ele>544.6700000000001</ele>
   </trkpt>
   <trkpt lat="42.26113077525764" lon="69.64486451708844">
    <ele>544.27</ele>
   </trkpt>
   <trkpt lat="42.260253081948406" lon="69.64466837962725">
    <ele>544.03</ele>
   </trkpt>
   <trkpt lat="42.259375388304996" lon="69.64447224762624">
    <ele>543.66</ele>
   </trkpt>
   <trkpt lat="42.25849769432743" lon="69.6442761210851">
    <ele>542.85</ele>
   </trkpt>
   <trkpt lat="42.25762" lon="69.64408">
    <ele>542.2</ele>
   </trkpt>
   <trkpt lat="42.25704500007021" lon="69.64398499913892">
    <ele>542.19</ele>
   </trkpt>
   <trkpt lat="42.25647" lon="69.64389">
    <ele>542.6800000000001</ele>
   </trkpt>
   <trkpt lat="42.255750000000006" lon="69.64363">
    <ele>542.9300000000001</ele>
   </trkpt>
   <trkpt lat="42.255010000000006" lon="69.64322">
    <ele>542.22</ele>
   </trkpt>
   <trkpt lat="42.25484" lon="69.64311000000001">
    <ele>542.0400000000001</ele>
   </trkpt>
   <trkpt lat="42.254720000000006" lon="69.64289000000001">
    <ele>541.86</ele>
   </trkpt>
   <trkpt lat="42.25461000000001" lon="69.64241000000001">
    <ele>541.37</ele>
   </trkpt>
   <trkpt lat="42.25459" lon="69.64174">
    <ele>540.79</ele>
   </trkpt>
   <trkpt lat="42.25449500173809" lon="69.64110999914537">
    <ele>540.61</ele>
   </trkpt>
   <trkpt lat="42.254400000000004" lon="69.64048000000001">
    <ele>540.09</ele>
   </trkpt>
   <trkpt lat="42.2542400033638" lon="69.6395999977694">
    <ele>539.85</ele>
   </trkpt>
   <trkpt lat="42.25408" lon="69.63872">
    <ele>539.48</ele>
   </trkpt>
   <trkpt lat="42.253930000000004" lon="69.63798">
    <ele>539.3</ele>
   </trkpt>
   <trkpt lat="42.253870000000006" lon="69.63781">
    <ele>539.2300000000001</ele>
   </trkpt>
   <trkpt lat="42.25379" lon="69.63769">
    <ele>539.1100000000001</ele>
   </trkpt>
   <trkpt lat="42.253620000000005" lon="69.63756000000001">
    <ele>539.0200000000001</ele>
   </trkpt>
   <trkpt lat="42.25341" lon="69.6375">
    <ele>539.0</ele>
   </trkpt>
   <trkpt lat="42.253420000000006" lon="69.6375">
    <ele>539.0</ele>
   </trkpt>
   <trkpt lat="42.2533" lon="69.6375">
    <ele>539.0</ele>
   </trkpt>
   <trkpt lat="42.25318" lon="69.63755">
    <ele>539.0500000000001</ele>
   </trkpt>
   <trkpt lat="42.25309" lon="69.63764">
    <ele>539.0500000000001</ele>
   </trkpt>
   <trkpt lat="42.25301" lon="69.63780000000001">
    <ele>539.0500000000001</ele>
   </trkpt>
   <trkpt lat="42.25283500155218" lon="69.63841000191547">
    <ele>539.2</ele>
   </trkpt>
   <trkpt lat="42.252660000000006" lon="69.63902">
    <ele>539.5699999999999</ele>
   </trkpt>
   <trkpt lat="42.252570000000006" lon="69.63924">
    <ele>539.58</ele>
   </trkpt>
   <trkpt lat="42.25244" lon="69.63944000000001">
    <ele>539.37</ele>
   </trkpt>
   <trkpt lat="42.25233" lon="69.63956">
    <ele>538.76</ele>
   </trkpt>
   <trkpt lat="42.25168" lon="69.64013">
    <ele>537.81</ele>
   </trkpt>
   <trkpt lat="42.25155" lon="69.64022">
    <ele>537.73</ele>
   </trkpt>
   <trkpt lat="42.251380000000005" lon="69.64030000000001">
    <ele>537.73</ele>
   </trkpt>
   <trkpt lat="42.25124" lon="69.64033">
    <ele>537.84</ele>
   </trkpt>
   <trkpt lat="42.25061" lon="69.6404">
    <ele>538.6899999999999</ele>
   </trkpt>
   <trkpt lat="42.249960000059836" lon="69.64048500087219">
    <ele>539.3</ele>
   </trkpt>
   <trkpt lat="42.24931" lon="69.64057000000001">
    <ele>540.6</ele>
   </trkpt>
   <trkpt lat="42.249010000000006" lon="69.64055">
    <ele>541.62</ele>
   </trkpt>
   <trkpt lat="42.24866" lon="69.64048000000001">
    <ele>541.23</ele>
   </trkpt>
   <trkpt lat="42.24784000069873" lon="69.64024999103356">
    <ele>540.76</ele>
   </trkpt>
   <trkpt lat="42.2470200009379" lon="69.6400199880467">
    <ele>541.42</ele>
   </trkpt>
   <trkpt lat="42.2462000007176" lon="69.63978999103918">
    <ele>541.64</ele>
   </trkpt>
   <trkpt lat="42.245380000000004" lon="69.63956">
    <ele>541.85</ele>
   </trkpt>
   <trkpt lat="42.24457" lon="69.63931000000001">
    <ele>542.0400000000001</ele>
   </trkpt>
   <trkpt lat="42.24414500032608" lon="69.6391049986883">
    <ele>542.63</ele>
   </trkpt>
   <trkpt lat="42.24372" lon="69.6389">
    <ele>542.7700000000001</ele>
   </trkpt>
   <trkpt lat="42.24311333449446" lon="69.63852999286753">
    <ele>543.1600000000001</ele>
   </trkpt>
   <trkpt lat="42.242506667799745" lon="69.63815999285052">
    <ele>543.49</ele>
   </trkpt>
   <trkpt lat="42.2419" lon="69.63779000000001">
    <ele>543.7700000000001</ele>
   </trkpt>
   <trkpt lat="42.24124750083962" lon="69.63753999225386">
    <ele>544.09</ele>
   </trkpt>
   <trkpt lat="42.24059500113634" lon="69.63728998967842">
    <ele>544.46</ele>
   </trkpt>
   <trkpt lat="42.23994250089018" lon="69.63703999227346">
    <ele>545.25</ele>
   </trkpt>
   <trkpt lat="42.239290000000004" lon="69.63679">
    <ele>545.6</ele>
   </trkpt>
   <trkpt lat="42.23867000047503" lon="69.63657332909926">
    <ele>545.98</ele>
   </trkpt>
   <trkpt lat="42.238050000542295" lon="69.63635666245615">
    <ele>546.4100000000001</ele>
   </trkpt>
   <trkpt lat="42.23743" lon="69.63614000000001">
    <ele>546.76</ele>
   </trkpt>
   <trkpt lat="42.237010000000005" lon="69.6361">
    <ele>546.7500000000001</ele>
   </trkpt>
   <trkpt lat="42.23691" lon="69.63613000000001">
    <ele>546.83</ele>
   </trkpt>
   <trkpt lat="42.23620400105008" lon="69.63588598908699">
    <ele>547.06</ele>
   </trkpt>
   <trkpt lat="42.235498001583" lon="69.63564198363345">
    <ele>547.1700000000001</ele>
   </trkpt>
   <trkpt lat="42.23479200159879" lon="69.63539798363917">
    <ele>547.5000000000001</ele>
   </trkpt>
   <trkpt lat="42.23408600109744" lon="69.63515398910387">
    <ele>547.86</ele>
   </trkpt>
   <trkpt lat="42.233380000000004" lon="69.63491">
    <ele>548.12</ele>
   </trkpt>
   <trkpt lat="42.233270000000005" lon="69.63493000000001">
    <ele>548.12</ele>
   </trkpt>
   <trkpt lat="42.233180000000004" lon="69.63525">
    <ele>548.71</ele>
   </trkpt>
   <trkpt lat="42.23303000000001" lon="69.63602">
    <ele>550.2</ele>
   </trkpt>
   <trkpt lat="42.232470000000006" lon="69.63584">
    <ele>552.07</ele>
   </trkpt>
   <trkpt lat="42.23209000000001" lon="69.63576">
    <ele>552.0500000000001</ele>
   </trkpt>
   <trkpt lat="42.23131" lon="69.63576">
    <ele>550.69</ele>
   </trkpt>
   <trkpt lat="42.2312" lon="69.63572">
    <ele>550.69</ele>
   </trkpt>
   <trkpt lat="42.231120000000004" lon="69.63564000000001">
    <ele>550.2600000000001</ele>
   </trkpt>
   <trkpt lat="42.23106000000001" lon="69.63552">
    <ele>550.0200000000001</ele>
   </trkpt>
   <trkpt lat="42.230970000000006" lon="69.63544">
    <ele>549.85</ele>
   </trkpt>
   <trkpt lat="42.23062" lon="69.63527">
    <ele>549.6800000000001</ele>
   </trkpt>
   <trkpt lat="42.23053" lon="69.63519000000001">
    <ele>549.84</ele>
   </trkpt>
   <trkpt lat="42.230450000000005" lon="69.63506000000001">
    <ele>549.86</ele>
   </trkpt>
   <trkpt lat="42.230180000000004" lon="69.63430000000001">
    <ele>550.5300000000001</ele>
   </trkpt>
   <trkpt lat="42.230160000000005" lon="69.63365">
    <ele>551.62</ele>
   </trkpt>
   <trkpt lat="42.22954" lon="69.63364">
    <ele>552.97</ele>
   </trkpt>
   <trkpt lat="42.2289450000795" lon="69.63361499976757">
    <ele>553.74</ele>
   </trkpt>
   <trkpt lat="42.228350000000006" lon="69.63359000000001">
    <ele>553.83</ele>
   </trkpt>
   <trkpt lat="42.22749000001526" lon="69.63349499870317">
    <ele>554.33</ele>
   </trkpt>
   <trkpt lat="42.22663" lon="69.63340000000001">
    <ele>554.9300000000001</ele>
   </trkpt>
   <trkpt lat="42.22596333332241" lon="69.63339666659621">
    <ele>556.22</ele>
   </trkpt>
   <trkpt lat="42.22529666664473" lon="69.63339333326282">
    <ele>556.71</ele>
   </trkpt>
   <trkpt lat="42.224630000000005" lon="69.63339">
    <ele>556.01</ele>
   </trkpt>
   <trkpt lat="42.22414999995037" lon="69.63331499941823">
    <ele>554.3100000000001</ele>
   </trkpt>
   <trkpt lat="42.223670000000006" lon="69.63324">
    <ele>553.9000000000001</ele>
   </trkpt>
   <trkpt lat="42.22321500071575" lon="69.63287499747965">
    <ele>554.82</ele>
   </trkpt>
   <trkpt lat="42.22276" lon="69.63251000000001">
    <ele>554.6800000000001</ele>
   </trkpt>
   <trkpt lat="42.22204000000001" lon="69.63218">
    <ele>555.03</ele>
   </trkpt>
   <trkpt lat="42.22121000055176" lon="69.63199999053329">
    <ele>554.4</ele>
   </trkpt>
   <trkpt lat="42.22038000082206" lon="69.63181998579898">
    <ele>554.9300000000001</ele>
   </trkpt>
   <trkpt lat="42.21955000081095" lon="69.63163998579684">
    <ele>556.21</ele>
   </trkpt>
   <trkpt lat="42.218720000518445" lon="69.63145999052658">
    <ele>557.28</ele>
   </trkpt>
   <trkpt lat="42.217890000000004" lon="69.63128">
    <ele>557.0200000000001</ele>
   </trkpt>
   <trkpt lat="42.217029999954704" lon="69.63121499911">
    <ele>558.35</ele>
   </trkpt>
   <trkpt lat="42.216170000000005" lon="69.63115">
    <ele>562.1400000000001</ele>
   </trkpt>
   <trkpt lat="42.21551499998612" lon="69.6312050005727">
    <ele>562.9900000000001</ele>
   </trkpt>
   <trkpt lat="42.21486" lon="69.63126000000001">
    <ele>563.19</ele>
   </trkpt>
   <trkpt lat="42.21422500018448" lon="69.6310999984098">
    <ele>563.11</ele>
   </trkpt>
   <trkpt lat="42.21359" lon="69.63094000000001">
    <ele>560.79</ele>
   </trkpt>
   <trkpt lat="42.212880000147905" lon="69.63082999877824">
    <ele>560.07</ele>
   </trkpt>
   <trkpt lat="42.21217" lon="69.63072000000001">
    <ele>561.5300000000001</ele>
   </trkpt>
   <trkpt lat="42.21156333329731" lon="69.63072666679513">
    <ele>562.58</ele>
   </trkpt>
   <trkpt lat="42.210956666594235" lon="69.6307333334622">
    <ele>562.4200000000001</ele>
   </trkpt>
   <trkpt lat="42.210350000000005" lon="69.63074">
    <ele>561.21</ele>
   </trkpt>
   <trkpt lat="42.209800000169984" lon="69.63094000174279">
    <ele>561.1</ele>
   </trkpt>
   <trkpt lat="42.209250000000004" lon="69.63114">
    <ele>562.0500000000001</ele>
   </trkpt>
   <trkpt lat="42.20874500016628" lon="69.63134000160183">
    <ele>565.5300000000001</ele>
   </trkpt>
   <trkpt lat="42.20824" lon="69.63154">
    <ele>567.6</ele>
   </trkpt>
   <trkpt lat="42.20768499980383" lon="69.6315149997714">
    <ele>568.25</ele>
   </trkpt>
   <trkpt lat="42.20713000000001" lon="69.63149">
    <ele>568.4100000000001</ele>
   </trkpt>
   <trkpt lat="42.20633" lon="69.63148000000001">
    <ele>569.01</ele>
   </trkpt>
   <trkpt lat="42.20554000015901" lon="69.63155500092508">
    <ele>570.3100000000001</ele>
   </trkpt>
   <trkpt lat="42.204750000000004" lon="69.63163">
    <ele>569.8700000000001</ele>
   </trkpt>
   <trkpt lat="42.20385750005092" lon="69.6315649972451">
    <ele>569.46</ele>
   </trkpt>
   <trkpt lat="42.202965000065134" lon="69.63149999632667">
    <ele>570.07</ele>
   </trkpt>
   <trkpt lat="42.202072500042675" lon="69.6314349972446">
    <ele>570.72</ele>
   </trkpt>
   <trkpt lat="42.20118" lon="69.63137">
    <ele>569.96</ele>
   </trkpt>
   <trkpt lat="42.20033666672276" lon="69.63129666471002">
    <ele>571.2600000000001</ele>
   </trkpt>
   <trkpt lat="42.19949333339881" lon="69.63122333137754">
    <ele>570.84</ele>
   </trkpt>
   <trkpt lat="42.19865" lon="69.63115">
    <ele>569.33</ele>
   </trkpt>
   <trkpt lat="42.197920000218225" lon="69.63131500188346">
    <ele>569.47</ele>
   </trkpt>
   <trkpt lat="42.197190000000006" lon="69.63148000000001">
    <ele>570.37</ele>
   </trkpt>
   <trkpt lat="42.19637333337128" lon="69.63146999974201">
    <ele>571.0500000000001</ele>
   </trkpt>
   <trkpt lat="42.1955566667417" lon="69.63145999974245">
    <ele>571.35</ele>
   </trkpt>
   <trkpt lat="42.19474" lon="69.63145">
    <ele>572.19</ele>
   </trkpt>
   <trkpt lat="42.19402666670506" lon="69.63149333431015">
    <ele>573.46</ele>
   </trkpt>
   <trkpt lat="42.1933133333938" lon="69.63153666764214">
    <ele>574.6300000000001</ele>
   </trkpt>
   <trkpt lat="42.192600000000006" lon="69.63158">
    <ele>575.32</ele>
   </trkpt>
   <trkpt lat="42.192105000138184" lon="69.63151999954496">
    <ele>575.3000000000001</ele>
   </trkpt>
   <trkpt lat="42.191610000000004" lon="69.63146">
    <ele>575.1700000000001</ele>
   </trkpt>
   <trkpt lat="42.19099333355611" lon="69.63132666407984">
    <ele>575.1700000000001</ele>
   </trkpt>
   <trkpt lat="42.190376666957825" lon="69.63119333076133">
    <ele>575.38</ele>
   </trkpt>
   <trkpt lat="42.18976000000001" lon="69.63106">
    <ele>575.7500000000001</ele>
   </trkpt>
   <trkpt lat="42.189875001865204" lon="69.63171499882101">
    <ele>574.8100000000001</ele>
   </trkpt>
   <trkpt lat="42.18999" lon="69.63237000000001">
    <ele>574.2400000000001</ele>
   </trkpt>
   <trkpt lat="42.19022500211413" lon="69.633069997357">
    <ele>573.5100000000001</ele>
   </trkpt>
   <trkpt lat="42.19046" lon="69.63377000000001">
    <ele>573.25</ele>
   </trkpt>
   <trkpt lat="42.190580000000004" lon="69.63442">
    <ele>572.7500000000001</ele>
   </trkpt>
   <trkpt lat="42.190580000000004" lon="69.63496">
    <ele>572.69</ele>
   </trkpt>
   <trkpt lat="42.190740000000005" lon="69.63549">
    <ele>573.11</ele>
   </trkpt>
   <trkpt lat="42.190720000000006" lon="69.63566">
    <ele>573.11</ele>
   </trkpt>
   <trkpt lat="42.18997000006021" lon="69.63570000047177">
    <ele>575.6300000000001</ele>
   </trkpt>
   <trkpt lat="42.189220000000006" lon="69.63574000000001">
    <ele>577.6300000000001</ele>
   </trkpt>
   <trkpt lat="42.188550000000006" lon="69.63549">
    <ele>579.67</ele>
   </trkpt>
   <trkpt lat="42.18807" lon="69.63559000000001">
    <ele>579.67</ele>
   </trkpt>
   <trkpt lat="42.18762" lon="69.63615">
    <ele>579.67</ele>
   </trkpt>
   <trkpt lat="42.18686" lon="69.63652">
    <ele>587.48</ele>
   </trkpt>
   <trkpt lat="42.186240000000005" lon="69.63642">
    <ele>587.48</ele>
   </trkpt>
   <trkpt lat="42.18562" lon="69.63603">
    <ele>587.48</ele>
   </trkpt>
   <trkpt lat="42.185410000000005" lon="69.63587000000001">
    <ele>587.48</ele>
   </trkpt>
   <trkpt lat="42.18527" lon="69.63621">
    <ele>590.1500000000001</ele>
   </trkpt>
   <trkpt lat="42.18517000000001" lon="69.63624">
    <ele>589.8800000000001</ele>
   </trkpt>
   <trkpt lat="42.18493" lon="69.63625">
    <ele>591.08</ele>
   </trkpt>
   <trkpt lat="42.184810000000006" lon="69.63629">
    <ele>590.8800000000001</ele>
   </trkpt>
   <trkpt lat="42.18425999999223" lon="69.63637000070112">
    <ele>587.8100000000001</ele>
   </trkpt>
   <trkpt lat="42.183710000000005" lon="69.63645000000001">
    <ele>584.2700000000001</ele>
   </trkpt>
   <trkpt lat="42.183550000000004" lon="69.63646">
    <ele>584.32</ele>
   </trkpt>
   <trkpt lat="42.183310000000006" lon="69.63600000000001">
    <ele>582.6600000000001</ele>
   </trkpt>
   <trkpt lat="42.18325" lon="69.63607">
    <ele>582.6600000000001</ele>
   </trkpt>
   <trkpt lat="42.18244000000001" lon="69.63655">
    <ele>582.6600000000001</ele>
   </trkpt>
   <trkpt lat="42.18171" lon="69.63715">
    <ele>583.99</ele>
   </trkpt>
   <trkpt lat="42.180960000000006" lon="69.63732">
    <ele>583.99</ele>
   </trkpt>
   <trkpt lat="42.18045500005174" lon="69.63749000138253">
    <ele>584.04</ele>
   </trkpt>
   <trkpt lat="42.179950000000005" lon="69.63766000000001">
    <ele>584.57</ele>
   </trkpt>
   <trkpt lat="42.17950999997914" lon="69.63751999899215">
    <ele>586.0300000000001</ele>
   </trkpt>
   <trkpt lat="42.17907" lon="69.63738000000001">
    <ele>588.92</ele>
   </trkpt>
   <trkpt lat="42.178445000097234" lon="69.63725499877043">
    <ele>590.45</ele>
   </trkpt>
   <trkpt lat="42.177820000000004" lon="69.63713">
    <ele>591.0500000000001</ele>
   </trkpt>
   <trkpt lat="42.17723" lon="69.6371">
    <ele>589.23</ele>
   </trkpt>
   <trkpt lat="42.176590000000004" lon="69.63768">
    <ele>587.08</ele>
   </trkpt>
   <trkpt lat="42.176080000000006" lon="69.63792000000001">
    <ele>589.4200000000001</ele>
   </trkpt>
   <trkpt lat="42.175380000000004" lon="69.63796">
    <ele>593.1800000000001</ele>
   </trkpt>
   <trkpt lat="42.17490499989135" lon="69.63808500098527">
    <ele>595.28</ele>
   </trkpt>
   <trkpt lat="42.17443" lon="69.63821">
    <ele>593.92</ele>
   </trkpt>
   <trkpt lat="42.17383999990238" lon="69.63823500023747">
    <ele>592.75</ele>
   </trkpt>
   <trkpt lat="42.17325" lon="69.63826">
    <ele>593.13</ele>
   </trkpt>
   <trkpt lat="42.17266" lon="69.63820000000001">
    <ele>593.1800000000001</ele>
   </trkpt>
   <trkpt lat="42.172149999952545" lon="69.63807999900655">
    <ele>594.1899999999999</ele>
   </trkpt>
   <trkpt lat="42.171640000000004" lon="69.63796">
    <ele>597.2400000000001</ele>
   </trkpt>
   <trkpt lat="42.17128" lon="69.63765000000001">
    <ele>597.8100000000001</ele>
   </trkpt>
   <trkpt lat="42.170680000000004" lon="69.63754">
    <ele>596.22</ele>
   </trkpt>
   <trkpt lat="42.169940000000004" lon="69.63725000000001">
    <ele>591.36</ele>
   </trkpt>
   <trkpt lat="42.169355000397175" lon="69.63756500293128">
    <ele>590.26</ele>
   </trkpt>
   <trkpt lat="42.16877" lon="69.63788000000001">
    <ele>591.11</ele>
   </trkpt>
   <trkpt lat="42.168305000070085" lon="69.63804500122995">
    <ele>591.69</ele>
   </trkpt>
   <trkpt lat="42.167840000000005" lon="69.63821">
    <ele>592.16</ele>
   </trkpt>
   <trkpt lat="42.167260000000006" lon="69.63848">
    <ele>592.6700000000001</ele>
   </trkpt>
   <trkpt lat="42.16673" lon="69.63886000000001">
    <ele>592.57</ele>
   </trkpt>
   <trkpt lat="42.166030000000006" lon="69.63924">
    <ele>594.6400000000001</ele>
   </trkpt>
   <trkpt lat="42.16531500186401" lon="69.63991500773649">
    <ele>596.9100000000001</ele>
   </trkpt>
   <trkpt lat="42.1646" lon="69.64059">
    <ele>598.7300000000001</ele>
   </trkpt>
   <trkpt lat="42.16420000158164" lon="69.63997499601861">
    <ele>600.6800000000001</ele>
   </trkpt>
   <trkpt lat="42.1638" lon="69.63936000000001">
    <ele>604.7800000000001</ele>
   </trkpt>
   <trkpt lat="42.16368000000001" lon="69.63923000000001">
    <ele>606.1899999999999</ele>
   </trkpt>
   <trkpt lat="42.163610000000006" lon="69.63924">
    <ele>606.3900000000001</ele>
   </trkpt>
   <trkpt lat="42.162950005874194" lon="69.63976002711813">
    <ele>604.6600000000001</ele>
   </trkpt>
   <trkpt lat="42.16229000940005" lon="69.64028004338725">
    <ele>606.14</ele>
   </trkpt>
   <trkpt lat="42.161630010577696" lon="69.6408000488078">
    <ele>608.24</ele>
   </trkpt>
   <trkpt lat="42.16097000940722" lon="69.64132004338022">
    <ele>610.0699999999999</ele>
   </trkpt>
   <trkpt lat="42.16031000588874" lon="69.64184002710493">
    <ele>610.16</ele>
   </trkpt>
   <trkpt lat="42.159650000000006" lon="69.64236000000001">
    <ele>611.2700000000001</ele>
   </trkpt>
   <trkpt lat="42.15909666797683" lon="69.64275000682807">
    <ele>612.7800000000001</ele>
   </trkpt>
   <trkpt lat="42.15854333463283" lon="69.6431400068355">
    <ele>613.87</ele>
   </trkpt>
   <trkpt lat="42.157990000000005" lon="69.64353000000001">
    <ele>615.01</ele>
   </trkpt>
   <trkpt lat="42.15744000396303" lon="69.6442066784447">
    <ele>617.4300000000001</ele>
   </trkpt>
   <trkpt lat="42.15689000394992" lon="69.64488334512734">
    <ele>619.2700000000001</ele>
   </trkpt>
   <trkpt lat="42.15634" lon="69.64556">
    <ele>624.23</ele>
   </trkpt>
   <trkpt lat="42.15597" lon="69.64614">
    <ele>626.2800000000001</ele>
   </trkpt>
   <trkpt lat="42.15597" lon="69.64613">
    <ele>626.2500000000001</ele>
   </trkpt>
   <trkpt lat="42.15634" lon="69.64556">
    <ele>622.53</ele>
   </trkpt>
   <trkpt lat="42.15689000398913" lon="69.64488334507911">
    <ele>619.2700000000001</ele>
   </trkpt>
   <trkpt lat="42.15744000400224" lon="69.64420667839647">
    <ele>617.4300000000001</ele>
   </trkpt>
   <trkpt lat="42.157990000000005" lon="69.64353000000001">
    <ele>615.01</ele>
   </trkpt>
   <trkpt lat="42.15854333466478" lon="69.64314000681297">
    <ele>613.87</ele>
   </trkpt>
   <trkpt lat="42.159096668008786" lon="69.64275000680554">
    <ele>612.7800000000001</ele>
   </trkpt>
   <trkpt lat="42.159650000000006" lon="69.64236000000001">
    <ele>611.01</ele>
   </trkpt>
   <trkpt lat="42.16031000586639" lon="69.64184002712256">
    <ele>610.16</ele>
   </trkpt>
   <trkpt lat="42.160970009384876" lon="69.64132004339784">
    <ele>609.84</ele>
   </trkpt>
   <trkpt lat="42.16163001055533" lon="69.64080004882543">
    <ele>608.04</ele>
   </trkpt>
   <trkpt lat="42.1622900093777" lon="69.64028004340489">
    <ele>605.34</ele>
   </trkpt>
   <trkpt lat="42.162950005851826" lon="69.63976002713575">
    <ele>604.71</ele>
   </trkpt>
   <trkpt lat="42.163610000000006" lon="69.63924">
    <ele>606.1899999999999</ele>
   </trkpt>
   <trkpt lat="42.16368000000001" lon="69.63923000000001">
    <ele>605.58</ele>
   </trkpt>
   <trkpt lat="42.1638" lon="69.63936000000001">
    <ele>604.7800000000001</ele>
   </trkpt>
   <trkpt lat="42.164200001702845" lon="69.63997499620497">
    <ele>599.36</ele>
   </trkpt>
   <trkpt lat="42.1646" lon="69.64059">
    <ele>598.7300000000001</ele>
   </trkpt>
   <trkpt lat="42.165315002092626" lon="69.63991500752068">
    <ele>596.46</ele>
   </trkpt>
   <trkpt lat="42.166030000000006" lon="69.63924">
    <ele>593.83</ele>
   </trkpt>
   <trkpt lat="42.16673" lon="69.63886000000001">
    <ele>592.57</ele>
   </trkpt>
   <trkpt lat="42.167260000000006" lon="69.63848">
    <ele>592.6700000000001</ele>
   </trkpt>
   <trkpt lat="42.167840000000005" lon="69.63821">
    <ele>592.0200000000001</ele>
   </trkpt>
   <trkpt lat="42.168305000166335" lon="69.63804500119582">
    <ele>591.48</ele>
   </trkpt>
   <trkpt lat="42.16877" lon="69.63788000000001">
    <ele>591.11</ele>
   </trkpt>
   <trkpt lat="42.169355000464506" lon="69.63756500289503">
    <ele>590.11</ele>
   </trkpt>
   <trkpt lat="42.169940000000004" lon="69.63725000000001">
    <ele>592.0600000000001</ele>
   </trkpt>
   <trkpt lat="42.170680000000004" lon="69.63754">
    <ele>596.22</ele>
   </trkpt>
   <trkpt lat="42.17128" lon="69.63765000000001">
    <ele>597.86</ele>
   </trkpt>
   <trkpt lat="42.171640000000004" lon="69.63796">
    <ele>595.89</ele>
   </trkpt>
   <trkpt lat="42.1721500001725" lon="69.6380799990583">
    <ele>593.8100000000001</ele>
   </trkpt>
   <trkpt lat="42.17266" lon="69.63820000000001">
    <ele>593.1800000000001</ele>
   </trkpt>
   <trkpt lat="42.17325" lon="69.63826">
    <ele>593.13</ele>
   </trkpt>
   <trkpt lat="42.17384000010304" lon="69.63823500022897">
    <ele>592.83</ele>
   </trkpt>
   <trkpt lat="42.17443" lon="69.63821">
    <ele>594.32</ele>
   </trkpt>
   <trkpt lat="42.17490500024433" lon="69.63808500089237">
    <ele>595.1200000000001</ele>
   </trkpt>
   <trkpt lat="42.175380000000004" lon="69.63796">
    <ele>591.62</ele>
   </trkpt>
   <trkpt lat="42.176080000000006" lon="69.63792000000001">
    <ele>589.4200000000001</ele>
   </trkpt>
   <trkpt lat="42.176590000000004" lon="69.63768">
    <ele>586.8000000000001</ele>
   </trkpt>
   <trkpt lat="42.17723" lon="69.6371">
    <ele>589.23</ele>
   </trkpt>
   <trkpt lat="42.177820000000004" lon="69.63713">
    <ele>591.1200000000001</ele>
   </trkpt>
   <trkpt lat="42.17844500003848" lon="69.63725499875868">
    <ele>590.45</ele>
   </trkpt>
   <trkpt lat="42.17907" lon="69.63738000000001">
    <ele>588.19</ele>
   </trkpt>
   <trkpt lat="42.17951000019108" lon="69.63751999905955">
    <ele>586.0300000000001</ele>
   </trkpt>
   <trkpt lat="42.179950000000005" lon="69.63766000000001">
    <ele>584.35</ele>
   </trkpt>
   <trkpt lat="42.180455000199245" lon="69.63749000133289">
    <ele>584.04</ele>
   </trkpt>
   <trkpt lat="42.180960000000006" lon="69.63732">
    <ele>583.99</ele>
   </trkpt>
   <trkpt lat="42.18171" lon="69.63715">
    <ele>583.99</ele>
   </trkpt>
   <trkpt lat="42.18244000000001" lon="69.63655">
    <ele>583.1200000000001</ele>
   </trkpt>
   <trkpt lat="42.183240000000005" lon="69.63607">
    <ele>583.1200000000001</ele>
   </trkpt>
   <trkpt lat="42.18341" lon="69.63652">
    <ele>585.6800000000001</ele>
   </trkpt>
   <trkpt lat="42.184089999885316" lon="69.6364400008772">
    <ele>587.11</ele>
   </trkpt>
   <trkpt lat="42.18477" lon="69.63636000000001">
    <ele>590.8500000000001</ele>
   </trkpt>
   <trkpt lat="42.185210000000005" lon="69.63628">
    <ele>589.9300000000001</ele>
   </trkpt>
   <trkpt lat="42.18538" lon="69.63585">
    <ele>581.45</ele>
   </trkpt>
   <trkpt lat="42.18562" lon="69.63603">
    <ele>581.45</ele>
   </trkpt>
   <trkpt lat="42.186240000000005" lon="69.63642">
    <ele>581.45</ele>
   </trkpt>
   <trkpt lat="42.18686" lon="69.63652">
    <ele>581.45</ele>
   </trkpt>
   <trkpt lat="42.18762" lon="69.63615">
    <ele>579.67</ele>
   </trkpt>
   <trkpt lat="42.18807" lon="69.63559000000001">
    <ele>579.67</ele>
   </trkpt>
   <trkpt lat="42.188550000000006" lon="69.63549">
    <ele>579.67</ele>
   </trkpt>
   <trkpt lat="42.189220000000006" lon="69.63574000000001">
    <ele>577.09</ele>
   </trkpt>
   <trkpt lat="42.189969999953696" lon="69.63570000047746">
    <ele>574.79</ele>
   </trkpt>
   <trkpt lat="42.190720000000006" lon="69.63566">
    <ele>573.11</ele>
   </trkpt>
   <trkpt lat="42.190740000000005" lon="69.63549">
    <ele>572.9200000000001</ele>
   </trkpt>
   <trkpt lat="42.190580000000004" lon="69.63496">
    <ele>572.69</ele>
   </trkpt>
   <trkpt lat="42.190580000000004" lon="69.63442">
    <ele>572.8000000000001</ele>
   </trkpt>
   <trkpt lat="42.19046" lon="69.63377000000001">
    <ele>573.25</ele>
   </trkpt>
   <trkpt lat="42.19022500214137" lon="69.63306999743814">
    <ele>573.5100000000001</ele>
   </trkpt>
   <trkpt lat="42.18999" lon="69.63237000000001">
    <ele>574.2400000000001</ele>
   </trkpt>
   <trkpt lat="42.18987500186076" lon="69.63171499879572">
    <ele>574.98</ele>
   </trkpt>
   <trkpt lat="42.18976000000001" lon="69.63106">
    <ele>575.7500000000001</ele>
   </trkpt>
   <trkpt lat="42.190376666752684" lon="69.63119333071697">
    <ele>575.38</ele>
   </trkpt>
   <trkpt lat="42.19099333335099" lon="69.63132666403548">
    <ele>575.1700000000001</ele>
   </trkpt>
   <trkpt lat="42.191610000000004" lon="69.63146">
    <ele>575.1700000000001</ele>
   </trkpt>
   <trkpt lat="42.19210499989309" lon="69.63151999951526">
    <ele>575.3100000000001</ele>
   </trkpt>
   <trkpt lat="42.192600000000006" lon="69.63158">
    <ele>575.32</ele>
   </trkpt>
   <trkpt lat="42.193313333327566" lon="69.63153666764616">
    <ele>574.6300000000001</ele>
   </trkpt>
   <trkpt lat="42.194026666638806" lon="69.63149333431419">
    <ele>572.74</ele>
   </trkpt>
   <trkpt lat="42.19474" lon="69.63145">
    <ele>572.19</ele>
   </trkpt>
   <trkpt lat="42.19555666663045" lon="69.63145999974111">
    <ele>571.35</ele>
   </trkpt>
   <trkpt lat="42.19637333326004" lon="69.63146999974066">
    <ele>571.0500000000001</ele>
   </trkpt>
   <trkpt lat="42.197190000000006" lon="69.63148000000001">
    <ele>570.37</ele>
   </trkpt>
   <trkpt lat="42.19792000001822" lon="69.63131500192867">
    <ele>569.47</ele>
   </trkpt>
   <trkpt lat="42.19865" lon="69.63115">
    <ele>569.33</ele>
   </trkpt>
   <trkpt lat="42.199493333370654" lon="69.63122333137508">
    <ele>571.06</ele>
   </trkpt>
   <trkpt lat="42.20033666669459" lon="69.63129666470756">
    <ele>571.2600000000001</ele>
   </trkpt>
   <trkpt lat="42.20118" lon="69.63137">
    <ele>569.96</ele>
   </trkpt>
   <trkpt lat="42.20207250005917" lon="69.63143499724582">
    <ele>570.8000000000001</ele>
   </trkpt>
   <trkpt lat="42.20296500008163" lon="69.63149999632786">
    <ele>570.07</ele>
   </trkpt>
   <trkpt lat="42.203857500067414" lon="69.6315649972463">
    <ele>569.46</ele>
   </trkpt>
   <trkpt lat="42.204750000000004" lon="69.63163">
    <ele>569.8700000000001</ele>
   </trkpt>
   <trkpt lat="42.20553999988985" lon="69.63155500095064">
    <ele>570.16</ele>
   </trkpt>
   <trkpt lat="42.20633" lon="69.63148000000001">
    <ele>569.01</ele>
   </trkpt>
   <trkpt lat="42.20713000000001" lon="69.63149">
    <ele>568.4100000000001</ele>
   </trkpt>
   <trkpt lat="42.207685000201586" lon="69.63151499978932">
    <ele>568.25</ele>
   </trkpt>
   <trkpt lat="42.20824" lon="69.63154">
    <ele>567.3000000000001</ele>
   </trkpt>
   <trkpt lat="42.20874500018113" lon="69.63134000159594">
    <ele>564.09</ele>
   </trkpt>
   <trkpt lat="42.209250000000004" lon="69.63114">
    <ele>561.91</ele>
   </trkpt>
   <trkpt lat="42.20980000017743" lon="69.63094000174007">
    <ele>561.1</ele>
   </trkpt>
   <trkpt lat="42.210350000000005" lon="69.63074">
    <ele>561.4</ele>
   </trkpt>
   <trkpt lat="42.21095666670347" lon="69.630733333461">
    <ele>562.52</ele>
   </trkpt>
   <trkpt lat="42.21156333340654" lon="69.63072666679393">
    <ele>562.5</ele>
   </trkpt>
   <trkpt lat="42.21217" lon="69.63072000000001">
    <ele>561.5300000000001</ele>
   </trkpt>
   <trkpt lat="42.212879999957195" lon="69.6308299987487">
    <ele>560.07</ele>
   </trkpt>
   <trkpt lat="42.21359" lon="69.63094000000001">
    <ele>561.15</ele>
   </trkpt>
   <trkpt lat="42.21422500003788" lon="69.63109999837285">
    <ele>563.11</ele>
   </trkpt>
   <trkpt lat="42.21486" lon="69.63126000000001">
    <ele>563.08</ele>
   </trkpt>
   <trkpt lat="42.215515000040156" lon="69.63120500056817">
    <ele>562.9900000000001</ele>
   </trkpt>
   <trkpt lat="42.216170000000005" lon="69.63115">
    <ele>561.6600000000001</ele>
   </trkpt>
   <trkpt lat="42.21703000008199" lon="69.63121499911962">
    <ele>558.35</ele>
   </trkpt>
   <trkpt lat="42.217890000000004" lon="69.63128">
    <ele>557.0200000000001</ele>
   </trkpt>
   <trkpt lat="42.21872000057391" lon="69.63145999053862">
    <ele>557.28</ele>
   </trkpt>
   <trkpt lat="42.21955000086643" lon="69.63163998580887">
    <ele>555.96</ele>
   </trkpt>
   <trkpt lat="42.22038000087754" lon="69.631819985811">
    <ele>554.6800000000001</ele>
   </trkpt>
   <trkpt lat="42.22121000060723" lon="69.63199999054532">
    <ele>554.44</ele>
   </trkpt>
   <trkpt lat="42.22204000000001" lon="69.63218">
    <ele>555.03</ele>
   </trkpt>
   <trkpt lat="42.22276" lon="69.63251000000001">
    <ele>554.9200000000001</ele>
   </trkpt>
   <trkpt lat="42.22321500044141" lon="69.63287499725958">
    <ele>554.82</ele>
   </trkpt>
   <trkpt lat="42.223670000000006" lon="69.63324">
    <ele>553.8700000000001</ele>
   </trkpt>
   <trkpt lat="42.22415000009849" lon="69.63331499944137">
    <ele>554.5400000000001</ele>
   </trkpt>
   <trkpt lat="42.224630000000005" lon="69.63339">
    <ele>556.01</ele>
   </trkpt>
   <trkpt lat="42.22529666667778" lon="69.633393333263">
    <ele>556.72</ele>
   </trkpt>
   <trkpt lat="42.22596333335546" lon="69.63339666659638">
    <ele>556.22</ele>
   </trkpt>
   <trkpt lat="42.22663" lon="69.63340000000001">
    <ele>554.79</ele>
   </trkpt>
   <trkpt lat="42.227490000063135" lon="69.63349499870844">
    <ele>554.33</ele>
   </trkpt>
   <trkpt lat="42.228350000000006" lon="69.63359000000001">
    <ele>553.83</ele>
   </trkpt>
   <trkpt lat="42.228944999925936" lon="69.63361499976114">
    <ele>553.67</ele>
   </trkpt>
   <trkpt lat="42.22954" lon="69.63364">
    <ele>552.97</ele>
   </trkpt>
   <trkpt lat="42.230160000000005" lon="69.63365">
    <ele>551.62</ele>
   </trkpt>
   <trkpt lat="42.230180000000004" lon="69.63430000000001">
    <ele>550.5300000000001</ele>
   </trkpt>
   <trkpt lat="42.230450000000005" lon="69.63506000000001">
    <ele>549.84</ele>
   </trkpt>
   <trkpt lat="42.23053" lon="69.63519000000001">
    <ele>549.84</ele>
   </trkpt>
   <trkpt lat="42.23062" lon="69.63527">
    <ele>549.6800000000001</ele>
   </trkpt>
   <trkpt lat="42.230970000000006" lon="69.63544">
    <ele>549.85</ele>
   </trkpt>
   <trkpt lat="42.23106000000001" lon="69.63552">
    <ele>550.2600000000001</ele>
   </trkpt>
   <trkpt lat="42.231120000000004" lon="69.63564000000001">
    <ele>550.69</ele>
   </trkpt>
   <trkpt lat="42.2312" lon="69.63572">
    <ele>550.69</ele>
   </trkpt>
   <trkpt lat="42.23131" lon="69.63576">
    <ele>551.1700000000001</ele>
   </trkpt>
   <trkpt lat="42.23209000000001" lon="69.63576">
    <ele>552.13</ele>
   </trkpt>
   <trkpt lat="42.232470000000006" lon="69.63584">
    <ele>552.0200000000001</ele>
   </trkpt>
   <trkpt lat="42.23303000000001" lon="69.63602">
    <ele>550.2</ele>
   </trkpt>
   <trkpt lat="42.233180000000004" lon="69.63525">
    <ele>548.71</ele>
   </trkpt>
   <trkpt lat="42.233270000000005" lon="69.63493000000001">
    <ele>548.12</ele>
   </trkpt>
   <trkpt lat="42.233380000000004" lon="69.63491">
    <ele>548.12</ele>
   </trkpt>
   <trkpt lat="42.23408600101845" lon="69.63515398907657">
    <ele>547.86</ele>
   </trkpt>
   <trkpt lat="42.2347920015198" lon="69.63539798361188">
    <ele>547.5000000000001</ele>
   </trkpt>
   <trkpt lat="42.23549800150402" lon="69.63564198360616">
    <ele>547.1700000000001</ele>
   </trkpt>
   <trkpt lat="42.236204000971114" lon="69.63588598905969">
    <ele>547.06</ele>
   </trkpt>
   <trkpt lat="42.23691" lon="69.63613000000001">
    <ele>546.7500000000001</ele>
   </trkpt>
   <trkpt lat="42.237010000000005" lon="69.6361">
    <ele>546.71</ele>
   </trkpt>
   <trkpt lat="42.23743" lon="69.63614000000001">
    <ele>546.76</ele>
   </trkpt>
   <trkpt lat="42.23805000034049" lon="69.63635666238564">
    <ele>546.37</ele>
   </trkpt>
   <trkpt lat="42.23867000027323" lon="69.63657332902875">
    <ele>545.98</ele>
   </trkpt>
   <trkpt lat="42.239290000000004" lon="69.63679">
    <ele>545.6</ele>
   </trkpt>
   <trkpt lat="42.239942500789034" lon="69.63703999223469">
    <ele>544.8700000000001</ele>
   </trkpt>
   <trkpt lat="42.240595001035196" lon="69.63728998963965">
    <ele>544.46</ele>
   </trkpt>
   <trkpt lat="42.241247500738496" lon="69.6375399922151">
    <ele>544.09</ele>
   </trkpt>
   <trkpt lat="42.2419" lon="69.63779000000001">
    <ele>543.7700000000001</ele>
   </trkpt>
   <trkpt lat="42.24250666788384" lon="69.6381599929018">
    <ele>543.49</ele>
   </trkpt>
   <trkpt lat="42.24311333457854" lon="69.6385299929188">
    <ele>543.1600000000001</ele>
   </trkpt>
   <trkpt lat="42.24372" lon="69.6389">
    <ele>542.7700000000001</ele>
   </trkpt>
   <trkpt lat="42.244145000038976" lon="69.63910499854981">
    <ele>542.63</ele>
   </trkpt>
   <trkpt lat="42.24457" lon="69.63931000000001">
    <ele>542.0400000000001</ele>
   </trkpt>
   <trkpt lat="42.245380000000004" lon="69.63956">
    <ele>541.85</ele>
   </trkpt>
   <trkpt lat="42.2462000006798" lon="69.63978999102858">
    <ele>541.64</ele>
   </trkpt>
   <trkpt lat="42.24702000090013" lon="69.64001998803612">
    <ele>540.9900000000001</ele>
   </trkpt>
   <trkpt lat="42.24784000066095" lon="69.64024999102297">
    <ele>540.74</ele>
   </trkpt>
   <trkpt lat="42.24866" lon="69.64048000000001">
    <ele>541.44</ele>
   </trkpt>
   <trkpt lat="42.249010000000006" lon="69.64055">
    <ele>541.54</ele>
   </trkpt>
   <trkpt lat="42.24931" lon="69.64057000000001">
    <ele>540.6</ele>
   </trkpt>
   <trkpt lat="42.24996000000292" lon="69.64048500087964">
    <ele>539.3</ele>
   </trkpt>
   <trkpt lat="42.25061" lon="69.6404">
    <ele>538.6899999999999</ele>
   </trkpt>
   <trkpt lat="42.25124" lon="69.64033">
    <ele>537.84</ele>
   </trkpt>
   <trkpt lat="42.251380000000005" lon="69.64030000000001">
    <ele>537.73</ele>
   </trkpt>
   <trkpt lat="42.25155" lon="69.64022">
    <ele>537.73</ele>
   </trkpt>
   <trkpt lat="42.25168" lon="69.64013">
    <ele>537.81</ele>
   </trkpt>
   <trkpt lat="42.25233" lon="69.63956">
    <ele>539.37</ele>
   </trkpt>
   <trkpt lat="42.25244" lon="69.63944000000001">
    <ele>539.37</ele>
   </trkpt>
   <trkpt lat="42.252570000000006" lon="69.63924">
    <ele>539.61</ele>
   </trkpt>
   <trkpt lat="42.252660000000006" lon="69.63902">
    <ele>539.5699999999999</ele>
   </trkpt>
   <trkpt lat="42.2528350016801" lon="69.63841000146958">
    <ele>539.2</ele>
   </trkpt>
   <trkpt lat="42.25301" lon="69.63780000000001">
    <ele>539.0500000000001</ele>
   </trkpt>
   <trkpt lat="42.25309" lon="69.63764">
    <ele>539.0500000000001</ele>
   </trkpt>
   <trkpt lat="42.25318" lon="69.63755">
    <ele>539.0500000000001</ele>
   </trkpt>
   <trkpt lat="42.2533" lon="69.6375">
    <ele>539.0</ele>
   </trkpt>
   <trkpt lat="42.253420000000006" lon="69.6375">
    <ele>539.0</ele>
   </trkpt>
   <trkpt lat="42.253400000000006" lon="69.6375">
    <ele>539.0</ele>
   </trkpt>
   <trkpt lat="42.253620000000005" lon="69.63756000000001">
    <ele>539.0200000000001</ele>
   </trkpt>
   <trkpt lat="42.25379" lon="69.63769">
    <ele>539.13</ele>
   </trkpt>
   <trkpt lat="42.253870000000006" lon="69.63781">
    <ele>539.2300000000001</ele>
   </trkpt>
   <trkpt lat="42.253930000000004" lon="69.63798">
    <ele>539.3100000000001</ele>
   </trkpt>
   <trkpt lat="42.25408" lon="69.63872">
    <ele>539.48</ele>
   </trkpt>
   <trkpt lat="42.25424000336311" lon="69.63959999776564">
    <ele>539.85</ele>
   </trkpt>
   <trkpt lat="42.254400000000004" lon="69.64048000000001">
    <ele>540.09</ele>
   </trkpt>
   <trkpt lat="42.25449500170964" lon="69.64110999895668">
    <ele>540.61</ele>
   </trkpt>
   <trkpt lat="42.25459" lon="69.64174">
    <ele>540.79</ele>
   </trkpt>
   <trkpt lat="42.25461000000001" lon="69.64241000000001">
    <ele>541.37</ele>
   </trkpt>
   <trkpt lat="42.254720000000006" lon="69.64289000000001">
    <ele>541.86</ele>
   </trkpt>
   <trkpt lat="42.25484" lon="69.64311000000001">
    <ele>542.22</ele>
   </trkpt>
   <trkpt lat="42.255010000000006" lon="69.64322">
    <ele>542.48</ele>
   </trkpt>
   <trkpt lat="42.255750000000006" lon="69.64363">
    <ele>542.9300000000001</ele>
   </trkpt>
   <trkpt lat="42.25647" lon="69.64389">
    <ele>542.6800000000001</ele>
   </trkpt>
   <trkpt lat="42.25704500000818" lon="69.64398499912866">
    <ele>542.1100000000001</ele>
   </trkpt>
   <trkpt lat="42.25762" lon="69.64408">
    <ele>542.4300000000001</ele>
   </trkpt>
   <trkpt lat="42.2584976943117" lon="69.6442761210816">
    <ele>542.9000000000001</ele>
   </trkpt>
   <trkpt lat="42.25937538828927" lon="69.64447224762273">
    <ele>543.66</ele>
   </trkpt>
   <trkpt lat="42.26025308193268" lon="69.64466837962374">
    <ele>544.03</ele>
   </trkpt>
   <trkpt lat="42.26113077524193" lon="69.64486451708493">
    <ele>544.27</ele>
   </trkpt>
   <trkpt lat="42.26200846821698" lon="69.64506066000662">
    <ele>544.6700000000001</ele>
   </trkpt>
   <trkpt lat="42.26288616085783" lon="69.64525680838914">
    <ele>545.1700000000001</ele>
   </trkpt>
   <trkpt lat="42.263763853164455" lon="69.6454529622328">
    <ele>545.12</ele>
   </trkpt>
   <trkpt lat="42.264641545136826" lon="69.64564912153791">
    <ele>545.08</ele>
   </trkpt>
   <trkpt lat="42.26551923677493" lon="69.6458452863048">
    <ele>545.24</ele>
   </trkpt>
   <trkpt lat="42.26639692807874" lon="69.6460414565338">
    <ele>545.47</ele>
   </trkpt>
   <trkpt lat="42.26727461904825" lon="69.64623763222518">
    <ele>545.71</ele>
   </trkpt>
   <trkpt lat="42.26815230968344" lon="69.64643381337932">
    <ele>546.2800000000001</ele>
   </trkpt>
   <trkpt lat="42.26903" lon="69.64663">
    <ele>546.5500000000001</ele>
   </trkpt>
   <trkpt lat="42.26921" lon="69.64672">
    <ele>546.7500000000001</ele>
   </trkpt>
   <trkpt lat="42.269330000000004" lon="69.64684000000001">
    <ele>546.8100000000001</ele>
   </trkpt>
   <trkpt lat="42.26941" lon="69.64699">
    <ele>546.85</ele>
   </trkpt>
   <trkpt lat="42.269450000000006" lon="69.64714000000001">
    <ele>546.88</ele>
   </trkpt>
   <trkpt lat="42.26946" lon="69.64733000000001">
    <ele>546.88</ele>
   </trkpt>
   <trkpt lat="42.26931629073571" lon="69.64848751848334">
    <ele>547.1100000000001</ele>
   </trkpt>
   <trkpt lat="42.269172569832165" lon="69.64964503168858">
    <ele>547.84</ele>
   </trkpt>
   <trkpt lat="42.26902883728946" lon="69.65080253961534">
    <ele>548.6600000000001</ele>
   </trkpt>
   <trkpt lat="42.268885093107734" lon="69.65196004226325">
    <ele>549.5500000000001</ele>
   </trkpt>
   <trkpt lat="42.26874133728709" lon="69.65311753963194">
    <ele>549.7200000000001</ele>
   </trkpt>
   <trkpt lat="42.26859756982763" lon="69.65427503172101">
    <ele>550.6500000000001</ele>
   </trkpt>
   <trkpt lat="42.26845379072945" lon="69.65543251853012">
    <ele>550.88</ele>
   </trkpt>
   <trkpt lat="42.26831000000001" lon="69.65659000000001">
    <ele>551.8100000000001</ele>
   </trkpt>
   <trkpt lat="42.26900500010842" lon="69.65672999846113">
    <ele>552.19</ele>
   </trkpt>
   <trkpt lat="42.2697" lon="69.65687000000001">
    <ele>552.91</ele>
   </trkpt>
   <trkpt lat="42.270290000237466" lon="69.6570049987726">
    <ele>553.1600000000001</ele>
   </trkpt>
   <trkpt lat="42.270880000000005" lon="69.65714000000001">
    <ele>552.9000000000001</ele>
   </trkpt>
   <trkpt lat="42.271485000400006" lon="69.65745499696033">
    <ele>552.7</ele>
   </trkpt>
   <trkpt lat="42.272090000000006" lon="69.65777">
    <ele>552.4100000000001</ele>
   </trkpt>
   <trkpt lat="42.27268668915268" lon="69.65857438351838">
    <ele>552.2900000000001</ele>
   </trkpt>
   <trkpt lat="42.27328337268438" lon="69.65937878226724">
    <ele>552.48</ele>
   </trkpt>
   <trkpt lat="42.27388005059491" lon="69.66018319624699">
    <ele>553.42</ele>
   </trkpt>
   <trkpt lat="42.27447672288401" lon="69.66098762545812">
    <ele>555.11</ele>
   </trkpt>
   <trkpt lat="42.27507338955148" lon="69.6617920699011">
    <ele>556.72</ele>
   </trkpt>
   <trkpt lat="42.27567005059708" lon="69.66259652957638">
    <ele>557.5</ele>
   </trkpt>
   <trkpt lat="42.27626670602061" lon="69.66340100448443">
    <ele>558.7</ele>
   </trkpt>
   <trkpt lat="42.276863355821824" lon="69.6642054946257">
    <ele>560.3</ele>
   </trkpt>
   <trkpt lat="42.277460000000005" lon="69.66501000000001">
    <ele>562.7800000000001</ele>
   </trkpt>
   <trkpt lat="42.277930000000005" lon="69.66535">
    <ele>563.2900000000001</ele>
   </trkpt>
   <trkpt lat="42.27826" lon="69.66555000000001">
    <ele>563.4</ele>
   </trkpt>
   <trkpt lat="42.27843" lon="69.66563000000001">
    <ele>563.27</ele>
   </trkpt>
   <trkpt lat="42.27877" lon="69.66573000000001">
    <ele>563.1700000000001</ele>
   </trkpt>
   <trkpt lat="42.278850000000006" lon="69.66583">
    <ele>563.0200000000001</ele>
   </trkpt>
   <trkpt lat="42.278870000000005" lon="69.66596000000001">
    <ele>563.06</ele>
   </trkpt>
   <trkpt lat="42.27901000000001" lon="69.66614">
    <ele>563.06</ele>
   </trkpt>
   <trkpt lat="42.2792" lon="69.66632">
    <ele>562.98</ele>
   </trkpt>
   <trkpt lat="42.27971" lon="69.66677">
    <ele>562.25</ele>
   </trkpt>
   <trkpt lat="42.2804825048149" lon="69.66737747766065">
    <ele>563.1</ele>
   </trkpt>
   <trkpt lat="42.28125500642381" lon="69.66798497021675">
    <ele>565.6800000000001</ele>
   </trkpt>
   <trkpt lat="42.28202750482661" lon="69.66859247766904">
    <ele>567.9399999999999</ele>
   </trkpt>
   <trkpt lat="42.2828" lon="69.6692">
    <ele>568.8700000000001</ele>
   </trkpt>
   <trkpt lat="42.282920000000004" lon="69.66935000000001">
    <ele>569.2400000000001</ele>
   </trkpt>
   <trkpt lat="42.283260000000006" lon="69.6701">
    <ele>569.45</ele>
   </trkpt>
   <trkpt lat="42.28334" lon="69.67018">
    <ele>569.44</ele>
   </trkpt>
   <trkpt lat="42.283460000000005" lon="69.67024">
    <ele>569.44</ele>
   </trkpt>
   <trkpt lat="42.28354" lon="69.67023">
    <ele>569.44</ele>
   </trkpt>
   <trkpt lat="42.283550000000005" lon="69.67023">
    <ele>569.44</ele>
   </trkpt>
   <trkpt lat="42.28360000000001" lon="69.67023">
    <ele>569.44</ele>
   </trkpt>
   <trkpt lat="42.28372" lon="69.67015">
    <ele>569.35</ele>
   </trkpt>
   <trkpt lat="42.28381" lon="69.67001">
    <ele>569.35</ele>
   </trkpt>
   <trkpt lat="42.28399" lon="69.66943">
    <ele>569.03</ele>
   </trkpt>
   <trkpt lat="42.28408" lon="69.66927000000001">
    <ele>568.8199999999999</ele>
   </trkpt>
   <trkpt lat="42.28423" lon="69.66906">
    <ele>568.34</ele>
   </trkpt>
   <trkpt lat="42.284890002214716" lon="69.66834500749681">
    <ele>566.0200000000001</ele>
   </trkpt>
   <trkpt lat="42.28555" lon="69.66763">
    <ele>563.4200000000001</ele>
   </trkpt>
   <trkpt lat="42.285740000000004" lon="69.66737">
    <ele>563.4200000000001</ele>
   </trkpt>
   <trkpt lat="42.285970000000006" lon="69.66697">
    <ele>562.2600000000001</ele>
   </trkpt>
   <trkpt lat="42.28622" lon="69.66628">
    <ele>560.58</ele>
   </trkpt>
   <trkpt lat="42.2864250025225" lon="69.66551500256249">
    <ele>559.37</ele>
   </trkpt>
   <trkpt lat="42.28663" lon="69.66475000000001">
    <ele>559.0500000000001</ele>
   </trkpt>
   <trkpt lat="42.286730000000006" lon="69.66445">
    <ele>559.03</ele>
   </trkpt>
   <trkpt lat="42.28683" lon="69.66426">
    <ele>559.06</ele>
   </trkpt>
   <trkpt lat="42.287200000000006" lon="69.66373">
    <ele>559.2</ele>
   </trkpt>
   <trkpt lat="42.287776670300474" lon="69.66308001194194">
    <ele>559.2</ele>
   </trkpt>
   <trkpt lat="42.288353336930506" lon="69.66243001198343">
    <ele>559.08</ele>
   </trkpt>
   <trkpt lat="42.28893" lon="69.66178000000001">
    <ele>559.12</ele>
   </trkpt>
   <trkpt lat="42.28916" lon="69.66146">
    <ele>559.1700000000001</ele>
   </trkpt>
   <trkpt lat="42.289620000000006" lon="69.66058000000001">
    <ele>559.2900000000001</ele>
   </trkpt>
   <trkpt lat="42.289820000000006" lon="69.66007">
    <ele>558.76</ele>
   </trkpt>
   <trkpt lat="42.29009500904302" lon="69.65923751086889">
    <ele>558.5300000000001</ele>
   </trkpt>
   <trkpt lat="42.29037001206511" lon="69.65840501446857">
    <ele>558.1700000000001</ele>
   </trkpt>
   <trkpt lat="42.290645009066175" lon="69.65757251079906">
    <ele>557.97</ele>
   </trkpt>
   <trkpt lat="42.29092000000001" lon="69.65674">
    <ele>557.73</ele>
   </trkpt>
   <trkpt lat="42.29112000000001" lon="69.65621">
    <ele>557.22</ele>
   </trkpt>
   <trkpt lat="42.291630000000005" lon="69.65543000000001">
    <ele>556.69</ele>
   </trkpt>
   <trkpt lat="42.29202" lon="69.65501">
    <ele>555.7700000000001</ele>
   </trkpt>
   <trkpt lat="42.292350000000006" lon="69.65476000000001">
    <ele>555.13</ele>
   </trkpt>
   <trkpt lat="42.29310222717625" lon="69.65438225832163">
    <ele>553.11</ele>
   </trkpt>
   <trkpt lat="42.293854453112814" lon="69.65400450762009">
    <ele>550.97</ele>
   </trkpt>
   <trkpt lat="42.29460667780965" lon="69.65362674789495">
    <ele>548.8900000000001</ele>
   </trkpt>
   <trkpt lat="42.295358901266695" lon="69.65324897914574">
    <ele>547.62</ele>
   </trkpt>
   <trkpt lat="42.296111123483875" lon="69.65287120137207">
    <ele>546.9200000000001</ele>
   </trkpt>
   <trkpt lat="42.296863344461144" lon="69.65249341457346">
    <ele>545.49</ele>
   </trkpt>
   <trkpt lat="42.297615564198416" lon="69.65211561874949">
    <ele>544.88</ele>
   </trkpt>
   <trkpt lat="42.29836778269567" lon="69.65173781389973">
    <ele>545.97</ele>
   </trkpt>
   <trkpt lat="42.29912" lon="69.65136000000001">
    <ele>547.98</ele>
   </trkpt>
   <trkpt lat="42.29995667075586" lon="69.6509266954509">
    <ele>551.19</ele>
   </trkpt>
   <trkpt lat="42.30079333988048" lon="69.6504933793867">
    <ele>554.1</ele>
   </trkpt>
   <trkpt lat="42.301630007373795" lon="69.65006005180676">
    <ele>555.0500000000001</ele>
   </trkpt>
   <trkpt lat="42.302466673235685" lon="69.64962671271047">
    <ele>555.5300000000001</ele>
   </trkpt>
   <trkpt lat="42.303303337466104" lon="69.64919336209724">
    <ele>556.18</ele>
   </trkpt>
   <trkpt lat="42.304140000000004" lon="69.64876000000001">
    <ele>556.49</ele>
   </trkpt>
   <trkpt lat="42.30489" lon="69.64836000000001">
    <ele>556.6300000000001</ele>
   </trkpt>
   <trkpt lat="42.30541" lon="69.64794">
    <ele>556.3299999999999</ele>
   </trkpt>
   <trkpt lat="42.305930000000004" lon="69.64733000000001">
    <ele>555.37</ele>
   </trkpt>
   <trkpt lat="42.30628500116523" lon="69.64681500288516">
    <ele>554.28</ele>
   </trkpt>
   <trkpt lat="42.30664" lon="69.64630000000001">
    <ele>551.95</ele>
   </trkpt>
   <trkpt lat="42.306900000000006" lon="69.64583">
    <ele>550.7200000000001</ele>
   </trkpt>
   <trkpt lat="42.30707" lon="69.64545000000001">
    <ele>548.91</ele>
   </trkpt>
   <trkpt lat="42.30724000203182" lon="69.6447700017439">
    <ele>545.4100000000001</ele>
   </trkpt>
   <trkpt lat="42.307410000000004" lon="69.64409">
    <ele>541.3800000000001</ele>
   </trkpt>
   <trkpt lat="42.30754" lon="69.64344000000001">
    <ele>540.5600000000001</ele>
   </trkpt>
   <trkpt lat="42.3076" lon="69.64311000000001">
    <ele>540.15</ele>
   </trkpt>
   <trkpt lat="42.3078" lon="69.64231000000001">
    <ele>539.8000000000001</ele>
   </trkpt>
   <trkpt lat="42.30807" lon="69.64118">
    <ele>539.6700000000001</ele>
   </trkpt>
   <trkpt lat="42.308220000000006" lon="69.64043000000001">
    <ele>538.59</ele>
   </trkpt>
   <trkpt lat="42.308310000000006" lon="69.64012000000001">
    <ele>538.2800000000001</ele>
   </trkpt>
   <trkpt lat="42.308550000000004" lon="69.63903">
    <ele>537.4100000000001</ele>
   </trkpt>
   <trkpt lat="42.308810005411466" lon="69.63791500455913">
    <ele>536.96</ele>
   </trkpt>
   <trkpt lat="42.309070000000006" lon="69.63680000000001">
    <ele>536.9200000000001</ele>
   </trkpt>
   <trkpt lat="42.309322019078" lon="69.63575201680925">
    <ele>536.1100000000001</ele>
   </trkpt>
   <trkpt lat="42.309574028613966" lon="69.634704025227">
    <ele>534.64</ele>
   </trkpt>
   <trkpt lat="42.309826028607716" lon="69.63365602525346">
    <ele>533.95</ele>
   </trkpt>
   <trkpt lat="42.310078019059105" lon="69.63260801688877">
    <ele>533.71</ele>
   </trkpt>
   <trkpt lat="42.31033" lon="69.63156000000001">
    <ele>533.6200000000001</ele>
   </trkpt>
   <trkpt lat="42.31057835905929" lon="69.63047168814145">
    <ele>532.99</ele>
   </trkpt>
   <trkpt lat="42.310826707827964" lon="69.62938336769469">
    <ele>532.07</ele>
   </trkpt>
   <trkpt lat="42.31107504630587" lon="69.62829503865994">
    <ele>530.83</ele>
   </trkpt>
   <trkpt lat="42.311323374492815" lon="69.62720670103741">
    <ele>530.1600000000001</ele>
   </trkpt>
   <trkpt lat="42.31157169238866" lon="69.6261183548273">
    <ele>529.39</ele>
   </trkpt>
   <trkpt lat="42.311820000000004" lon="69.62503000000001">
    <ele>528.95</ele>
   </trkpt>
   <trkpt lat="42.31206500481863" lon="69.62398000396198">
    <ele>527.1300000000001</ele>
   </trkpt>
   <trkpt lat="42.312310000000004" lon="69.62293000000001">
    <ele>526.2900000000001</ele>
   </trkpt>
   <trkpt lat="42.312564044345024" lon="69.62186503868054">
    <ele>525.5600000000001</ele>
   </trkpt>
   <trkpt lat="42.31281807883622" lon="69.62080006876411">
    <ele>524.5500000000001</ele>
   </trkpt>
   <trkpt lat="42.31307210347345" lon="69.61973509025097">
    <ele>524.0</ele>
   </trkpt>
   <trkpt lat="42.313326118256505" lon="69.61867010314126">
    <ele>523.1600000000001</ele>
   </trkpt>
   <trkpt lat="42.313580123185226" lon="69.61760510743518">
    <ele>522.46</ele>
   </trkpt>
   <trkpt lat="42.313834118259464" lon="69.61654010313293">
    <ele>521.57</ele>
   </trkpt>
   <trkpt lat="42.314088103479044" lon="69.6154750902347">
    <ele>520.45</ele>
   </trkpt>
   <trkpt lat="42.314342078843794" lon="69.61441006874064">
    <ele>519.9</ele>
   </trkpt>
   <trkpt lat="42.31459604435354" lon="69.61334503865098">
    <ele>518.75</ele>
   </trkpt>
   <trkpt lat="42.31485000000001" lon="69.61228000000001">
    <ele>518.17</ele>
   </trkpt>
   <trkpt lat="42.31507500413262" lon="69.61130500347309">
    <ele>517.12</ele>
   </trkpt>
   <trkpt lat="42.3153" lon="69.61033">
    <ele>516.0400000000001</ele>
   </trkpt>
   <trkpt lat="42.315380000000005" lon="69.61006">
    <ele>515.8000000000001</ele>
   </trkpt>
   <trkpt lat="42.3156500053408" lon="69.60895000481023">
    <ele>514.7400000000001</ele>
   </trkpt>
   <trkpt lat="42.315920000000006" lon="69.60784000000001">
    <ele>514.4000000000001</ele>
   </trkpt>
   <trkpt lat="42.31617001563049" lon="69.60674501303177">
    <ele>513.84</ele>
   </trkpt>
   <trkpt lat="42.31642002084358" lon="69.6056500173633">
    <ele>513.38</ele>
   </trkpt>
   <trkpt lat="42.316670015639055" lon="69.60455501299485">
    <ele>513.17</ele>
   </trkpt>
   <trkpt lat="42.31692" lon="69.60346000000001">
    <ele>513.12</ele>
   </trkpt>
   <trkpt lat="42.316246667522975" lon="69.60314665996323">
    <ele>512.7400000000001</ele>
   </trkpt>
   <trkpt lat="42.315573334192926" lon="69.60283332663153">
    <ele>512.51</ele>
   </trkpt>
   <trkpt lat="42.3149" lon="69.60252000000001">
    <ele>511.6</ele>
   </trkpt>
   <trkpt lat="42.314064002055744" lon="69.60217798183828">
    <ele>511.0300000000001</ele>
   </trkpt>
   <trkpt lat="42.31322800309519" lon="69.60183597276267">
    <ele>510.28000000000003</ele>
   </trkpt>
   <trkpt lat="42.31239200311838" lon="69.60149397277267">
    <ele>509.45000000000005</ele>
   </trkpt>
   <trkpt lat="42.31155600212539" lon="69.60115198186782">
    <ele>508.4200000000001</ele>
   </trkpt>
   <trkpt lat="42.31072" lon="69.60081000000001">
    <ele>507.13000000000005</ele>
   </trkpt>
   <trkpt lat="42.310280000196286" lon="69.60060499857339">
    <ele>506.69000000000005</ele>
   </trkpt>
   <trkpt lat="42.30984" lon="69.60040000000001">
    <ele>503.07</ele>
   </trkpt>
   <trkpt lat="42.309830000000005" lon="69.60012">
    <ele>506.32</ele>
   </trkpt>
   <trkpt lat="42.30944" lon="69.59922">
    <ele>505.88</ele>
   </trkpt>
   <trkpt lat="42.309160000000006" lon="69.5994">
    <ele>506.27</ele>
   </trkpt>
  </trkseg>
 </trk>
</gpx>
