<?xml version="1.0" encoding="UTF-8"?>
<gpx creator="https://gpx.studio" version="1.1" xmlns="http://www.topografix.com/GPX/1/1" xmlns:xsi="http://www.w3.org/2001/XMLSchema-instance" xsi:schemaLocation="http://www.topografix.com/GPX/1/1 http://www.topografix.com/GPX/1/1/gpx.xsd http://www.garmin.com/xmlschemas/GpxExtensions/v3 http://www.garmin.com/xmlschemas/GpxExtensionsv3.xsd http://www.garmin.com/xmlschemas/TrackPointExtension/v1 http://www.garmin.com/xmlschemas/TrackPointExtensionv1.xsd http://www.garmin.com/xmlschemas/PowerExtension/v1 http://www.garmin.com/xmlschemas/PowerExtensionv1.xsd http://www.topografix.com/GPX/gpx_style/0/2 http://www.topografix.com/GPX/gpx_style/0/2/gpx_style.xsd" xmlns:gpxtpx="http://www.garmin.com/xmlschemas/TrackPointExtension/v1" xmlns:gpxx="http://www.garmin.com/xmlschemas/GpxExtensions/v3" xmlns:gpxpx="http://www.garmin.com/xmlschemas/PowerExtension/v1" xmlns:gpx_style="http://www.topografix.com/GPX/gpx_style/0/2">
  <metadata>
    <name>Serene Lake</name>
    <author>
      <name>gpx.studio</name>
      <link href="https://gpx.studio"/>
    </author>
  </metadata>
  <wpt lat="18.724455" lon="98.922668">
    <ele>321.6260237231802</ele>
    <name>Terrior roasters</name>
  </wpt>
  <wpt lat="18.748635" lon="98.949101">
    <ele>313.33803597809805</ele>
    <name>Serene lake</name>
  </wpt>
  <trk>
    <name>Serene Lake</name>
    <extensions>
      <gpx_style:line>
        <gpx_style:color>0400ff</gpx_style:color>
      </gpx_style:line>
    </extensions>
    <trkseg>
      <trkpt lat="18.80563" lon="98.973926">
        <ele>318</ele>
      </trkpt>
      <trkpt lat="18.805788" lon="98.972566">
        <ele>318.25</ele>
      </trkpt>
      <trkpt lat="18.805818" lon="98.972303">
        <ele>318.25</ele>
      </trkpt>
      <trkpt lat="18.805886" lon="98.971758">
        <ele>319</ele>
      </trkpt>
      <trkpt lat="18.805967" lon="98.971103">
        <ele>318</ele>
      </trkpt>
      <trkpt lat="18.805995" lon="98.971042">
        <ele>318</ele>
      </trkpt>
      <trkpt lat="18.805779" lon="98.970848">
        <ele>317.75</ele>
      </trkpt>
      <trkpt lat="18.805526" lon="98.970625">
        <ele>322</ele>
      </trkpt>
      <trkpt lat="18.804985" lon="98.970161">
        <ele>327.5</ele>
      </trkpt>
      <trkpt lat="18.804702" lon="98.969949">
        <ele>326</ele>
      </trkpt>
      <trkpt lat="18.804647" lon="98.96991">
        <ele>325.5</ele>
      </trkpt>
      <trkpt lat="18.804524" lon="98.969827">
        <ele>324.75</ele>
      </trkpt>
      <trkpt lat="18.8042" lon="98.969608">
        <ele>322.25</ele>
      </trkpt>
      <trkpt lat="18.803658" lon="98.969264">
        <ele>321</ele>
      </trkpt>
      <trkpt lat="18.803475" lon="98.969151">
        <ele>321.5</ele>
      </trkpt>
      <trkpt lat="18.803344" lon="98.969073">
        <ele>322</ele>
      </trkpt>
      <trkpt lat="18.80288" lon="98.968814">
        <ele>321.75</ele>
      </trkpt>
      <trkpt lat="18.802751" lon="98.96875">
        <ele>321.75</ele>
      </trkpt>
      <trkpt lat="18.801933" lon="98.968346">
        <ele>321.25</ele>
      </trkpt>
      <trkpt lat="18.801578" lon="98.968177">
        <ele>321.5</ele>
      </trkpt>
      <trkpt lat="18.801396" lon="98.968093">
        <ele>322.25</ele>
      </trkpt>
      <trkpt lat="18.801387" lon="98.968038">
        <ele>322.25</ele>
      </trkpt>
      <trkpt lat="18.801343" lon="98.968019">
        <ele>322.25</ele>
      </trkpt>
      <trkpt lat="18.801241" lon="98.967973">
        <ele>322.75</ele>
      </trkpt>
      <trkpt lat="18.80123" lon="98.967937">
        <ele>322.75</ele>
      </trkpt>
      <trkpt lat="18.801228" lon="98.967902">
        <ele>322.75</ele>
      </trkpt>
      <trkpt lat="18.801168" lon="98.96787">
        <ele>322.75</ele>
      </trkpt>
      <trkpt lat="18.801062" lon="98.967814">
        <ele>323</ele>
      </trkpt>
      <trkpt lat="18.800675" lon="98.967636">
        <ele>323</ele>
      </trkpt>
      <trkpt lat="18.80062" lon="98.967612">
        <ele>323</ele>
      </trkpt>
      <trkpt lat="18.800595" lon="98.967599">
        <ele>323</ele>
      </trkpt>
      <trkpt lat="18.800086" lon="98.967415">
        <ele>323.25</ele>
      </trkpt>
      <trkpt lat="18.799724" lon="98.967283">
        <ele>324.25</ele>
      </trkpt>
      <trkpt lat="18.799571" lon="98.967226">
        <ele>325</ele>
      </trkpt>
      <trkpt lat="18.79928" lon="98.96712">
        <ele>326</ele>
      </trkpt>
      <trkpt lat="18.799078" lon="98.967045">
        <ele>326.25</ele>
      </trkpt>
      <trkpt lat="18.798757" lon="98.966927">
        <ele>325.75</ele>
      </trkpt>
      <trkpt lat="18.798578" lon="98.966862">
        <ele>325.5</ele>
      </trkpt>
      <trkpt lat="18.798331" lon="98.966771">
        <ele>324.75</ele>
      </trkpt>
      <trkpt lat="18.797729" lon="98.966534">
        <ele>324.25</ele>
      </trkpt>
      <trkpt lat="18.797126" lon="98.96631">
        <ele>323.5</ele>
      </trkpt>
      <trkpt lat="18.796922" lon="98.966233">
        <ele>323</ele>
      </trkpt>
      <trkpt lat="18.796697" lon="98.966147">
        <ele>322.5</ele>
      </trkpt>
      <trkpt lat="18.796337" lon="98.966008">
        <ele>323</ele>
      </trkpt>
      <trkpt lat="18.796221" lon="98.965966">
        <ele>323.25</ele>
      </trkpt>
      <trkpt lat="18.796107" lon="98.965922">
        <ele>323.25</ele>
      </trkpt>
      <trkpt lat="18.795818" lon="98.965811">
        <ele>324</ele>
      </trkpt>
      <trkpt lat="18.795536" lon="98.965703">
        <ele>324</ele>
      </trkpt>
      <trkpt lat="18.795319" lon="98.96562">
        <ele>324</ele>
      </trkpt>
      <trkpt lat="18.79502" lon="98.965505">
        <ele>324.25</ele>
      </trkpt>
      <trkpt lat="18.794796" lon="98.965419">
        <ele>324.25</ele>
      </trkpt>
      <trkpt lat="18.794575" lon="98.965331">
        <ele>323.75</ele>
      </trkpt>
      <trkpt lat="18.793879" lon="98.965084">
        <ele>322.5</ele>
      </trkpt>
      <trkpt lat="18.793149" lon="98.964823">
        <ele>321.5</ele>
      </trkpt>
      <trkpt lat="18.792328" lon="98.964529">
        <ele>320.25</ele>
      </trkpt>
      <trkpt lat="18.791645" lon="98.964284">
        <ele>321.75</ele>
      </trkpt>
      <trkpt lat="18.791376" lon="98.964188">
        <ele>322.5</ele>
      </trkpt>
      <trkpt lat="18.791187" lon="98.96412">
        <ele>323.25</ele>
      </trkpt>
      <trkpt lat="18.790684" lon="98.963941">
        <ele>324</ele>
      </trkpt>
      <trkpt lat="18.790369" lon="98.963828">
        <ele>323.25</ele>
      </trkpt>
      <trkpt lat="18.790224" lon="98.963775">
        <ele>323</ele>
      </trkpt>
      <trkpt lat="18.790146" lon="98.963784">
        <ele>322.75</ele>
      </trkpt>
      <trkpt lat="18.790133" lon="98.963779">
        <ele>322.75</ele>
      </trkpt>
      <trkpt lat="18.79008" lon="98.963758">
        <ele>322.5</ele>
      </trkpt>
      <trkpt lat="18.790006" lon="98.963729">
        <ele>322.5</ele>
      </trkpt>
      <trkpt lat="18.790024" lon="98.963656">
        <ele>322.75</ele>
      </trkpt>
      <trkpt lat="18.79004" lon="98.963593">
        <ele>323</ele>
      </trkpt>
      <trkpt lat="18.790102" lon="98.963345">
        <ele>324</ele>
      </trkpt>
      <trkpt lat="18.790107" lon="98.963325">
        <ele>324</ele>
      </trkpt>
      <trkpt lat="18.790206" lon="98.962965">
        <ele>324</ele>
      </trkpt>
      <trkpt lat="18.790272" lon="98.962759">
        <ele>323.75</ele>
      </trkpt>
      <trkpt lat="18.790331" lon="98.96256">
        <ele>323.75</ele>
      </trkpt>
      <trkpt lat="18.790511" lon="98.962017">
        <ele>325</ele>
      </trkpt>
      <trkpt lat="18.790511" lon="98.962017">
        <ele>324.75</ele>
      </trkpt>
      <trkpt lat="18.790552" lon="98.961895">
        <ele>325</ele>
      </trkpt>
      <trkpt lat="18.790635" lon="98.96169">
        <ele>325.25</ele>
      </trkpt>
      <trkpt lat="18.79067" lon="98.961584">
        <ele>325.5</ele>
      </trkpt>
      <trkpt lat="18.790798" lon="98.961178">
        <ele>325.75</ele>
      </trkpt>
      <trkpt lat="18.790913" lon="98.960845">
        <ele>325.75</ele>
      </trkpt>
      <trkpt lat="18.790928" lon="98.9608">
        <ele>325.75</ele>
      </trkpt>
      <trkpt lat="18.790942" lon="98.960758">
        <ele>325.75</ele>
      </trkpt>
      <trkpt lat="18.79099" lon="98.96061">
        <ele>325.75</ele>
      </trkpt>
      <trkpt lat="18.790998" lon="98.960583">
        <ele>325.75</ele>
      </trkpt>
      <trkpt lat="18.791186" lon="98.960048">
        <ele>325.75</ele>
      </trkpt>
      <trkpt lat="18.79125" lon="98.959994">
        <ele>326</ele>
      </trkpt>
      <trkpt lat="18.791462" lon="98.959376">
        <ele>330</ele>
      </trkpt>
      <trkpt lat="18.79166" lon="98.958792">
        <ele>331.75</ele>
      </trkpt>
      <trkpt lat="18.791732" lon="98.958577">
        <ele>331.75</ele>
      </trkpt>
      <trkpt lat="18.791783" lon="98.958425">
        <ele>331.5</ele>
      </trkpt>
      <trkpt lat="18.791987" lon="98.957821">
        <ele>331.5</ele>
      </trkpt>
      <trkpt lat="18.792139" lon="98.957372">
        <ele>332.25</ele>
      </trkpt>
      <trkpt lat="18.792276" lon="98.956966">
        <ele>333.25</ele>
      </trkpt>
      <trkpt lat="18.792332" lon="98.956799">
        <ele>333.75</ele>
      </trkpt>
      <trkpt lat="18.791472" lon="98.956445">
        <ele>335.25</ele>
      </trkpt>
      <trkpt lat="18.791204" lon="98.956387">
        <ele>335.75</ele>
      </trkpt>
      <trkpt lat="18.790786" lon="98.956335">
        <ele>336.75</ele>
      </trkpt>
      <trkpt lat="18.790706" lon="98.95625">
        <ele>337</ele>
      </trkpt>
      <trkpt lat="18.790573" lon="98.956124">
        <ele>337.75</ele>
      </trkpt>
      <trkpt lat="18.790516" lon="98.956094">
        <ele>338</ele>
      </trkpt>
      <trkpt lat="18.790367" lon="98.956058">
        <ele>338.25</ele>
      </trkpt>
      <trkpt lat="18.790158" lon="98.956007">
        <ele>339</ele>
      </trkpt>
      <trkpt lat="18.790047" lon="98.95598">
        <ele>339.25</ele>
      </trkpt>
      <trkpt lat="18.789933" lon="98.955928">
        <ele>339.5</ele>
      </trkpt>
      <trkpt lat="18.789772" lon="98.955801">
        <ele>340.25</ele>
      </trkpt>
      <trkpt lat="18.789727" lon="98.955738">
        <ele>340.5</ele>
      </trkpt>
      <trkpt lat="18.789662" lon="98.955723">
        <ele>341</ele>
      </trkpt>
      <trkpt lat="18.78966" lon="98.955723">
        <ele>340.5</ele>
      </trkpt>
      <trkpt lat="18.789727" lon="98.955738">
        <ele>340.5</ele>
      </trkpt>
      <trkpt lat="18.78954" lon="98.955486">
        <ele>341.5</ele>
      </trkpt>
      <trkpt lat="18.789354" lon="98.955249">
        <ele>341.75</ele>
      </trkpt>
      <trkpt lat="18.789205" lon="98.955141">
        <ele>341.75</ele>
      </trkpt>
      <trkpt lat="18.788966" lon="98.955016">
        <ele>341.75</ele>
      </trkpt>
      <trkpt lat="18.788761" lon="98.954908">
        <ele>342</ele>
      </trkpt>
      <trkpt lat="18.788725" lon="98.954889">
        <ele>342</ele>
      </trkpt>
      <trkpt lat="18.788472" lon="98.954764">
        <ele>341.75</ele>
      </trkpt>
      <trkpt lat="18.788425" lon="98.95474">
        <ele>341.75</ele>
      </trkpt>
      <trkpt lat="18.788349" lon="98.95471">
        <ele>341.5</ele>
      </trkpt>
      <trkpt lat="18.787808" lon="98.954597">
        <ele>340.75</ele>
      </trkpt>
      <trkpt lat="18.787603" lon="98.954568">
        <ele>340.5</ele>
      </trkpt>
      <trkpt lat="18.78748" lon="98.954568">
        <ele>340.25</ele>
      </trkpt>
      <trkpt lat="18.786406" lon="98.95464">
        <ele>339</ele>
      </trkpt>
      <trkpt lat="18.786211" lon="98.954658">
        <ele>338</ele>
      </trkpt>
      <trkpt lat="18.785953" lon="98.954638">
        <ele>337</ele>
      </trkpt>
      <trkpt lat="18.785717" lon="98.954582">
        <ele>337</ele>
      </trkpt>
      <trkpt lat="18.785379" lon="98.954456">
        <ele>337.75</ele>
      </trkpt>
      <trkpt lat="18.784933" lon="98.954268">
        <ele>338.5</ele>
      </trkpt>
      <trkpt lat="18.784736" lon="98.9542">
        <ele>338.5</ele>
      </trkpt>
      <trkpt lat="18.784489" lon="98.954098">
        <ele>338.5</ele>
      </trkpt>
      <trkpt lat="18.784323" lon="98.954008">
        <ele>338.75</ele>
      </trkpt>
      <trkpt lat="18.783886" lon="98.95377">
        <ele>341.75</ele>
      </trkpt>
      <trkpt lat="18.783795" lon="98.953753">
        <ele>342.25</ele>
      </trkpt>
      <trkpt lat="18.783773" lon="98.953758">
        <ele>342.5</ele>
      </trkpt>
      <trkpt lat="18.783694" lon="98.953816">
        <ele>342.5</ele>
      </trkpt>
      <trkpt lat="18.783649" lon="98.953862">
        <ele>342.25</ele>
      </trkpt>
      <trkpt lat="18.783581" lon="98.953948">
        <ele>341.75</ele>
      </trkpt>
      <trkpt lat="18.783534" lon="98.954039">
        <ele>341.25</ele>
      </trkpt>
      <trkpt lat="18.78349" lon="98.954378">
        <ele>339</ele>
      </trkpt>
      <trkpt lat="18.783386" lon="98.95481">
        <ele>336.25</ele>
      </trkpt>
      <trkpt lat="18.783321" lon="98.954776">
        <ele>336.5</ele>
      </trkpt>
      <trkpt lat="18.78324" lon="98.95475">
        <ele>336.5</ele>
      </trkpt>
      <trkpt lat="18.782834" lon="98.954562">
        <ele>336.25</ele>
      </trkpt>
      <trkpt lat="18.78276" lon="98.95451">
        <ele>336</ele>
      </trkpt>
      <trkpt lat="18.782704" lon="98.954441">
        <ele>335.75</ele>
      </trkpt>
      <trkpt lat="18.782597" lon="98.954242">
        <ele>335.5</ele>
      </trkpt>
      <trkpt lat="18.782552" lon="98.954144">
        <ele>335.5</ele>
      </trkpt>
      <trkpt lat="18.782506" lon="98.954085">
        <ele>335.75</ele>
      </trkpt>
      <trkpt lat="18.782425" lon="98.954019">
        <ele>336</ele>
      </trkpt>
      <trkpt lat="18.782147" lon="98.953853">
        <ele>336.75</ele>
      </trkpt>
      <trkpt lat="18.781945" lon="98.953732">
        <ele>336.75</ele>
      </trkpt>
      <trkpt lat="18.781632" lon="98.953554">
        <ele>336</ele>
      </trkpt>
      <trkpt lat="18.781233" lon="98.953333">
        <ele>335.75</ele>
      </trkpt>
      <trkpt lat="18.780857" lon="98.953072">
        <ele>336.75</ele>
      </trkpt>
      <trkpt lat="18.780123" lon="98.952537">
        <ele>335.5</ele>
      </trkpt>
      <trkpt lat="18.78008" lon="98.952481">
        <ele>335.5</ele>
      </trkpt>
      <trkpt lat="18.780049" lon="98.952419">
        <ele>335.25</ele>
      </trkpt>
      <trkpt lat="18.780038" lon="98.952356">
        <ele>335</ele>
      </trkpt>
      <trkpt lat="18.780058" lon="98.951972">
        <ele>334.75</ele>
      </trkpt>
      <trkpt lat="18.780065" lon="98.951678">
        <ele>334.5</ele>
      </trkpt>
      <trkpt lat="18.780068" lon="98.951495">
        <ele>334.5</ele>
      </trkpt>
      <trkpt lat="18.780034" lon="98.95138">
        <ele>334.5</ele>
      </trkpt>
      <trkpt lat="18.779971" lon="98.951281">
        <ele>334.25</ele>
      </trkpt>
      <trkpt lat="18.779847" lon="98.951136">
        <ele>334</ele>
      </trkpt>
      <trkpt lat="18.77941" lon="98.950816">
        <ele>333.5</ele>
      </trkpt>
      <trkpt lat="18.779324" lon="98.950771">
        <ele>333.5</ele>
      </trkpt>
      <trkpt lat="18.779184" lon="98.950735">
        <ele>333.25</ele>
      </trkpt>
      <trkpt lat="18.779111" lon="98.950735">
        <ele>333.25</ele>
      </trkpt>
      <trkpt lat="18.7788" lon="98.950742">
        <ele>332.75</ele>
      </trkpt>
      <trkpt lat="18.77833" lon="98.950729">
        <ele>332.25</ele>
      </trkpt>
      <trkpt lat="18.778159" lon="98.950713">
        <ele>332.25</ele>
      </trkpt>
      <trkpt lat="18.778104" lon="98.950708">
        <ele>332.25</ele>
      </trkpt>
      <trkpt lat="18.777819" lon="98.950653">
        <ele>332.5</ele>
      </trkpt>
      <trkpt lat="18.777449" lon="98.95055">
        <ele>333.25</ele>
      </trkpt>
      <trkpt lat="18.777187" lon="98.950427">
        <ele>333.75</ele>
      </trkpt>
      <trkpt lat="18.776935" lon="98.950299">
        <ele>334</ele>
      </trkpt>
      <trkpt lat="18.776756" lon="98.95014">
        <ele>334.5</ele>
      </trkpt>
      <trkpt lat="18.776604" lon="98.949955">
        <ele>334.75</ele>
      </trkpt>
      <trkpt lat="18.776487" lon="98.949781">
        <ele>335</ele>
      </trkpt>
      <trkpt lat="18.776393" lon="98.949579">
        <ele>335.5</ele>
      </trkpt>
      <trkpt lat="18.776258" lon="98.949165">
        <ele>336.5</ele>
      </trkpt>
      <trkpt lat="18.776232" lon="98.949043">
        <ele>336.5</ele>
      </trkpt>
      <trkpt lat="18.776064" lon="98.948339">
        <ele>337.25</ele>
      </trkpt>
      <trkpt lat="18.776008" lon="98.94821">
        <ele>337.25</ele>
      </trkpt>
      <trkpt lat="18.775951" lon="98.948124">
        <ele>337</ele>
      </trkpt>
      <trkpt lat="18.775821" lon="98.947996">
        <ele>336.75</ele>
      </trkpt>
      <trkpt lat="18.775504" lon="98.947751">
        <ele>337</ele>
      </trkpt>
      <trkpt lat="18.775499" lon="98.947748">
        <ele>337.25</ele>
      </trkpt>
      <trkpt lat="18.774859" lon="98.947206">
        <ele>337.75</ele>
      </trkpt>
      <trkpt lat="18.774703" lon="98.947071">
        <ele>337.25</ele>
      </trkpt>
      <trkpt lat="18.774238" lon="98.946662">
        <ele>337</ele>
      </trkpt>
      <trkpt lat="18.77384" lon="98.946393">
        <ele>336.25</ele>
      </trkpt>
      <trkpt lat="18.773602" lon="98.946279">
        <ele>335.5</ele>
      </trkpt>
      <trkpt lat="18.773305" lon="98.946211">
        <ele>334.5</ele>
      </trkpt>
      <trkpt lat="18.77301" lon="98.946156">
        <ele>334.5</ele>
      </trkpt>
      <trkpt lat="18.772812" lon="98.9461">
        <ele>334.5</ele>
      </trkpt>
      <trkpt lat="18.772753" lon="98.946083">
        <ele>334.25</ele>
      </trkpt>
      <trkpt lat="18.772716" lon="98.946073">
        <ele>334.25</ele>
      </trkpt>
      <trkpt lat="18.772521" lon="98.945987">
        <ele>334</ele>
      </trkpt>
      <trkpt lat="18.772436" lon="98.945962">
        <ele>333.75</ele>
      </trkpt>
      <trkpt lat="18.77234" lon="98.945934">
        <ele>333.75</ele>
      </trkpt>
      <trkpt lat="18.772224" lon="98.945936">
        <ele>333.5</ele>
      </trkpt>
      <trkpt lat="18.772104" lon="98.945965">
        <ele>333.5</ele>
      </trkpt>
      <trkpt lat="18.771984" lon="98.946007">
        <ele>333.25</ele>
      </trkpt>
      <trkpt lat="18.771711" lon="98.946126">
        <ele>333</ele>
      </trkpt>
      <trkpt lat="18.77162" lon="98.946148">
        <ele>332.75</ele>
      </trkpt>
      <trkpt lat="18.771537" lon="98.946153">
        <ele>332.75</ele>
      </trkpt>
      <trkpt lat="18.771432" lon="98.946141">
        <ele>332.75</ele>
      </trkpt>
      <trkpt lat="18.771322" lon="98.946102">
        <ele>333</ele>
      </trkpt>
      <trkpt lat="18.771149" lon="98.946022">
        <ele>333</ele>
      </trkpt>
      <trkpt lat="18.771004" lon="98.945932">
        <ele>333.5</ele>
      </trkpt>
      <trkpt lat="18.770674" lon="98.945682">
        <ele>334.5</ele>
      </trkpt>
      <trkpt lat="18.770321" lon="98.945465">
        <ele>334.75</ele>
      </trkpt>
      <trkpt lat="18.770215" lon="98.945418">
        <ele>335</ele>
      </trkpt>
      <trkpt lat="18.770184" lon="98.945401">
        <ele>335</ele>
      </trkpt>
      <trkpt lat="18.770054" lon="98.945367">
        <ele>334.75</ele>
      </trkpt>
      <trkpt lat="18.769953" lon="98.945354">
        <ele>334.5</ele>
      </trkpt>
      <trkpt lat="18.769911" lon="98.94535">
        <ele>334.25</ele>
      </trkpt>
      <trkpt lat="18.769848" lon="98.945348">
        <ele>334</ele>
      </trkpt>
      <trkpt lat="18.769688" lon="98.94537">
        <ele>333</ele>
      </trkpt>
      <trkpt lat="18.769585" lon="98.945372">
        <ele>332.5</ele>
      </trkpt>
      <trkpt lat="18.769488" lon="98.945389">
        <ele>332</ele>
      </trkpt>
      <trkpt lat="18.769309" lon="98.944785">
        <ele>332.25</ele>
      </trkpt>
      <trkpt lat="18.769295" lon="98.94474">
        <ele>332.25</ele>
      </trkpt>
      <trkpt lat="18.7691" lon="98.944151">
        <ele>332.75</ele>
      </trkpt>
      <trkpt lat="18.769059" lon="98.943745">
        <ele>333</ele>
      </trkpt>
      <trkpt lat="18.76903" lon="98.943474">
        <ele>333.5</ele>
      </trkpt>
      <trkpt lat="18.768887" lon="98.943156">
        <ele>333.5</ele>
      </trkpt>
      <trkpt lat="18.768867" lon="98.943052">
        <ele>333.5</ele>
      </trkpt>
      <trkpt lat="18.768839" lon="98.942781">
        <ele>333.25</ele>
      </trkpt>
      <trkpt lat="18.768793" lon="98.942548">
        <ele>333.25</ele>
      </trkpt>
      <trkpt lat="18.768735" lon="98.942245">
        <ele>334</ele>
      </trkpt>
      <trkpt lat="18.768694" lon="98.94202">
        <ele>334.5</ele>
      </trkpt>
      <trkpt lat="18.768639" lon="98.941781">
        <ele>335.25</ele>
      </trkpt>
      <trkpt lat="18.768562" lon="98.941594">
        <ele>335.75</ele>
      </trkpt>
      <trkpt lat="18.768545" lon="98.941556">
        <ele>335.75</ele>
      </trkpt>
      <trkpt lat="18.768336" lon="98.941267">
        <ele>336.25</ele>
      </trkpt>
      <trkpt lat="18.768279" lon="98.941212">
        <ele>336.25</ele>
      </trkpt>
      <trkpt lat="18.768136" lon="98.941048">
        <ele>335.75</ele>
      </trkpt>
      <trkpt lat="18.768092" lon="98.941001">
        <ele>335.75</ele>
      </trkpt>
      <trkpt lat="18.767603" lon="98.940594">
        <ele>335</ele>
      </trkpt>
      <trkpt lat="18.767299" lon="98.940439">
        <ele>336</ele>
      </trkpt>
      <trkpt lat="18.76723" lon="98.940416">
        <ele>336.25</ele>
      </trkpt>
      <trkpt lat="18.767179" lon="98.94041">
        <ele>336.5</ele>
      </trkpt>
      <trkpt lat="18.767145" lon="98.940417">
        <ele>336.75</ele>
      </trkpt>
      <trkpt lat="18.76697" lon="98.940614">
        <ele>336.25</ele>
      </trkpt>
      <trkpt lat="18.766888" lon="98.940669">
        <ele>336.25</ele>
      </trkpt>
      <trkpt lat="18.76681" lon="98.940693">
        <ele>336.25</ele>
      </trkpt>
      <trkpt lat="18.766735" lon="98.940706">
        <ele>336.5</ele>
      </trkpt>
      <trkpt lat="18.766691" lon="98.940702">
        <ele>336.5</ele>
      </trkpt>
      <trkpt lat="18.766532" lon="98.940607">
        <ele>336.75</ele>
      </trkpt>
      <trkpt lat="18.766502" lon="98.94052">
        <ele>337.25</ele>
      </trkpt>
      <trkpt lat="18.766249" lon="98.940173">
        <ele>338.5</ele>
      </trkpt>
      <trkpt lat="18.765956" lon="98.939856">
        <ele>338.25</ele>
      </trkpt>
      <trkpt lat="18.765764" lon="98.939663">
        <ele>337.25</ele>
      </trkpt>
      <trkpt lat="18.765706" lon="98.939578">
        <ele>337.25</ele>
      </trkpt>
      <trkpt lat="18.765694" lon="98.939483">
        <ele>337.25</ele>
      </trkpt>
      <trkpt lat="18.76572" lon="98.938873">
        <ele>336</ele>
      </trkpt>
      <trkpt lat="18.76572" lon="98.937781">
        <ele>333.75</ele>
      </trkpt>
      <trkpt lat="18.765723" lon="98.936382">
        <ele>336.25</ele>
      </trkpt>
      <trkpt lat="18.765701" lon="98.936131">
        <ele>336.25</ele>
      </trkpt>
      <trkpt lat="18.765277" lon="98.93472">
        <ele>339.25</ele>
      </trkpt>
      <trkpt lat="18.764973" lon="98.933724">
        <ele>339.25</ele>
      </trkpt>
      <trkpt lat="18.764887" lon="98.933285">
        <ele>339.75</ele>
      </trkpt>
      <trkpt lat="18.764871" lon="98.933123">
        <ele>339.5</ele>
      </trkpt>
      <trkpt lat="18.764833" lon="98.931598">
        <ele>347</ele>
      </trkpt>
      <trkpt lat="18.764757" lon="98.931319">
        <ele>346.25</ele>
      </trkpt>
      <trkpt lat="18.764694" lon="98.931153">
        <ele>345.75</ele>
      </trkpt>
      <trkpt lat="18.764267" lon="98.930533">
        <ele>344</ele>
      </trkpt>
      <trkpt lat="18.764221" lon="98.930469">
        <ele>343.75</ele>
      </trkpt>
      <trkpt lat="18.763077" lon="98.928847">
        <ele>344</ele>
      </trkpt>
      <trkpt lat="18.762644" lon="98.928236">
        <ele>342.75</ele>
      </trkpt>
      <trkpt lat="18.762375" lon="98.927856">
        <ele>343.25</ele>
      </trkpt>
      <trkpt lat="18.762127" lon="98.927413">
        <ele>344.75</ele>
      </trkpt>
      <trkpt lat="18.762144" lon="98.92733">
        <ele>345.25</ele>
      </trkpt>
      <trkpt lat="18.7622" lon="98.927156">
        <ele>346.75</ele>
      </trkpt>
      <trkpt lat="18.762233" lon="98.927001">
        <ele>347.75</ele>
      </trkpt>
      <trkpt lat="18.762233" lon="98.926924">
        <ele>348.25</ele>
      </trkpt>
      <trkpt lat="18.762217" lon="98.926838">
        <ele>349</ele>
      </trkpt>
      <trkpt lat="18.762184" lon="98.926744">
        <ele>349.75</ele>
      </trkpt>
      <trkpt lat="18.762152" lon="98.926658">
        <ele>350.25</ele>
      </trkpt>
      <trkpt lat="18.762103" lon="98.926581">
        <ele>350.5</ele>
      </trkpt>
      <trkpt lat="18.761183" lon="98.925244">
        <ele>351</ele>
      </trkpt>
      <trkpt lat="18.76113" lon="98.925125">
        <ele>350.5</ele>
      </trkpt>
      <trkpt lat="18.761129" lon="98.925124">
        <ele>350.75</ele>
      </trkpt>
      <trkpt lat="18.761076" lon="98.925002">
        <ele>350.5</ele>
      </trkpt>
      <trkpt lat="18.761033" lon="98.924747">
        <ele>350.5</ele>
      </trkpt>
      <trkpt lat="18.76103" lon="98.924372">
        <ele>351</ele>
      </trkpt>
      <trkpt lat="18.76103" lon="98.923905">
        <ele>350.25</ele>
      </trkpt>
      <trkpt lat="18.761014" lon="98.923759">
        <ele>349.75</ele>
      </trkpt>
      <trkpt lat="18.760977" lon="98.923605">
        <ele>349</ele>
      </trkpt>
      <trkpt lat="18.76083" lon="98.923232">
        <ele>347</ele>
      </trkpt>
      <trkpt lat="18.760713" lon="98.922813">
        <ele>346.25</ele>
      </trkpt>
      <trkpt lat="18.760632" lon="98.922392">
        <ele>346.25</ele>
      </trkpt>
      <trkpt lat="18.760632" lon="98.921954">
        <ele>348</ele>
      </trkpt>
      <trkpt lat="18.760664" lon="98.921714">
        <ele>349.5</ele>
      </trkpt>
      <trkpt lat="18.760754" lon="98.921328">
        <ele>351</ele>
      </trkpt>
      <trkpt lat="18.760791" lon="98.92122">
        <ele>351</ele>
      </trkpt>
      <trkpt lat="18.760691" lon="98.92124">
        <ele>351.25</ele>
      </trkpt>
      <trkpt lat="18.760506" lon="98.921316">
        <ele>350.75</ele>
      </trkpt>
      <trkpt lat="18.759807" lon="98.921891">
        <ele>345</ele>
      </trkpt>
      <trkpt lat="18.759453" lon="98.922296">
        <ele>345.25</ele>
      </trkpt>
      <trkpt lat="18.75936" lon="98.922344">
        <ele>345</ele>
      </trkpt>
      <trkpt lat="18.759271" lon="98.922361">
        <ele>345.25</ele>
      </trkpt>
      <trkpt lat="18.758919" lon="98.922352">
        <ele>347.5</ele>
      </trkpt>
      <trkpt lat="18.758718" lon="98.922336">
        <ele>348.75</ele>
      </trkpt>
      <trkpt lat="18.757922" lon="98.922198">
        <ele>353.5</ele>
      </trkpt>
      <trkpt lat="18.757794" lon="98.922191">
        <ele>354</ele>
      </trkpt>
      <trkpt lat="18.757718" lon="98.922195">
        <ele>354</ele>
      </trkpt>
      <trkpt lat="18.757613" lon="98.922207">
        <ele>354</ele>
      </trkpt>
      <trkpt lat="18.757297" lon="98.922284">
        <ele>353</ele>
      </trkpt>
      <trkpt lat="18.757033" lon="98.922366">
        <ele>352.5</ele>
      </trkpt>
      <trkpt lat="18.75651" lon="98.922602">
        <ele>351.75</ele>
      </trkpt>
      <trkpt lat="18.756242" lon="98.922771">
        <ele>351.5</ele>
      </trkpt>
      <trkpt lat="18.75596" lon="98.922918">
        <ele>351.5</ele>
      </trkpt>
      <trkpt lat="18.755736" lon="98.923036">
        <ele>351.75</ele>
      </trkpt>
      <trkpt lat="18.755565" lon="98.923125">
        <ele>352</ele>
      </trkpt>
      <trkpt lat="18.755375" lon="98.923233">
        <ele>352.25</ele>
      </trkpt>
      <trkpt lat="18.755228" lon="98.923329">
        <ele>352.75</ele>
      </trkpt>
      <trkpt lat="18.755152" lon="98.923393">
        <ele>352.5</ele>
      </trkpt>
      <trkpt lat="18.755019" lon="98.923499">
        <ele>351.75</ele>
      </trkpt>
      <trkpt lat="18.754778" lon="98.923732">
        <ele>349.25</ele>
      </trkpt>
      <trkpt lat="18.754495" lon="98.924037">
        <ele>346.75</ele>
      </trkpt>
      <trkpt lat="18.754224" lon="98.924317">
        <ele>345.5</ele>
      </trkpt>
      <trkpt lat="18.753797" lon="98.924775">
        <ele>343.25</ele>
      </trkpt>
      <trkpt lat="18.753626" lon="98.924964">
        <ele>343.25</ele>
      </trkpt>
      <trkpt lat="18.753517" lon="98.925084">
        <ele>343</ele>
      </trkpt>
      <trkpt lat="18.752836" lon="98.925865">
        <ele>336.25</ele>
      </trkpt>
      <trkpt lat="18.752475" lon="98.926272">
        <ele>336.25</ele>
      </trkpt>
      <trkpt lat="18.752386" lon="98.926352">
        <ele>336</ele>
      </trkpt>
      <trkpt lat="18.751923" lon="98.926832">
        <ele>334.5</ele>
      </trkpt>
      <trkpt lat="18.75182" lon="98.926926">
        <ele>334.25</ele>
      </trkpt>
      <trkpt lat="18.751673" lon="98.927045">
        <ele>334.25</ele>
      </trkpt>
      <trkpt lat="18.751454" lon="98.927172">
        <ele>333.75</ele>
      </trkpt>
      <trkpt lat="18.75132" lon="98.927263">
        <ele>333</ele>
      </trkpt>
      <trkpt lat="18.751213" lon="98.927346">
        <ele>332.5</ele>
      </trkpt>
      <trkpt lat="18.751095" lon="98.927463">
        <ele>331.75</ele>
      </trkpt>
      <trkpt lat="18.750939" lon="98.927636">
        <ele>330.5</ele>
      </trkpt>
      <trkpt lat="18.750378" lon="98.928316">
        <ele>328.25</ele>
      </trkpt>
      <trkpt lat="18.750286" lon="98.928397">
        <ele>328.25</ele>
      </trkpt>
      <trkpt lat="18.75019" lon="98.928413">
        <ele>328.25</ele>
      </trkpt>
      <trkpt lat="18.750128" lon="98.928409">
        <ele>328.25</ele>
      </trkpt>
      <trkpt lat="18.75007" lon="98.928386">
        <ele>328</ele>
      </trkpt>
      <trkpt lat="18.75001" lon="98.928328">
        <ele>328</ele>
      </trkpt>
      <trkpt lat="18.749575" lon="98.927674">
        <ele>329.25</ele>
      </trkpt>
      <trkpt lat="18.749364" lon="98.927468">
        <ele>330.25</ele>
      </trkpt>
      <trkpt lat="18.749079" lon="98.927245">
        <ele>331</ele>
      </trkpt>
      <trkpt lat="18.748736" lon="98.927019">
        <ele>330.5</ele>
      </trkpt>
      <trkpt lat="18.748494" lon="98.926885">
        <ele>329.75</ele>
      </trkpt>
      <trkpt lat="18.74796" lon="98.926645">
        <ele>329.75</ele>
      </trkpt>
      <trkpt lat="18.747872" lon="98.926591">
        <ele>330</ele>
      </trkpt>
      <trkpt lat="18.747825" lon="98.926562">
        <ele>330.25</ele>
      </trkpt>
      <trkpt lat="18.74767" lon="98.926445">
        <ele>330.75</ele>
      </trkpt>
      <trkpt lat="18.747428" lon="98.926256">
        <ele>331.25</ele>
      </trkpt>
      <trkpt lat="18.747346" lon="98.92622">
        <ele>331.25</ele>
      </trkpt>
      <trkpt lat="18.747265" lon="98.926208">
        <ele>331</ele>
      </trkpt>
      <trkpt lat="18.747182" lon="98.926215">
        <ele>331</ele>
      </trkpt>
      <trkpt lat="18.746988" lon="98.926307">
        <ele>330.75</ele>
      </trkpt>
      <trkpt lat="18.746787" lon="98.926444">
        <ele>330.75</ele>
      </trkpt>
      <trkpt lat="18.746482" lon="98.926701">
        <ele>331.25</ele>
      </trkpt>
      <trkpt lat="18.746177" lon="98.927019">
        <ele>332</ele>
      </trkpt>
      <trkpt lat="18.74607" lon="98.927135">
        <ele>332.25</ele>
      </trkpt>
      <trkpt lat="18.745963" lon="98.927273">
        <ele>332.5</ele>
      </trkpt>
      <trkpt lat="18.745814" lon="98.927489">
        <ele>332.75</ele>
      </trkpt>
      <trkpt lat="18.745676" lon="98.927735">
        <ele>331.75</ele>
      </trkpt>
      <trkpt lat="18.745525" lon="98.927934">
        <ele>331</ele>
      </trkpt>
      <trkpt lat="18.745311" lon="98.928238">
        <ele>330.25</ele>
      </trkpt>
      <trkpt lat="18.74503" lon="98.928489">
        <ele>330.25</ele>
      </trkpt>
      <trkpt lat="18.744985" lon="98.928544">
        <ele>330.25</ele>
      </trkpt>
      <trkpt lat="18.744958" lon="98.928564">
        <ele>330.25</ele>
      </trkpt>
      <trkpt lat="18.74481" lon="98.928642">
        <ele>330.25</ele>
      </trkpt>
      <trkpt lat="18.744699" lon="98.928683">
        <ele>330.25</ele>
      </trkpt>
      <trkpt lat="18.744556" lon="98.92872">
        <ele>330.25</ele>
      </trkpt>
      <trkpt lat="18.744363" lon="98.928755">
        <ele>330.5</ele>
      </trkpt>
      <trkpt lat="18.744278" lon="98.928781">
        <ele>330.5</ele>
      </trkpt>
      <trkpt lat="18.744152" lon="98.928784">
        <ele>330.5</ele>
      </trkpt>
      <trkpt lat="18.74415" lon="98.928783">
        <ele>330.5</ele>
      </trkpt>
      <trkpt lat="18.744053" lon="98.928745">
        <ele>330.5</ele>
      </trkpt>
      <trkpt lat="18.743987" lon="98.928688">
        <ele>330.75</ele>
      </trkpt>
      <trkpt lat="18.74393" lon="98.928595">
        <ele>331</ele>
      </trkpt>
      <trkpt lat="18.743914" lon="98.92851">
        <ele>331.5</ele>
      </trkpt>
      <trkpt lat="18.743907" lon="98.928496">
        <ele>331.5</ele>
      </trkpt>
      <trkpt lat="18.743915" lon="98.928394">
        <ele>332</ele>
      </trkpt>
      <trkpt lat="18.743863" lon="98.927978">
        <ele>332.25</ele>
      </trkpt>
      <trkpt lat="18.7438" lon="98.927711">
        <ele>332.25</ele>
      </trkpt>
      <trkpt lat="18.743788" lon="98.927564">
        <ele>332.5</ele>
      </trkpt>
      <trkpt lat="18.743773" lon="98.927379">
        <ele>332.75</ele>
      </trkpt>
      <trkpt lat="18.743814" lon="98.927107">
        <ele>333.5</ele>
      </trkpt>
      <trkpt lat="18.743943" lon="98.926706">
        <ele>334.5</ele>
      </trkpt>
      <trkpt lat="18.74406" lon="98.92638">
        <ele>335.25</ele>
      </trkpt>
      <trkpt lat="18.744116" lon="98.926089">
        <ele>335.5</ele>
      </trkpt>
      <trkpt lat="18.744099" lon="98.925809">
        <ele>336</ele>
      </trkpt>
      <trkpt lat="18.74393" lon="98.925313">
        <ele>336.5</ele>
      </trkpt>
      <trkpt lat="18.743899" lon="98.925216">
        <ele>336.75</ele>
      </trkpt>
      <trkpt lat="18.743905" lon="98.925079">
        <ele>336.75</ele>
      </trkpt>
      <trkpt lat="18.743885" lon="98.924989">
        <ele>337</ele>
      </trkpt>
      <trkpt lat="18.743856" lon="98.924807">
        <ele>337</ele>
      </trkpt>
      <trkpt lat="18.743741" lon="98.924778">
        <ele>337</ele>
      </trkpt>
      <trkpt lat="18.74332" lon="98.924374">
        <ele>336.75</ele>
      </trkpt>
      <trkpt lat="18.742989" lon="98.924198">
        <ele>336.75</ele>
      </trkpt>
      <trkpt lat="18.742655" lon="98.924092">
        <ele>337.25</ele>
      </trkpt>
      <trkpt lat="18.742383" lon="98.924087">
        <ele>337.5</ele>
      </trkpt>
      <trkpt lat="18.742118" lon="98.924104">
        <ele>337.5</ele>
      </trkpt>
      <trkpt lat="18.74143" lon="98.924128">
        <ele>337.5</ele>
      </trkpt>
      <trkpt lat="18.740554" lon="98.924334">
        <ele>335.25</ele>
      </trkpt>
      <trkpt lat="18.740261" lon="98.924321">
        <ele>335.25</ele>
      </trkpt>
      <trkpt lat="18.740009" lon="98.924276">
        <ele>335.25</ele>
      </trkpt>
      <trkpt lat="18.739637" lon="98.924156">
        <ele>335</ele>
      </trkpt>
      <trkpt lat="18.739294" lon="98.923988">
        <ele>335</ele>
      </trkpt>
      <trkpt lat="18.739049" lon="98.923877">
        <ele>335</ele>
      </trkpt>
      <trkpt lat="18.738055" lon="98.923182">
        <ele>335.5</ele>
      </trkpt>
      <trkpt lat="18.737402" lon="98.922664">
        <ele>333.75</ele>
      </trkpt>
      <trkpt lat="18.73703" lon="98.922339">
        <ele>332.25</ele>
      </trkpt>
      <trkpt lat="18.736796" lon="98.922055">
        <ele>331.75</ele>
      </trkpt>
      <trkpt lat="18.736534" lon="98.921607">
        <ele>333.25</ele>
      </trkpt>
      <trkpt lat="18.736393" lon="98.921348">
        <ele>334.25</ele>
      </trkpt>
      <trkpt lat="18.73628" lon="98.921189">
        <ele>334.5</ele>
      </trkpt>
      <trkpt lat="18.736117" lon="98.921023">
        <ele>334.5</ele>
      </trkpt>
      <trkpt lat="18.735145" lon="98.920321">
        <ele>335.5</ele>
      </trkpt>
      <trkpt lat="18.734771" lon="98.920046">
        <ele>335.5</ele>
      </trkpt>
      <trkpt lat="18.734564" lon="98.919833">
        <ele>335.75</ele>
      </trkpt>
      <trkpt lat="18.734011" lon="98.919185">
        <ele>336.25</ele>
      </trkpt>
      <trkpt lat="18.73338" lon="98.918381">
        <ele>336.75</ele>
      </trkpt>
      <trkpt lat="18.733206" lon="98.91816">
        <ele>336.75</ele>
      </trkpt>
      <trkpt lat="18.733089" lon="98.918017">
        <ele>336.25</ele>
      </trkpt>
      <trkpt lat="18.732694" lon="98.917536">
        <ele>336.25</ele>
      </trkpt>
      <trkpt lat="18.732518" lon="98.917351">
        <ele>336.25</ele>
      </trkpt>
      <trkpt lat="18.732182" lon="98.91703">
        <ele>337</ele>
      </trkpt>
      <trkpt lat="18.731755" lon="98.916684">
        <ele>337.75</ele>
      </trkpt>
      <trkpt lat="18.731715" lon="98.916754">
        <ele>337.75</ele>
      </trkpt>
      <trkpt lat="18.7317" lon="98.916781">
        <ele>337.5</ele>
      </trkpt>
      <trkpt lat="18.731738" lon="98.917446">
        <ele>336</ele>
      </trkpt>
      <trkpt lat="18.731733" lon="98.917864">
        <ele>335</ele>
      </trkpt>
      <trkpt lat="18.731721" lon="98.918004">
        <ele>334.75</ele>
      </trkpt>
      <trkpt lat="18.731671" lon="98.918382">
        <ele>333.75</ele>
      </trkpt>
      <trkpt lat="18.731565" lon="98.91877">
        <ele>333</ele>
      </trkpt>
      <trkpt lat="18.731453" lon="98.918999">
        <ele>333</ele>
      </trkpt>
      <trkpt lat="18.731168" lon="98.919305">
        <ele>332.75</ele>
      </trkpt>
      <trkpt lat="18.730916" lon="98.919551">
        <ele>331.5</ele>
      </trkpt>
      <trkpt lat="18.730696" lon="98.919583">
        <ele>331</ele>
      </trkpt>
      <trkpt lat="18.730438" lon="98.919644">
        <ele>329.75</ele>
      </trkpt>
      <trkpt lat="18.730147" lon="98.919775">
        <ele>328</ele>
      </trkpt>
      <trkpt lat="18.729761" lon="98.919941">
        <ele>325.75</ele>
      </trkpt>
      <trkpt lat="18.729512" lon="98.92004">
        <ele>325.25</ele>
      </trkpt>
      <trkpt lat="18.729297" lon="98.920092">
        <ele>325</ele>
      </trkpt>
      <trkpt lat="18.729162" lon="98.920147">
        <ele>325</ele>
      </trkpt>
      <trkpt lat="18.72896" lon="98.920425">
        <ele>325.75</ele>
      </trkpt>
      <trkpt lat="18.728888" lon="98.920484">
        <ele>326</ele>
      </trkpt>
      <trkpt lat="18.728435" lon="98.920512">
        <ele>326.75</ele>
      </trkpt>
      <trkpt lat="18.728372" lon="98.920532">
        <ele>327</ele>
      </trkpt>
      <trkpt lat="18.728325" lon="98.920587">
        <ele>327.5</ele>
      </trkpt>
      <trkpt lat="18.728185" lon="98.920857">
        <ele>328</ele>
      </trkpt>
      <trkpt lat="18.727941" lon="98.921345">
        <ele>326.25</ele>
      </trkpt>
      <trkpt lat="18.727792" lon="98.921621">
        <ele>326.75</ele>
      </trkpt>
      <trkpt lat="18.727598" lon="98.922086">
        <ele>326.5</ele>
      </trkpt>
      <trkpt lat="18.727392" lon="98.922485">
        <ele>325</ele>
      </trkpt>
      <trkpt lat="18.727223" lon="98.922791">
        <ele>325.25</ele>
      </trkpt>
      <trkpt lat="18.72719" lon="98.922752">
        <ele>325.25</ele>
      </trkpt>
      <trkpt lat="18.727026" lon="98.922705">
        <ele>325.5</ele>
      </trkpt>
      <trkpt lat="18.726865" lon="98.922622">
        <ele>325.75</ele>
      </trkpt>
      <trkpt lat="18.726779" lon="98.922549">
        <ele>325.75</ele>
      </trkpt>
      <trkpt lat="18.726793" lon="98.922469">
        <ele>325.75</ele>
      </trkpt>
      <trkpt lat="18.726784" lon="98.92243">
        <ele>326</ele>
      </trkpt>
      <trkpt lat="18.726408" lon="98.922164">
        <ele>326.75</ele>
      </trkpt>
      <trkpt lat="18.726266" lon="98.922113">
        <ele>326.5</ele>
      </trkpt>
      <trkpt lat="18.725953" lon="98.922079">
        <ele>326</ele>
      </trkpt>
      <trkpt lat="18.725743" lon="98.922012">
        <ele>326</ele>
      </trkpt>
      <trkpt lat="18.725344" lon="98.921833">
        <ele>326</ele>
      </trkpt>
      <trkpt lat="18.725034" lon="98.922606">
        <ele>324</ele>
      </trkpt>
      <trkpt lat="18.724976" lon="98.922794">
        <ele>324.25</ele>
      </trkpt>
      <trkpt lat="18.724976" lon="98.922794">
        <ele>324.25</ele>
      </trkpt>
      <trkpt lat="18.724976" lon="98.922794">
        <ele>324.25</ele>
      </trkpt>
      <trkpt lat="18.724973" lon="98.92285">
        <ele>324.25</ele>
      </trkpt>
      <trkpt lat="18.72497" lon="98.922887">
        <ele>324.25</ele>
      </trkpt>
      <trkpt lat="18.724963" lon="98.923013">
        <ele>324.5</ele>
      </trkpt>
      <trkpt lat="18.724998" lon="98.923426">
        <ele>324.75</ele>
      </trkpt>
      <trkpt lat="18.725009" lon="98.923545">
        <ele>324.25</ele>
      </trkpt>
      <trkpt lat="18.725023" lon="98.923914">
        <ele>323.5</ele>
      </trkpt>
      <trkpt lat="18.725037" lon="98.924289">
        <ele>322.75</ele>
      </trkpt>
      <trkpt lat="18.725014" lon="98.92449">
        <ele>322.5</ele>
      </trkpt>
      <trkpt lat="18.724742" lon="98.92542">
        <ele>322.25</ele>
      </trkpt>
      <trkpt lat="18.724692" lon="98.92559">
        <ele>322.25</ele>
      </trkpt>
      <trkpt lat="18.724671" lon="98.925873">
        <ele>322.25</ele>
      </trkpt>
      <trkpt lat="18.724611" lon="98.926325">
        <ele>322.75</ele>
      </trkpt>
      <trkpt lat="18.724603" lon="98.926411">
        <ele>322.75</ele>
      </trkpt>
      <trkpt lat="18.724594" lon="98.926505">
        <ele>322.75</ele>
      </trkpt>
      <trkpt lat="18.72463" lon="98.926636">
        <ele>322.75</ele>
      </trkpt>
      <trkpt lat="18.724659" lon="98.926688">
        <ele>322.75</ele>
      </trkpt>
      <trkpt lat="18.724691" lon="98.92673">
        <ele>322.75</ele>
      </trkpt>
      <trkpt lat="18.724744" lon="98.926775">
        <ele>322.75</ele>
      </trkpt>
      <trkpt lat="18.724851" lon="98.926828">
        <ele>322.75</ele>
      </trkpt>
      <trkpt lat="18.725194" lon="98.926766">
        <ele>322.5</ele>
      </trkpt>
      <trkpt lat="18.725883" lon="98.926646">
        <ele>320.75</ele>
      </trkpt>
      <trkpt lat="18.726306" lon="98.926569">
        <ele>320.75</ele>
      </trkpt>
      <trkpt lat="18.727581" lon="98.926335">
        <ele>318.75</ele>
      </trkpt>
      <trkpt lat="18.728229" lon="98.926225">
        <ele>318</ele>
      </trkpt>
      <trkpt lat="18.728547" lon="98.926196">
        <ele>318</ele>
      </trkpt>
      <trkpt lat="18.728803" lon="98.926196">
        <ele>318.25</ele>
      </trkpt>
      <trkpt lat="18.728966" lon="98.926221">
        <ele>318.5</ele>
      </trkpt>
      <trkpt lat="18.729217" lon="98.926297">
        <ele>319</ele>
      </trkpt>
      <trkpt lat="18.732826" lon="98.926321">
        <ele>321</ele>
      </trkpt>
      <trkpt lat="18.733311" lon="98.92634">
        <ele>320.25</ele>
      </trkpt>
      <trkpt lat="18.733541" lon="98.926359">
        <ele>320.25</ele>
      </trkpt>
      <trkpt lat="18.73372" lon="98.926387">
        <ele>320</ele>
      </trkpt>
      <trkpt lat="18.733874" lon="98.926434">
        <ele>319.75</ele>
      </trkpt>
      <trkpt lat="18.73404" lon="98.926493">
        <ele>319.5</ele>
      </trkpt>
      <trkpt lat="18.734206" lon="98.926588">
        <ele>319.25</ele>
      </trkpt>
      <trkpt lat="18.734355" lon="98.926705">
        <ele>319</ele>
      </trkpt>
      <trkpt lat="18.734515" lon="98.926865">
        <ele>319</ele>
      </trkpt>
      <trkpt lat="18.73468" lon="98.927113">
        <ele>319</ele>
      </trkpt>
      <trkpt lat="18.73477" lon="98.927304">
        <ele>319</ele>
      </trkpt>
      <trkpt lat="18.734847" lon="98.927626">
        <ele>319</ele>
      </trkpt>
      <trkpt lat="18.735001" lon="98.929002">
        <ele>321</ele>
      </trkpt>
      <trkpt lat="18.73501" lon="98.929087">
        <ele>321</ele>
      </trkpt>
      <trkpt lat="18.735023" lon="98.929173">
        <ele>321</ele>
      </trkpt>
      <trkpt lat="18.735035" lon="98.92925">
        <ele>321</ele>
      </trkpt>
      <trkpt lat="18.735075" lon="98.929563">
        <ele>321</ele>
      </trkpt>
      <trkpt lat="18.735124" lon="98.929794">
        <ele>321</ele>
      </trkpt>
      <trkpt lat="18.735181" lon="98.929975">
        <ele>321</ele>
      </trkpt>
      <trkpt lat="18.735226" lon="98.93007">
        <ele>321</ele>
      </trkpt>
      <trkpt lat="18.735278" lon="98.930181">
        <ele>320.75</ele>
      </trkpt>
      <trkpt lat="18.735424" lon="98.930387">
        <ele>320.5</ele>
      </trkpt>
      <trkpt lat="18.735603" lon="98.930584">
        <ele>320</ele>
      </trkpt>
      <trkpt lat="18.735716" lon="98.93067">
        <ele>319.5</ele>
      </trkpt>
      <trkpt lat="18.735896" lon="98.93079">
        <ele>319.25</ele>
      </trkpt>
      <trkpt lat="18.736424" lon="98.9311">
        <ele>320.75</ele>
      </trkpt>
      <trkpt lat="18.737393" lon="98.93162">
        <ele>322</ele>
      </trkpt>
      <trkpt lat="18.737794" lon="98.931836">
        <ele>322.25</ele>
      </trkpt>
      <trkpt lat="18.737796" lon="98.931838">
        <ele>322.25</ele>
      </trkpt>
      <trkpt lat="18.738158" lon="98.932053">
        <ele>322.75</ele>
      </trkpt>
      <trkpt lat="18.738229" lon="98.932095">
        <ele>322.75</ele>
      </trkpt>
      <trkpt lat="18.738389" lon="98.932205">
        <ele>322.75</ele>
      </trkpt>
      <trkpt lat="18.738528" lon="98.932301">
        <ele>322.5</ele>
      </trkpt>
      <trkpt lat="18.738643" lon="98.932388">
        <ele>322.25</ele>
      </trkpt>
      <trkpt lat="18.738724" lon="98.932455">
        <ele>322</ele>
      </trkpt>
      <trkpt lat="18.738841" lon="98.932564">
        <ele>321.5</ele>
      </trkpt>
      <trkpt lat="18.738972" lon="98.932711">
        <ele>321.25</ele>
      </trkpt>
      <trkpt lat="18.739026" lon="98.93278">
        <ele>321</ele>
      </trkpt>
      <trkpt lat="18.739102" lon="98.932898">
        <ele>321</ele>
      </trkpt>
      <trkpt lat="18.739158" lon="98.932984">
        <ele>321</ele>
      </trkpt>
      <trkpt lat="18.73937" lon="98.933345">
        <ele>320.75</ele>
      </trkpt>
      <trkpt lat="18.739737" lon="98.933959">
        <ele>321.5</ele>
      </trkpt>
      <trkpt lat="18.740119" lon="98.934582">
        <ele>321.75</ele>
      </trkpt>
      <trkpt lat="18.740188" lon="98.934696">
        <ele>321.5</ele>
      </trkpt>
      <trkpt lat="18.740377" lon="98.935012">
        <ele>321</ele>
      </trkpt>
      <trkpt lat="18.740478" lon="98.935188">
        <ele>321</ele>
      </trkpt>
      <trkpt lat="18.740492" lon="98.935211">
        <ele>321</ele>
      </trkpt>
      <trkpt lat="18.740513" lon="98.935245">
        <ele>321</ele>
      </trkpt>
      <trkpt lat="18.740863" lon="98.93581">
        <ele>321</ele>
      </trkpt>
      <trkpt lat="18.741766" lon="98.937282">
        <ele>320</ele>
      </trkpt>
      <trkpt lat="18.742054" lon="98.937741">
        <ele>319.75</ele>
      </trkpt>
      <trkpt lat="18.742206" lon="98.938">
        <ele>320.25</ele>
      </trkpt>
      <trkpt lat="18.742353" lon="98.938235">
        <ele>320.75</ele>
      </trkpt>
      <trkpt lat="18.742471" lon="98.93842">
        <ele>320.75</ele>
      </trkpt>
      <trkpt lat="18.742783" lon="98.938921">
        <ele>319.75</ele>
      </trkpt>
      <trkpt lat="18.742867" lon="98.939057">
        <ele>319.5</ele>
      </trkpt>
      <trkpt lat="18.742985" lon="98.939245">
        <ele>319.5</ele>
      </trkpt>
      <trkpt lat="18.743313" lon="98.939771">
        <ele>320.5</ele>
      </trkpt>
      <trkpt lat="18.743847" lon="98.940621">
        <ele>320.75</ele>
      </trkpt>
      <trkpt lat="18.744164" lon="98.941127">
        <ele>320.25</ele>
      </trkpt>
      <trkpt lat="18.744269" lon="98.941265">
        <ele>320</ele>
      </trkpt>
      <trkpt lat="18.744382" lon="98.941368">
        <ele>319.75</ele>
      </trkpt>
      <trkpt lat="18.74452" lon="98.941449">
        <ele>319.75</ele>
      </trkpt>
      <trkpt lat="18.74468" lon="98.941499">
        <ele>320</ele>
      </trkpt>
      <trkpt lat="18.744827" lon="98.941513">
        <ele>320</ele>
      </trkpt>
      <trkpt lat="18.745014" lon="98.941502">
        <ele>320.25</ele>
      </trkpt>
      <trkpt lat="18.745305" lon="98.941463">
        <ele>320</ele>
      </trkpt>
      <trkpt lat="18.745334" lon="98.941458">
        <ele>320</ele>
      </trkpt>
      <trkpt lat="18.745764" lon="98.941394">
        <ele>320</ele>
      </trkpt>
      <trkpt lat="18.746109" lon="98.941343">
        <ele>321</ele>
      </trkpt>
      <trkpt lat="18.746239" lon="98.941324">
        <ele>321.25</ele>
      </trkpt>
      <trkpt lat="18.747078" lon="98.941217">
        <ele>322.5</ele>
      </trkpt>
      <trkpt lat="18.747205" lon="98.941204">
        <ele>322.25</ele>
      </trkpt>
      <trkpt lat="18.747411" lon="98.941182">
        <ele>322.25</ele>
      </trkpt>
      <trkpt lat="18.747661" lon="98.941161">
        <ele>322</ele>
      </trkpt>
      <trkpt lat="18.74803" lon="98.941105">
        <ele>321.5</ele>
      </trkpt>
      <trkpt lat="18.748621" lon="98.941024">
        <ele>321.5</ele>
      </trkpt>
      <trkpt lat="18.748996" lon="98.940962">
        <ele>321.5</ele>
      </trkpt>
      <trkpt lat="18.749189" lon="98.940932">
        <ele>321.5</ele>
      </trkpt>
      <trkpt lat="18.749255" lon="98.940921">
        <ele>321.5</ele>
      </trkpt>
      <trkpt lat="18.749281" lon="98.940917">
        <ele>321.25</ele>
      </trkpt>
      <trkpt lat="18.74942" lon="98.940903">
        <ele>321</ele>
      </trkpt>
      <trkpt lat="18.74942" lon="98.940938">
        <ele>320.75</ele>
      </trkpt>
      <trkpt lat="18.74942" lon="98.941162">
        <ele>320.75</ele>
      </trkpt>
      <trkpt lat="18.74942" lon="98.94119">
        <ele>320.75</ele>
      </trkpt>
      <trkpt lat="18.749397" lon="98.941338">
        <ele>320.5</ele>
      </trkpt>
      <trkpt lat="18.749223" lon="98.942464">
        <ele>318</ele>
      </trkpt>
      <trkpt lat="18.749137" lon="98.943062">
        <ele>318</ele>
      </trkpt>
      <trkpt lat="18.749121" lon="98.943156">
        <ele>318</ele>
      </trkpt>
      <trkpt lat="18.749046" lon="98.943609">
        <ele>319.5</ele>
      </trkpt>
      <trkpt lat="18.748807" lon="98.945151">
        <ele>320</ele>
      </trkpt>
      <trkpt lat="18.748599" lon="98.946497">
        <ele>317.25</ele>
      </trkpt>
      <trkpt lat="18.748478" lon="98.947218">
        <ele>314.5</ele>
      </trkpt>
      <trkpt lat="18.748341" lon="98.948045">
        <ele>312.75</ele>
      </trkpt>
      <trkpt lat="18.748251" lon="98.948517">
        <ele>313.75</ele>
      </trkpt>
      <trkpt lat="18.748154" lon="98.948905">
        <ele>314.75</ele>
      </trkpt>
      <trkpt lat="18.748146" lon="98.948936">
        <ele>315</ele>
      </trkpt>
      <trkpt lat="18.748146" lon="98.948936">
        <ele>314.75</ele>
      </trkpt>
      <trkpt lat="18.748126" lon="98.949029">
        <ele>315</ele>
      </trkpt>
      <trkpt lat="18.747816" lon="98.949924">
        <ele>314.75</ele>
      </trkpt>
      <trkpt lat="18.747733" lon="98.950137">
        <ele>314.5</ele>
      </trkpt>
      <trkpt lat="18.747424" lon="98.950924">
        <ele>312.25</ele>
      </trkpt>
      <trkpt lat="18.747328" lon="98.951151">
        <ele>313</ele>
      </trkpt>
      <trkpt lat="18.74713" lon="98.951647">
        <ele>314.25</ele>
      </trkpt>
      <trkpt lat="18.747012" lon="98.951944">
        <ele>314</ele>
      </trkpt>
      <trkpt lat="18.746798" lon="98.952487">
        <ele>313</ele>
      </trkpt>
      <trkpt lat="18.746539" lon="98.953137">
        <ele>313</ele>
      </trkpt>
      <trkpt lat="18.746591" lon="98.953187">
        <ele>313</ele>
      </trkpt>
      <trkpt lat="18.747009" lon="98.953725">
        <ele>312</ele>
      </trkpt>
      <trkpt lat="18.747028" lon="98.953743">
        <ele>312</ele>
      </trkpt>
      <trkpt lat="18.747211" lon="98.953974">
        <ele>312.25</ele>
      </trkpt>
      <trkpt lat="18.747324" lon="98.954118">
        <ele>312.5</ele>
      </trkpt>
      <trkpt lat="18.747518" lon="98.954372">
        <ele>312.75</ele>
      </trkpt>
      <trkpt lat="18.747828" lon="98.954781">
        <ele>312.75</ele>
      </trkpt>
      <trkpt lat="18.748165" lon="98.955215">
        <ele>313</ele>
      </trkpt>
      <trkpt lat="18.74824" lon="98.955311">
        <ele>313.25</ele>
      </trkpt>
      <trkpt lat="18.748585" lon="98.955769">
        <ele>313.25</ele>
      </trkpt>
      <trkpt lat="18.748681" lon="98.955903">
        <ele>313</ele>
      </trkpt>
      <trkpt lat="18.748782" lon="98.956052">
        <ele>312.75</ele>
      </trkpt>
      <trkpt lat="18.748822" lon="98.956129">
        <ele>312.75</ele>
      </trkpt>
      <trkpt lat="18.748875" lon="98.956268">
        <ele>312.5</ele>
      </trkpt>
      <trkpt lat="18.748915" lon="98.956397">
        <ele>312.5</ele>
      </trkpt>
      <trkpt lat="18.748991" lon="98.956683">
        <ele>312.25</ele>
      </trkpt>
      <trkpt lat="18.74904" lon="98.95689">
        <ele>312</ele>
      </trkpt>
      <trkpt lat="18.749071" lon="98.957297">
        <ele>311.25</ele>
      </trkpt>
      <trkpt lat="18.749091" lon="98.957706">
        <ele>311</ele>
      </trkpt>
      <trkpt lat="18.7491" lon="98.957917">
        <ele>311</ele>
      </trkpt>
      <trkpt lat="18.749106" lon="98.958114">
        <ele>311</ele>
      </trkpt>
      <trkpt lat="18.749124" lon="98.958536">
        <ele>311</ele>
      </trkpt>
      <trkpt lat="18.74914" lon="98.958934">
        <ele>310.75</ele>
      </trkpt>
      <trkpt lat="18.749142" lon="98.958972">
        <ele>310.75</ele>
      </trkpt>
      <trkpt lat="18.749161" lon="98.959347">
        <ele>310.75</ele>
      </trkpt>
      <trkpt lat="18.74917" lon="98.959556">
        <ele>310.75</ele>
      </trkpt>
      <trkpt lat="18.749179" lon="98.959763">
        <ele>310.75</ele>
      </trkpt>
      <trkpt lat="18.749189" lon="98.960105">
        <ele>310.25</ele>
      </trkpt>
      <trkpt lat="18.74919" lon="98.960181">
        <ele>310</ele>
      </trkpt>
      <trkpt lat="18.749197" lon="98.960283">
        <ele>309.5</ele>
      </trkpt>
      <trkpt lat="18.749217" lon="98.960494">
        <ele>308.5</ele>
      </trkpt>
      <trkpt lat="18.749225" lon="98.960576">
        <ele>308</ele>
      </trkpt>
      <trkpt lat="18.749227" lon="98.960595">
        <ele>308</ele>
      </trkpt>
      <trkpt lat="18.749246" lon="98.960596">
        <ele>307.75</ele>
      </trkpt>
      <trkpt lat="18.753556" lon="98.960573">
        <ele>307.75</ele>
      </trkpt>
      <trkpt lat="18.75619" lon="98.960587">
        <ele>307</ele>
      </trkpt>
      <trkpt lat="18.758533" lon="98.960605">
        <ele>307.75</ele>
      </trkpt>
      <trkpt lat="18.758561" lon="98.960599">
        <ele>307.75</ele>
      </trkpt>
      <trkpt lat="18.758587" lon="98.960438">
        <ele>308.25</ele>
      </trkpt>
      <trkpt lat="18.758732" lon="98.959969">
        <ele>309.5</ele>
      </trkpt>
      <trkpt lat="18.758974" lon="98.959205">
        <ele>311</ele>
      </trkpt>
      <trkpt lat="18.758977" lon="98.959197">
        <ele>311</ele>
      </trkpt>
      <trkpt lat="18.758995" lon="98.959119">
        <ele>311</ele>
      </trkpt>
      <trkpt lat="18.75915" lon="98.958621">
        <ele>311</ele>
      </trkpt>
      <trkpt lat="18.759239" lon="98.958636">
        <ele>310.75</ele>
      </trkpt>
      <trkpt lat="18.759259" lon="98.958557">
        <ele>310.75</ele>
      </trkpt>
      <trkpt lat="18.75942" lon="98.958054">
        <ele>310.75</ele>
      </trkpt>
      <trkpt lat="18.759596" lon="98.957505">
        <ele>311</ele>
      </trkpt>
      <trkpt lat="18.759611" lon="98.957459">
        <ele>310.75</ele>
      </trkpt>
      <trkpt lat="18.759766" lon="98.956972">
        <ele>309.5</ele>
      </trkpt>
      <trkpt lat="18.759836" lon="98.956752">
        <ele>309</ele>
      </trkpt>
      <trkpt lat="18.759953" lon="98.9564">
        <ele>308</ele>
      </trkpt>
      <trkpt lat="18.760007" lon="98.956359">
        <ele>307.75</ele>
      </trkpt>
      <trkpt lat="18.76007" lon="98.95633">
        <ele>308</ele>
      </trkpt>
      <trkpt lat="18.760192" lon="98.956328">
        <ele>308.5</ele>
      </trkpt>
      <trkpt lat="18.760333" lon="98.956338">
        <ele>309.25</ele>
      </trkpt>
      <trkpt lat="18.760678" lon="98.956375">
        <ele>310.75</ele>
      </trkpt>
      <trkpt lat="18.760799" lon="98.956361">
        <ele>311.25</ele>
      </trkpt>
      <trkpt lat="18.760854" lon="98.956337">
        <ele>311.5</ele>
      </trkpt>
      <trkpt lat="18.761016" lon="98.95627">
        <ele>311.75</ele>
      </trkpt>
      <trkpt lat="18.761308" lon="98.95617">
        <ele>312.25</ele>
      </trkpt>
      <trkpt lat="18.761452" lon="98.956081">
        <ele>312.5</ele>
      </trkpt>
      <trkpt lat="18.761434" lon="98.955989">
        <ele>312.25</ele>
      </trkpt>
      <trkpt lat="18.761401" lon="98.955818">
        <ele>312.25</ele>
      </trkpt>
      <trkpt lat="18.761391" lon="98.955641">
        <ele>312.25</ele>
      </trkpt>
      <trkpt lat="18.761397" lon="98.95561">
        <ele>312.25</ele>
      </trkpt>
      <trkpt lat="18.761431" lon="98.955453">
        <ele>312.25</ele>
      </trkpt>
      <trkpt lat="18.761551" lon="98.955031">
        <ele>312.5</ele>
      </trkpt>
      <trkpt lat="18.761581" lon="98.954848">
        <ele>312.75</ele>
      </trkpt>
      <trkpt lat="18.761616" lon="98.954421">
        <ele>313.5</ele>
      </trkpt>
      <trkpt lat="18.761652" lon="98.953804">
        <ele>313.75</ele>
      </trkpt>
      <trkpt lat="18.76164" lon="98.953554">
        <ele>313.75</ele>
      </trkpt>
      <trkpt lat="18.761599" lon="98.953227">
        <ele>314.25</ele>
      </trkpt>
      <trkpt lat="18.761602" lon="98.952967">
        <ele>315</ele>
      </trkpt>
      <trkpt lat="18.761746" lon="98.952253">
        <ele>316.5</ele>
      </trkpt>
      <trkpt lat="18.761782" lon="98.952165">
        <ele>316.25</ele>
      </trkpt>
      <trkpt lat="18.761806" lon="98.95213">
        <ele>316.25</ele>
      </trkpt>
      <trkpt lat="18.761843" lon="98.952078">
        <ele>316</ele>
      </trkpt>
      <trkpt lat="18.761921" lon="98.952022">
        <ele>316</ele>
      </trkpt>
      <trkpt lat="18.762094" lon="98.951933">
        <ele>315.75</ele>
      </trkpt>
      <trkpt lat="18.762163" lon="98.951859">
        <ele>315.75</ele>
      </trkpt>
      <trkpt lat="18.762392" lon="98.951517">
        <ele>316</ele>
      </trkpt>
      <trkpt lat="18.762545" lon="98.951234">
        <ele>316.25</ele>
      </trkpt>
      <trkpt lat="18.762649" lon="98.951016">
        <ele>316.25</ele>
      </trkpt>
      <trkpt lat="18.763243" lon="98.949811">
        <ele>315.5</ele>
      </trkpt>
      <trkpt lat="18.763329" lon="98.949586">
        <ele>316.25</ele>
      </trkpt>
      <trkpt lat="18.763378" lon="98.949403">
        <ele>317</ele>
      </trkpt>
      <trkpt lat="18.76343" lon="98.949166">
        <ele>318</ele>
      </trkpt>
      <trkpt lat="18.763552" lon="98.948662">
        <ele>318.25</ele>
      </trkpt>
      <trkpt lat="18.763566" lon="98.948481">
        <ele>318.25</ele>
      </trkpt>
      <trkpt lat="18.763536" lon="98.948301">
        <ele>318.25</ele>
      </trkpt>
      <trkpt lat="18.763538" lon="98.948143">
        <ele>318.5</ele>
      </trkpt>
      <trkpt lat="18.763598" lon="98.947983">
        <ele>319</ele>
      </trkpt>
      <trkpt lat="18.763684" lon="98.947882">
        <ele>319.5</ele>
      </trkpt>
      <trkpt lat="18.763871" lon="98.947757">
        <ele>320.5</ele>
      </trkpt>
      <trkpt lat="18.76391" lon="98.947733">
        <ele>320.75</ele>
      </trkpt>
      <trkpt lat="18.764314" lon="98.94755">
        <ele>322.75</ele>
      </trkpt>
      <trkpt lat="18.764855" lon="98.947262">
        <ele>324</ele>
      </trkpt>
      <trkpt lat="18.765117" lon="98.947176">
        <ele>324.25</ele>
      </trkpt>
      <trkpt lat="18.76541" lon="98.947472">
        <ele>323.5</ele>
      </trkpt>
      <trkpt lat="18.765494" lon="98.947557">
        <ele>323.25</ele>
      </trkpt>
      <trkpt lat="18.766093" lon="98.948158">
        <ele>321.25</ele>
      </trkpt>
      <trkpt lat="18.766455" lon="98.948536">
        <ele>320.75</ele>
      </trkpt>
      <trkpt lat="18.766672" lon="98.948764">
        <ele>321</ele>
      </trkpt>
      <trkpt lat="18.766741" lon="98.948834">
        <ele>321</ele>
      </trkpt>
      <trkpt lat="18.766797" lon="98.948892">
        <ele>321</ele>
      </trkpt>
      <trkpt lat="18.767988" lon="98.950077">
        <ele>321.25</ele>
      </trkpt>
      <trkpt lat="18.768146" lon="98.950213">
        <ele>321.75</ele>
      </trkpt>
      <trkpt lat="18.768428" lon="98.950366">
        <ele>322.5</ele>
      </trkpt>
      <trkpt lat="18.768529" lon="98.95042">
        <ele>322.5</ele>
      </trkpt>
      <trkpt lat="18.769023" lon="98.950614">
        <ele>323</ele>
      </trkpt>
      <trkpt lat="18.769051" lon="98.950565">
        <ele>323</ele>
      </trkpt>
      <trkpt lat="18.769061" lon="98.950548">
        <ele>323</ele>
      </trkpt>
      <trkpt lat="18.769078" lon="98.950512">
        <ele>323.25</ele>
      </trkpt>
      <trkpt lat="18.769151" lon="98.950329">
        <ele>323.5</ele>
      </trkpt>
      <trkpt lat="18.769163" lon="98.950282">
        <ele>323.5</ele>
      </trkpt>
      <trkpt lat="18.769201" lon="98.950137">
        <ele>323.75</ele>
      </trkpt>
      <trkpt lat="18.769209" lon="98.950105">
        <ele>323.75</ele>
      </trkpt>
      <trkpt lat="18.769877" lon="98.950295">
        <ele>324.5</ele>
      </trkpt>
      <trkpt lat="18.770324" lon="98.950422">
        <ele>324.5</ele>
      </trkpt>
      <trkpt lat="18.772271" lon="98.950956">
        <ele>324.75</ele>
      </trkpt>
      <trkpt lat="18.772358" lon="98.950981">
        <ele>324.5</ele>
      </trkpt>
      <trkpt lat="18.772942" lon="98.951151">
        <ele>323.5</ele>
      </trkpt>
      <trkpt lat="18.773087" lon="98.951193">
        <ele>323.5</ele>
      </trkpt>
      <trkpt lat="18.773426" lon="98.951294">
        <ele>323.25</ele>
      </trkpt>
      <trkpt lat="18.773541" lon="98.95132">
        <ele>323.25</ele>
      </trkpt>
      <trkpt lat="18.773883" lon="98.951429">
        <ele>322.75</ele>
      </trkpt>
      <trkpt lat="18.774173" lon="98.951532">
        <ele>322.25</ele>
      </trkpt>
      <trkpt lat="18.774447" lon="98.95165">
        <ele>322.5</ele>
      </trkpt>
      <trkpt lat="18.774709" lon="98.951779">
        <ele>323.25</ele>
      </trkpt>
      <trkpt lat="18.77497" lon="98.951921">
        <ele>323.75</ele>
      </trkpt>
      <trkpt lat="18.775256" lon="98.952099">
        <ele>324.5</ele>
      </trkpt>
      <trkpt lat="18.776111" lon="98.952638">
        <ele>325.5</ele>
      </trkpt>
      <trkpt lat="18.77639" lon="98.952821">
        <ele>326</ele>
      </trkpt>
      <trkpt lat="18.77682" lon="98.953103">
        <ele>326.25</ele>
      </trkpt>
      <trkpt lat="18.776971" lon="98.953201">
        <ele>326.25</ele>
      </trkpt>
      <trkpt lat="18.777054" lon="98.953268">
        <ele>326</ele>
      </trkpt>
      <trkpt lat="18.777137" lon="98.953334">
        <ele>326</ele>
      </trkpt>
      <trkpt lat="18.777282" lon="98.953466">
        <ele>326</ele>
      </trkpt>
      <trkpt lat="18.777377" lon="98.953562">
        <ele>326.25</ele>
      </trkpt>
      <trkpt lat="18.777526" lon="98.953761">
        <ele>327</ele>
      </trkpt>
      <trkpt lat="18.777643" lon="98.953979">
        <ele>328</ele>
      </trkpt>
      <trkpt lat="18.777739" lon="98.954227">
        <ele>329</ele>
      </trkpt>
      <trkpt lat="18.777803" lon="98.954453">
        <ele>328.5</ele>
      </trkpt>
      <trkpt lat="18.778412" lon="98.95689">
        <ele>324.5</ele>
      </trkpt>
      <trkpt lat="18.778484" lon="98.957082">
        <ele>325</ele>
      </trkpt>
      <trkpt lat="18.778578" lon="98.957264">
        <ele>325.25</ele>
      </trkpt>
      <trkpt lat="18.778714" lon="98.957466">
        <ele>325.5</ele>
      </trkpt>
      <trkpt lat="18.778876" lon="98.957646">
        <ele>324.75</ele>
      </trkpt>
      <trkpt lat="18.779045" lon="98.957779">
        <ele>324</ele>
      </trkpt>
      <trkpt lat="18.779123" lon="98.95783">
        <ele>323.75</ele>
      </trkpt>
      <trkpt lat="18.7793" lon="98.957924">
        <ele>323.75</ele>
      </trkpt>
      <trkpt lat="18.779406" lon="98.957971">
        <ele>323.75</ele>
      </trkpt>
      <trkpt lat="18.779616" lon="98.958034">
        <ele>324.25</ele>
      </trkpt>
      <trkpt lat="18.779823" lon="98.958073">
        <ele>324.75</ele>
      </trkpt>
      <trkpt lat="18.780014" lon="98.9581">
        <ele>325.25</ele>
      </trkpt>
      <trkpt lat="18.780337" lon="98.9581">
        <ele>325.25</ele>
      </trkpt>
      <trkpt lat="18.781207" lon="98.958109">
        <ele>325.75</ele>
      </trkpt>
      <trkpt lat="18.782206" lon="98.958117">
        <ele>326.75</ele>
      </trkpt>
      <trkpt lat="18.782621" lon="98.958121">
        <ele>326.75</ele>
      </trkpt>
      <trkpt lat="18.783549" lon="98.958137">
        <ele>324.75</ele>
      </trkpt>
      <trkpt lat="18.783828" lon="98.958138">
        <ele>324</ele>
      </trkpt>
      <trkpt lat="18.784007" lon="98.958155">
        <ele>323.5</ele>
      </trkpt>
      <trkpt lat="18.784193" lon="98.958181">
        <ele>323</ele>
      </trkpt>
      <trkpt lat="18.784437" lon="98.958224">
        <ele>323.5</ele>
      </trkpt>
      <trkpt lat="18.784876" lon="98.958352">
        <ele>324.5</ele>
      </trkpt>
      <trkpt lat="18.785531" lon="98.958596">
        <ele>325.75</ele>
      </trkpt>
      <trkpt lat="18.786599" lon="98.959005">
        <ele>327.25</ele>
      </trkpt>
      <trkpt lat="18.789913" lon="98.960194">
        <ele>325.25</ele>
      </trkpt>
      <trkpt lat="18.790957" lon="98.960568">
        <ele>325.75</ele>
      </trkpt>
      <trkpt lat="18.790998" lon="98.960583">
        <ele>325.75</ele>
      </trkpt>
      <trkpt lat="18.791085" lon="98.960617">
        <ele>325.75</ele>
      </trkpt>
      <trkpt lat="18.791077" lon="98.960642">
        <ele>325.75</ele>
      </trkpt>
      <trkpt lat="18.791031" lon="98.960793">
        <ele>325.75</ele>
      </trkpt>
      <trkpt lat="18.791018" lon="98.960838">
        <ele>325.75</ele>
      </trkpt>
      <trkpt lat="18.790891" lon="98.961213">
        <ele>326</ele>
      </trkpt>
      <trkpt lat="18.790756" lon="98.961638">
        <ele>325.75</ele>
      </trkpt>
      <trkpt lat="18.790726" lon="98.961726">
        <ele>325.5</ele>
      </trkpt>
      <trkpt lat="18.790191" lon="98.963353">
        <ele>324.25</ele>
      </trkpt>
      <trkpt lat="18.790181" lon="98.963494">
        <ele>323.75</ele>
      </trkpt>
      <trkpt lat="18.790221" lon="98.963601">
        <ele>323.5</ele>
      </trkpt>
      <trkpt lat="18.790264" lon="98.96368">
        <ele>323.5</ele>
      </trkpt>
      <trkpt lat="18.790369" lon="98.963828">
        <ele>323.25</ele>
      </trkpt>
      <trkpt lat="18.790684" lon="98.963941">
        <ele>324</ele>
      </trkpt>
      <trkpt lat="18.791187" lon="98.96412">
        <ele>323.25</ele>
      </trkpt>
      <trkpt lat="18.791376" lon="98.964188">
        <ele>322.5</ele>
      </trkpt>
      <trkpt lat="18.791645" lon="98.964284">
        <ele>321.75</ele>
      </trkpt>
      <trkpt lat="18.792328" lon="98.964529">
        <ele>320.25</ele>
      </trkpt>
      <trkpt lat="18.793149" lon="98.964823">
        <ele>321.5</ele>
      </trkpt>
      <trkpt lat="18.793879" lon="98.965084">
        <ele>322.5</ele>
      </trkpt>
      <trkpt lat="18.794575" lon="98.965331">
        <ele>323.75</ele>
      </trkpt>
      <trkpt lat="18.794796" lon="98.965419">
        <ele>324.25</ele>
      </trkpt>
      <trkpt lat="18.79502" lon="98.965505">
        <ele>324.25</ele>
      </trkpt>
      <trkpt lat="18.795319" lon="98.96562">
        <ele>324</ele>
      </trkpt>
      <trkpt lat="18.795536" lon="98.965703">
        <ele>324</ele>
      </trkpt>
      <trkpt lat="18.795818" lon="98.965811">
        <ele>324</ele>
      </trkpt>
      <trkpt lat="18.796107" lon="98.965922">
        <ele>323.25</ele>
      </trkpt>
      <trkpt lat="18.796221" lon="98.965966">
        <ele>323.25</ele>
      </trkpt>
      <trkpt lat="18.796337" lon="98.966008">
        <ele>323</ele>
      </trkpt>
      <trkpt lat="18.796697" lon="98.966147">
        <ele>322.5</ele>
      </trkpt>
      <trkpt lat="18.796922" lon="98.966233">
        <ele>323</ele>
      </trkpt>
      <trkpt lat="18.797126" lon="98.96631">
        <ele>323.5</ele>
      </trkpt>
      <trkpt lat="18.797729" lon="98.966534">
        <ele>324.25</ele>
      </trkpt>
      <trkpt lat="18.798331" lon="98.966771">
        <ele>324.75</ele>
      </trkpt>
      <trkpt lat="18.798578" lon="98.966862">
        <ele>325.5</ele>
      </trkpt>
      <trkpt lat="18.798757" lon="98.966927">
        <ele>325.75</ele>
      </trkpt>
      <trkpt lat="18.798582" lon="98.968564">
        <ele>323.25</ele>
      </trkpt>
      <trkpt lat="18.798412" lon="98.970071">
        <ele>324</ele>
      </trkpt>
      <trkpt lat="18.798368" lon="98.970366">
        <ele>323.5</ele>
      </trkpt>
      <trkpt lat="18.79836" lon="98.970428">
        <ele>323.5</ele>
      </trkpt>
      <trkpt lat="18.798286" lon="98.970921">
        <ele>322.5</ele>
      </trkpt>
      <trkpt lat="18.798274" lon="98.970996">
        <ele>322.25</ele>
      </trkpt>
      <trkpt lat="18.79827" lon="98.971026">
        <ele>322</ele>
      </trkpt>
      <trkpt lat="18.798564" lon="98.971095">
        <ele>322.5</ele>
      </trkpt>
      <trkpt lat="18.798764" lon="98.971149">
        <ele>322.5</ele>
      </trkpt>
      <trkpt lat="18.798905" lon="98.971184">
        <ele>322.75</ele>
      </trkpt>
      <trkpt lat="18.798992" lon="98.971203">
        <ele>322.75</ele>
      </trkpt>
      <trkpt lat="18.799167" lon="98.971242">
        <ele>323</ele>
      </trkpt>
      <trkpt lat="18.799473" lon="98.971326">
        <ele>322.75</ele>
      </trkpt>
      <trkpt lat="18.799537" lon="98.971366">
        <ele>322.75</ele>
      </trkpt>
      <trkpt lat="18.799436" lon="98.971559">
        <ele>322</ele>
      </trkpt>
      <trkpt lat="18.799204" lon="98.971998">
        <ele>321</ele>
      </trkpt>
      <trkpt lat="18.798732" lon="98.972889">
        <ele>321</ele>
      </trkpt>
      <trkpt lat="18.798624" lon="98.973091">
        <ele>321</ele>
      </trkpt>
      <trkpt lat="18.79854" lon="98.973248">
        <ele>321</ele>
      </trkpt>
      <trkpt lat="18.798403" lon="98.973512">
        <ele>321</ele>
      </trkpt>
      <trkpt lat="18.798253" lon="98.973796">
        <ele>321.25</ele>
      </trkpt>
      <trkpt lat="18.798194" lon="98.973908">
        <ele>321.25</ele>
      </trkpt>
      <trkpt lat="18.799113" lon="98.97438">
        <ele>320.75</ele>
      </trkpt>
      <trkpt lat="18.799161" lon="98.974405">
        <ele>320.5</ele>
      </trkpt>
      <trkpt lat="18.798886" lon="98.974995">
        <ele>319.5</ele>
      </trkpt>
      <trkpt lat="18.799363" lon="98.975229">
        <ele>319.75</ele>
      </trkpt>
      <trkpt lat="18.800426" lon="98.975553">
        <ele>317.5</ele>
      </trkpt>
      <trkpt lat="18.800733" lon="98.975643">
        <ele>316.5</ele>
      </trkpt>
      <trkpt lat="18.800784" lon="98.975662">
        <ele>316.25</ele>
      </trkpt>
      <trkpt lat="18.801134" lon="98.975773">
        <ele>316.75</ele>
      </trkpt>
      <trkpt lat="18.801334" lon="98.975026">
        <ele>317.5</ele>
      </trkpt>
      <trkpt lat="18.801508" lon="98.975052">
        <ele>317.75</ele>
      </trkpt>
      <trkpt lat="18.801622" lon="98.975069">
        <ele>317.75</ele>
      </trkpt>
      <trkpt lat="18.801819" lon="98.9751">
        <ele>318.5</ele>
      </trkpt>
      <trkpt lat="18.802341" lon="98.975179">
        <ele>320.25</ele>
      </trkpt>
      <trkpt lat="18.802873" lon="98.975249">
        <ele>320</ele>
      </trkpt>
      <trkpt lat="18.80339" lon="98.975335">
        <ele>319</ele>
      </trkpt>
      <trkpt lat="18.803524" lon="98.974255">
        <ele>319.75</ele>
      </trkpt>
      <trkpt lat="18.804001" lon="98.974344">
        <ele>319.5</ele>
      </trkpt>
      <trkpt lat="18.804484" lon="98.974434">
        <ele>318.75</ele>
      </trkpt>
      <trkpt lat="18.805049" lon="98.97454">
        <ele>318.25</ele>
      </trkpt>
      <trkpt lat="18.805548" lon="98.974633">
        <ele>318</ele>
      </trkpt>
      <trkpt lat="18.805483" lon="98.975206">
        <ele>320</ele>
      </trkpt>
    </trkseg>
  </trk>
</gpx>
