<?xml version="1.0" encoding="UTF-8"?>
<gpx xmlns="http://www.topografix.com/GPX/1/1" xmlns:gpx_style="http://www.topografix.com/GPX/gpx_style/0/2" xmlns:gpxpx="http://www.garmin.com/xmlschemas/PowerExtension/v1" xmlns:gpxtpx="http://www.garmin.com/xmlschemas/TrackPointExtension/v1" xmlns:gpxx="http://www.garmin.com/xmlschemas/GpxExtensions/v3" xmlns:route="http://gpx-routes.example.com/1.0" xmlns:xsi="http://www.w3.org/2001/XMLSchema-instance" xsi:schemaLocation="http://www.topografix.com/GPX/1/1 http://www.topografix.com/GPX/1/1/gpx.xsd http://www.garmin.com/xmlschemas/GpxExtensions/v3 http://www.garmin.com/xmlschemas/GpxExtensionsv3.xsd http://www.garmin.com/xmlschemas/TrackPointExtension/v1 http://www.garmin.com/xmlschemas/TrackPointExtensionv1.xsd http://www.garmin.com/xmlschemas/PowerExtension/v1 http://www.garmin.com/xmlschemas/PowerExtensionv1.xsd http://www.topografix.com/GPX/gpx_style/0/2 http://www.topografix.com/GPX/gpx_style/0/2/gpx_style.xsd" version="1.1" creator="https://gpx.studio">
  <metadata>
    <name>New file 1</name>
    <author>
      <name>gpx.studio</name>
      <link href="https://gpx.studio">
      </link>
    </author>
    <extensions>
      <route:distance>23.1</route:distance>
      <route:elevation>164</route:elevation>
    </extensions>
  </metadata>
  <trk>
    <name>New file 1</name>
    <trkseg>
      <trkpt lat="18.804056" lon="98.968754">
        <ele>320.25</ele>
      </trkpt>
      <trkpt lat="18.804048" lon="98.96878">
        <ele>320.25</ele>
      </trkpt>
      <trkpt lat="18.80405" lon="98.968853">
        <ele>320.0</ele>
      </trkpt>
      <trkpt lat="18.804022" lon="98.968851">
        <ele>320.0</ele>
      </trkpt>
      <trkpt lat="18.803866" lon="98.968823">
        <ele>320.75</ele>
      </trkpt>
      <trkpt lat="18.804477" lon="98.969227">
        <ele>321.0</ele>
      </trkpt>
      <trkpt lat="18.804876" lon="98.969517">
        <ele>324.5</ele>
      </trkpt>
      <trkpt lat="18.804883" lon="98.969522">
        <ele>323.0</ele>
      </trkpt>
      <trkpt lat="18.804882" lon="98.969521">
        <ele>324.25</ele>
      </trkpt>
      <trkpt lat="18.805543" lon="98.970001">
        <ele>323.0</ele>
      </trkpt>
      <trkpt lat="18.806028" lon="98.970434">
        <ele>319.25</ele>
      </trkpt>
      <trkpt lat="18.806295" lon="98.970662">
        <ele>319.25</ele>
      </trkpt>
      <trkpt lat="18.806772" lon="98.971122">
        <ele>320.5</ele>
      </trkpt>
      <trkpt lat="18.807011" lon="98.971353">
        <ele>321.5</ele>
      </trkpt>
      <trkpt lat="18.807087" lon="98.971425">
        <ele>322.0</ele>
      </trkpt>
      <trkpt lat="18.807507" lon="98.97179">
        <ele>323.5</ele>
      </trkpt>
      <trkpt lat="18.807538" lon="98.971802">
        <ele>323.25</ele>
      </trkpt>
      <trkpt lat="18.807578" lon="98.971808">
        <ele>323.25</ele>
      </trkpt>
      <trkpt lat="18.807617" lon="98.971796">
        <ele>323.25</ele>
      </trkpt>
      <trkpt lat="18.807664" lon="98.971851">
        <ele>323.0</ele>
      </trkpt>
      <trkpt lat="18.807613" lon="98.971947">
        <ele>322.75</ele>
      </trkpt>
      <trkpt lat="18.807585" lon="98.97205">
        <ele>322.5</ele>
      </trkpt>
      <trkpt lat="18.807582" lon="98.972191">
        <ele>322.0</ele>
      </trkpt>
      <trkpt lat="18.807596" lon="98.97232">
        <ele>321.75</ele>
      </trkpt>
      <trkpt lat="18.80763" lon="98.972411">
        <ele>321.5</ele>
      </trkpt>
      <trkpt lat="18.807818" lon="98.972647">
        <ele>322.0</ele>
      </trkpt>
      <trkpt lat="18.807818" lon="98.972646">
        <ele>321.75</ele>
      </trkpt>
      <trkpt lat="18.807854" lon="98.972691">
        <ele>322.0</ele>
      </trkpt>
      <trkpt lat="18.808189" lon="98.973086">
        <ele>323.25</ele>
      </trkpt>
      <trkpt lat="18.808627" lon="98.973707">
        <ele>320.0</ele>
      </trkpt>
      <trkpt lat="18.808785" lon="98.973945">
        <ele>317.5</ele>
      </trkpt>
      <trkpt lat="18.808892" lon="98.974104">
        <ele>317.5</ele>
      </trkpt>
      <trkpt lat="18.809216" lon="98.97399">
        <ele>317.25</ele>
      </trkpt>
      <trkpt lat="18.809216" lon="98.97399">
        <ele>317.25</ele>
      </trkpt>
      <trkpt lat="18.809339" lon="98.973986">
        <ele>317.25</ele>
      </trkpt>
      <trkpt lat="18.810609" lon="98.973943">
        <ele>319.5</ele>
      </trkpt>
      <trkpt lat="18.810642" lon="98.973941">
        <ele>319.75</ele>
      </trkpt>
      <trkpt lat="18.810779" lon="98.973934">
        <ele>319.75</ele>
      </trkpt>
      <trkpt lat="18.811408" lon="98.973904">
        <ele>320.75</ele>
      </trkpt>
      <trkpt lat="18.811733" lon="98.973888">
        <ele>320.75</ele>
      </trkpt>
      <trkpt lat="18.812338" lon="98.973864">
        <ele>320.5</ele>
      </trkpt>
      <trkpt lat="18.812796" lon="98.97379">
        <ele>320.0</ele>
      </trkpt>
      <trkpt lat="18.813797" lon="98.973627">
        <ele>320.0</ele>
      </trkpt>
      <trkpt lat="18.813885" lon="98.973613">
        <ele>320.0</ele>
      </trkpt>
      <trkpt lat="18.814022" lon="98.973591">
        <ele>320.25</ele>
      </trkpt>
      <trkpt lat="18.814765" lon="98.973478">
        <ele>320.25</ele>
      </trkpt>
      <trkpt lat="18.814866" lon="98.973473">
        <ele>320.25</ele>
      </trkpt>
      <trkpt lat="18.815224" lon="98.973477">
        <ele>319.5</ele>
      </trkpt>
      <trkpt lat="18.815441" lon="98.973485">
        <ele>318.75</ele>
      </trkpt>
      <trkpt lat="18.815641" lon="98.973491">
        <ele>318.25</ele>
      </trkpt>
      <trkpt lat="18.81573" lon="98.973494">
        <ele>317.75</ele>
      </trkpt>
      <trkpt lat="18.81577" lon="98.973495">
        <ele>317.75</ele>
      </trkpt>
      <trkpt lat="18.815836" lon="98.973493">
        <ele>317.5</ele>
      </trkpt>
      <trkpt lat="18.816456" lon="98.97347">
        <ele>316.25</ele>
      </trkpt>
      <trkpt lat="18.816826" lon="98.973445">
        <ele>316.0</ele>
      </trkpt>
      <trkpt lat="18.817193" lon="98.973495">
        <ele>316.25</ele>
      </trkpt>
      <trkpt lat="18.817254" lon="98.973511">
        <ele>316.25</ele>
      </trkpt>
      <trkpt lat="18.81733" lon="98.973532">
        <ele>316.5</ele>
      </trkpt>
      <trkpt lat="18.817542" lon="98.973635">
        <ele>316.75</ele>
      </trkpt>
      <trkpt lat="18.81802" lon="98.973865">
        <ele>318.0</ele>
      </trkpt>
      <trkpt lat="18.818521" lon="98.97409">
        <ele>319.75</ele>
      </trkpt>
      <trkpt lat="18.818971" lon="98.974286">
        <ele>320.75</ele>
      </trkpt>
      <trkpt lat="18.819077" lon="98.974008">
        <ele>321.75</ele>
      </trkpt>
      <trkpt lat="18.819208" lon="98.97373">
        <ele>322.5</ele>
      </trkpt>
      <trkpt lat="18.819597" lon="98.973026">
        <ele>320.25</ele>
      </trkpt>
      <trkpt lat="18.819829" lon="98.972609">
        <ele>319.0</ele>
      </trkpt>
      <trkpt lat="18.820131" lon="98.97207">
        <ele>319.25</ele>
      </trkpt>
      <trkpt lat="18.820216" lon="98.971898">
        <ele>320.0</ele>
      </trkpt>
      <trkpt lat="18.820285" lon="98.971739">
        <ele>320.5</ele>
      </trkpt>
      <trkpt lat="18.820445" lon="98.971362">
        <ele>321.25</ele>
      </trkpt>
      <trkpt lat="18.820508" lon="98.971214">
        <ele>321.5</ele>
      </trkpt>
      <trkpt lat="18.820654" lon="98.970817">
        <ele>321.75</ele>
      </trkpt>
      <trkpt lat="18.820727" lon="98.970659">
        <ele>322.25</ele>
      </trkpt>
      <trkpt lat="18.8208" lon="98.970555">
        <ele>322.75</ele>
      </trkpt>
      <trkpt lat="18.820897" lon="98.970445">
        <ele>323.0</ele>
      </trkpt>
      <trkpt lat="18.821068" lon="98.970288">
        <ele>323.75</ele>
      </trkpt>
      <trkpt lat="18.82156" lon="98.969864">
        <ele>326.0</ele>
      </trkpt>
      <trkpt lat="18.821627" lon="98.969774">
        <ele>326.25</ele>
      </trkpt>
      <trkpt lat="18.821683" lon="98.969664">
        <ele>326.0</ele>
      </trkpt>
      <trkpt lat="18.821725" lon="98.96954">
        <ele>325.75</ele>
      </trkpt>
      <trkpt lat="18.821761" lon="98.969382">
        <ele>325.5</ele>
      </trkpt>
      <trkpt lat="18.821868" lon="98.968802">
        <ele>325.75</ele>
      </trkpt>
      <trkpt lat="18.821962" lon="98.968291">
        <ele>326.25</ele>
      </trkpt>
      <trkpt lat="18.822011" lon="98.968022">
        <ele>326.0</ele>
      </trkpt>
      <trkpt lat="18.822043" lon="98.967849">
        <ele>326.0</ele>
      </trkpt>
      <trkpt lat="18.82208" lon="98.967688">
        <ele>325.75</ele>
      </trkpt>
      <trkpt lat="18.822148" lon="98.967395">
        <ele>325.75</ele>
      </trkpt>
      <trkpt lat="18.82221" lon="98.967171">
        <ele>326.25</ele>
      </trkpt>
      <trkpt lat="18.822286" lon="98.966928">
        <ele>326.75</ele>
      </trkpt>
      <trkpt lat="18.822397" lon="98.966629">
        <ele>327.0</ele>
      </trkpt>
      <trkpt lat="18.822727" lon="98.965805">
        <ele>325.75</ele>
      </trkpt>
      <trkpt lat="18.822846" lon="98.965507">
        <ele>325.5</ele>
      </trkpt>
      <trkpt lat="18.822882" lon="98.965416">
        <ele>325.25</ele>
      </trkpt>
      <trkpt lat="18.822924" lon="98.965295">
        <ele>325.0</ele>
      </trkpt>
      <trkpt lat="18.823059" lon="98.965003">
        <ele>323.75</ele>
      </trkpt>
      <trkpt lat="18.823426" lon="98.965058">
        <ele>323.25</ele>
      </trkpt>
      <trkpt lat="18.824185" lon="98.965166">
        <ele>324.75</ele>
      </trkpt>
      <trkpt lat="18.824262" lon="98.965178">
        <ele>325.0</ele>
      </trkpt>
      <trkpt lat="18.825875" lon="98.965429">
        <ele>327.25</ele>
      </trkpt>
      <trkpt lat="18.826" lon="98.965422">
        <ele>327.25</ele>
      </trkpt>
      <trkpt lat="18.826113" lon="98.965402">
        <ele>327.25</ele>
      </trkpt>
      <trkpt lat="18.826219" lon="98.965361">
        <ele>327.0</ele>
      </trkpt>
      <trkpt lat="18.82636" lon="98.965277">
        <ele>327.0</ele>
      </trkpt>
      <trkpt lat="18.8265" lon="98.965186">
        <ele>326.5</ele>
      </trkpt>
      <trkpt lat="18.828149" lon="98.963916">
        <ele>327.0</ele>
      </trkpt>
      <trkpt lat="18.828366" lon="98.963797">
        <ele>326.25</ele>
      </trkpt>
      <trkpt lat="18.82849" lon="98.963748">
        <ele>326.0</ele>
      </trkpt>
      <trkpt lat="18.828636" lon="98.963702">
        <ele>325.75</ele>
      </trkpt>
      <trkpt lat="18.828742" lon="98.963676">
        <ele>325.5</ele>
      </trkpt>
      <trkpt lat="18.830859" lon="98.96323">
        <ele>330.75</ele>
      </trkpt>
      <trkpt lat="18.831086" lon="98.963182">
        <ele>330.25</ele>
      </trkpt>
      <trkpt lat="18.831506" lon="98.963094">
        <ele>329.5</ele>
      </trkpt>
      <trkpt lat="18.831738" lon="98.963056">
        <ele>328.75</ele>
      </trkpt>
      <trkpt lat="18.832024" lon="98.963039">
        <ele>327.25</ele>
      </trkpt>
      <trkpt lat="18.832301" lon="98.963052">
        <ele>325.75</ele>
      </trkpt>
      <trkpt lat="18.833032" lon="98.963174">
        <ele>324.0</ele>
      </trkpt>
      <trkpt lat="18.833049" lon="98.963116">
        <ele>324.25</ele>
      </trkpt>
      <trkpt lat="18.833648" lon="98.963234">
        <ele>324.5</ele>
      </trkpt>
      <trkpt lat="18.833722" lon="98.963222">
        <ele>324.75</ele>
      </trkpt>
      <trkpt lat="18.833777" lon="98.963193">
        <ele>325.0</ele>
      </trkpt>
      <trkpt lat="18.833862" lon="98.963193">
        <ele>325.25</ele>
      </trkpt>
      <trkpt lat="18.836793" lon="98.96382">
        <ele>329.25</ele>
      </trkpt>
      <trkpt lat="18.839687" lon="98.964526">
        <ele>331.25</ele>
      </trkpt>
      <trkpt lat="18.840048" lon="98.964616">
        <ele>330.25</ele>
      </trkpt>
      <trkpt lat="18.840149" lon="98.964636">
        <ele>330.0</ele>
      </trkpt>
      <trkpt lat="18.840339" lon="98.964675">
        <ele>329.25</ele>
      </trkpt>
      <trkpt lat="18.84121" lon="98.964885">
        <ele>326.25</ele>
      </trkpt>
      <trkpt lat="18.841384" lon="98.964904">
        <ele>326.0</ele>
      </trkpt>
      <trkpt lat="18.84152" lon="98.964894">
        <ele>325.75</ele>
      </trkpt>
      <trkpt lat="18.841613" lon="98.964863">
        <ele>325.75</ele>
      </trkpt>
      <trkpt lat="18.8417" lon="98.964802">
        <ele>325.75</ele>
      </trkpt>
      <trkpt lat="18.841774" lon="98.964705">
        <ele>326.25</ele>
      </trkpt>
      <trkpt lat="18.842216" lon="98.963991">
        <ele>326.75</ele>
      </trkpt>
      <trkpt lat="18.842357" lon="98.963841">
        <ele>326.0</ele>
      </trkpt>
      <trkpt lat="18.84412" lon="98.961179">
        <ele>325.0</ele>
      </trkpt>
      <trkpt lat="18.844171" lon="98.961095">
        <ele>325.25</ele>
      </trkpt>
      <trkpt lat="18.844823" lon="98.960088">
        <ele>326.75</ele>
      </trkpt>
      <trkpt lat="18.844989" lon="98.959871">
        <ele>326.75</ele>
      </trkpt>
      <trkpt lat="18.84513" lon="98.959741">
        <ele>327.5</ele>
      </trkpt>
      <trkpt lat="18.845305" lon="98.959653">
        <ele>327.5</ele>
      </trkpt>
      <trkpt lat="18.845465" lon="98.959596">
        <ele>327.5</ele>
      </trkpt>
      <trkpt lat="18.845982" lon="98.959497">
        <ele>326.25</ele>
      </trkpt>
      <trkpt lat="18.846497" lon="98.95941">
        <ele>325.25</ele>
      </trkpt>
      <trkpt lat="18.846594" lon="98.959392">
        <ele>325.0</ele>
      </trkpt>
      <trkpt lat="18.846655" lon="98.959383">
        <ele>325.0</ele>
      </trkpt>
      <trkpt lat="18.846969" lon="98.959353">
        <ele>325.25</ele>
      </trkpt>
      <trkpt lat="18.847079" lon="98.959374">
        <ele>325.25</ele>
      </trkpt>
      <trkpt lat="18.847428" lon="98.959483">
        <ele>325.75</ele>
      </trkpt>
      <trkpt lat="18.849243" lon="98.960359">
        <ele>328.0</ele>
      </trkpt>
      <trkpt lat="18.849762" lon="98.960541">
        <ele>329.75</ele>
      </trkpt>
      <trkpt lat="18.85058" lon="98.960859">
        <ele>329.0</ele>
      </trkpt>
      <trkpt lat="18.850954" lon="98.960993">
        <ele>329.25</ele>
      </trkpt>
      <trkpt lat="18.851625" lon="98.961225">
        <ele>331.0</ele>
      </trkpt>
      <trkpt lat="18.85211" lon="98.961384">
        <ele>331.0</ele>
      </trkpt>
      <trkpt lat="18.852355" lon="98.961544">
        <ele>330.5</ele>
      </trkpt>
      <trkpt lat="18.852639" lon="98.961647">
        <ele>330.25</ele>
      </trkpt>
      <trkpt lat="18.852918" lon="98.961731">
        <ele>330.5</ele>
      </trkpt>
      <trkpt lat="18.853159" lon="98.961759">
        <ele>330.75</ele>
      </trkpt>
      <trkpt lat="18.854128" lon="98.961839">
        <ele>331.5</ele>
      </trkpt>
      <trkpt lat="18.855234" lon="98.962012">
        <ele>331.25</ele>
      </trkpt>
      <trkpt lat="18.856214" lon="98.962119">
        <ele>330.25</ele>
      </trkpt>
      <trkpt lat="18.856399" lon="98.9621">
        <ele>331.25</ele>
      </trkpt>
      <trkpt lat="18.856587" lon="98.962052">
        <ele>332.25</ele>
      </trkpt>
      <trkpt lat="18.857727" lon="98.961577">
        <ele>330.0</ele>
      </trkpt>
      <trkpt lat="18.858666" lon="98.961218">
        <ele>331.5</ele>
      </trkpt>
      <trkpt lat="18.859808" lon="98.960756">
        <ele>329.25</ele>
      </trkpt>
      <trkpt lat="18.860115" lon="98.96064">
        <ele>328.75</ele>
      </trkpt>
      <trkpt lat="18.86032" lon="98.960564">
        <ele>328.5</ele>
      </trkpt>
      <trkpt lat="18.860303" lon="98.960508">
        <ele>328.5</ele>
      </trkpt>
      <trkpt lat="18.860106" lon="98.959852">
        <ele>329.25</ele>
      </trkpt>
      <trkpt lat="18.85962" lon="98.958239">
        <ele>329.75</ele>
      </trkpt>
      <trkpt lat="18.858153" lon="98.953367">
        <ele>340.0</ele>
      </trkpt>
      <trkpt lat="18.857981" lon="98.952813">
        <ele>340.25</ele>
      </trkpt>
      <trkpt lat="18.857778" lon="98.95216">
        <ele>341.0</ele>
      </trkpt>
      <trkpt lat="18.857778" lon="98.951997">
        <ele>340.75</ele>
      </trkpt>
      <trkpt lat="18.857803" lon="98.951928">
        <ele>340.5</ele>
      </trkpt>
      <trkpt lat="18.857843" lon="98.951851">
        <ele>340.25</ele>
      </trkpt>
      <trkpt lat="18.857916" lon="98.951765">
        <ele>340.0</ele>
      </trkpt>
      <trkpt lat="18.85799" lon="98.951696">
        <ele>339.75</ele>
      </trkpt>
      <trkpt lat="18.859048" lon="98.950833">
        <ele>337.75</ele>
      </trkpt>
      <trkpt lat="18.859447" lon="98.950508">
        <ele>338.25</ele>
      </trkpt>
      <trkpt lat="18.861492" lon="98.94884">
        <ele>343.5</ele>
      </trkpt>
      <trkpt lat="18.863067" lon="98.947561">
        <ele>347.75</ele>
      </trkpt>
      <trkpt lat="18.863734" lon="98.94705">
        <ele>350.75</ele>
      </trkpt>
      <trkpt lat="18.863759" lon="98.94699">
        <ele>351.0</ele>
      </trkpt>
      <trkpt lat="18.863982" lon="98.946804">
        <ele>351.0</ele>
      </trkpt>
      <trkpt lat="18.864188" lon="98.946649">
        <ele>350.75</ele>
      </trkpt>
      <trkpt lat="18.864254" lon="98.946641">
        <ele>350.75</ele>
      </trkpt>
      <trkpt lat="18.864456" lon="98.946479">
        <ele>350.5</ele>
      </trkpt>
      <trkpt lat="18.864855" lon="98.94619">
        <ele>351.0</ele>
      </trkpt>
      <trkpt lat="18.865125" lon="98.945993">
        <ele>351.75</ele>
      </trkpt>
      <trkpt lat="18.865368" lon="98.945777">
        <ele>352.5</ele>
      </trkpt>
      <trkpt lat="18.865422" lon="98.945669">
        <ele>352.75</ele>
      </trkpt>
      <trkpt lat="18.865818" lon="98.945202">
        <ele>353.75</ele>
      </trkpt>
      <trkpt lat="18.865976" lon="98.944945">
        <ele>354.0</ele>
      </trkpt>
      <trkpt lat="18.865989" lon="98.944903">
        <ele>354.0</ele>
      </trkpt>
      <trkpt lat="18.865975" lon="98.944851">
        <ele>354.25</ele>
      </trkpt>
      <trkpt lat="18.865892" lon="98.944804">
        <ele>354.75</ele>
      </trkpt>
      <trkpt lat="18.864891" lon="98.944269">
        <ele>359.75</ele>
      </trkpt>
      <trkpt lat="18.86443" lon="98.944029">
        <ele>358.5</ele>
      </trkpt>
      <trkpt lat="18.86426" lon="98.943948">
        <ele>357.75</ele>
      </trkpt>
      <trkpt lat="18.864053" lon="98.943881">
        <ele>356.5</ele>
      </trkpt>
      <trkpt lat="18.863744" lon="98.943819">
        <ele>354.75</ele>
      </trkpt>
      <trkpt lat="18.863699" lon="98.943754">
        <ele>354.75</ele>
      </trkpt>
      <trkpt lat="18.863686" lon="98.943688">
        <ele>354.5</ele>
      </trkpt>
      <trkpt lat="18.863688" lon="98.943605">
        <ele>354.75</ele>
      </trkpt>
      <trkpt lat="18.86373" lon="98.943476">
        <ele>354.75</ele>
      </trkpt>
      <trkpt lat="18.863777" lon="98.943376">
        <ele>355.0</ele>
      </trkpt>
      <trkpt lat="18.863781" lon="98.943285">
        <ele>354.5</ele>
      </trkpt>
      <trkpt lat="18.863773" lon="98.943225">
        <ele>354.0</ele>
      </trkpt>
      <trkpt lat="18.86282" lon="98.941706">
        <ele>348.5</ele>
      </trkpt>
      <trkpt lat="18.862766" lon="98.941606">
        <ele>349.5</ele>
      </trkpt>
      <trkpt lat="18.862766" lon="98.941538">
        <ele>350.5</ele>
      </trkpt>
      <trkpt lat="18.862942" lon="98.941362">
        <ele>350.75</ele>
      </trkpt>
      <trkpt lat="18.863024" lon="98.94122">
        <ele>350.75</ele>
      </trkpt>
      <trkpt lat="18.863044" lon="98.941079">
        <ele>351.25</ele>
      </trkpt>
      <trkpt lat="18.863082" lon="98.940899">
        <ele>351.75</ele>
      </trkpt>
      <trkpt lat="18.86309" lon="98.940727">
        <ele>352.5</ele>
      </trkpt>
      <trkpt lat="18.863091" lon="98.94059">
        <ele>353.0</ele>
      </trkpt>
      <trkpt lat="18.863093" lon="98.940381">
        <ele>354.25</ele>
      </trkpt>
      <trkpt lat="18.86309" lon="98.940276">
        <ele>354.75</ele>
      </trkpt>
      <trkpt lat="18.863098" lon="98.939869">
        <ele>358.0</ele>
      </trkpt>
      <trkpt lat="18.863123" lon="98.939766">
        <ele>359.0</ele>
      </trkpt>
      <trkpt lat="18.863188" lon="98.93962">
        <ele>360.0</ele>
      </trkpt>
      <trkpt lat="18.863261" lon="98.939508">
        <ele>360.25</ele>
      </trkpt>
      <trkpt lat="18.863301" lon="98.939462">
        <ele>360.25</ele>
      </trkpt>
      <trkpt lat="18.86335" lon="98.939422">
        <ele>360.25</ele>
      </trkpt>
      <trkpt lat="18.863415" lon="98.939371">
        <ele>360.5</ele>
      </trkpt>
      <trkpt lat="18.863553" lon="98.939354">
        <ele>360.25</ele>
      </trkpt>
      <trkpt lat="18.863748" lon="98.93938">
        <ele>359.0</ele>
      </trkpt>
      <trkpt lat="18.863943" lon="98.939448">
        <ele>357.25</ele>
      </trkpt>
      <trkpt lat="18.864149" lon="98.939544">
        <ele>354.5</ele>
      </trkpt>
      <trkpt lat="18.864255" lon="98.939572">
        <ele>354.0</ele>
      </trkpt>
      <trkpt lat="18.864316" lon="98.939548">
        <ele>354.25</ele>
      </trkpt>
      <trkpt lat="18.864376" lon="98.939508">
        <ele>354.75</ele>
      </trkpt>
      <trkpt lat="18.864437" lon="98.939453">
        <ele>355.5</ele>
      </trkpt>
      <trkpt lat="18.864496" lon="98.93938">
        <ele>356.5</ele>
      </trkpt>
      <trkpt lat="18.86465" lon="98.939088">
        <ele>360.0</ele>
      </trkpt>
      <trkpt lat="18.864877" lon="98.938899">
        <ele>361.0</ele>
      </trkpt>
      <trkpt lat="18.864999" lon="98.938805">
        <ele>361.25</ele>
      </trkpt>
      <trkpt lat="18.865119" lon="98.938652">
        <ele>361.5</ele>
      </trkpt>
      <trkpt lat="18.865289" lon="98.938418">
        <ele>362.5</ele>
      </trkpt>
      <trkpt lat="18.865308" lon="98.938378">
        <ele>362.75</ele>
      </trkpt>
      <trkpt lat="18.865342" lon="98.938354">
        <ele>362.75</ele>
      </trkpt>
      <trkpt lat="18.865425" lon="98.938355">
        <ele>362.0</ele>
      </trkpt>
      <trkpt lat="18.865564" lon="98.938446">
        <ele>359.75</ele>
      </trkpt>
      <trkpt lat="18.865605" lon="98.938472">
        <ele>359.0</ele>
      </trkpt>
      <trkpt lat="18.865655" lon="98.93847">
        <ele>358.5</ele>
      </trkpt>
      <trkpt lat="18.865691" lon="98.938448">
        <ele>358.5</ele>
      </trkpt>
      <trkpt lat="18.865708" lon="98.938425">
        <ele>358.75</ele>
      </trkpt>
      <trkpt lat="18.865718" lon="98.938375">
        <ele>359.25</ele>
      </trkpt>
      <trkpt lat="18.865709" lon="98.938338">
        <ele>359.75</ele>
      </trkpt>
      <trkpt lat="18.865687" lon="98.938309">
        <ele>360.25</ele>
      </trkpt>
      <trkpt lat="18.865696" lon="98.9382">
        <ele>360.75</ele>
      </trkpt>
      <trkpt lat="18.865688" lon="98.938133">
        <ele>361.25</ele>
      </trkpt>
      <trkpt lat="18.865661" lon="98.938005">
        <ele>362.0</ele>
      </trkpt>
      <trkpt lat="18.865652" lon="98.937883">
        <ele>362.75</ele>
      </trkpt>
      <trkpt lat="18.865665" lon="98.937783">
        <ele>363.25</ele>
      </trkpt>
      <trkpt lat="18.865717" lon="98.937677">
        <ele>363.25</ele>
      </trkpt>
      <trkpt lat="18.865793" lon="98.937554">
        <ele>363.0</ele>
      </trkpt>
      <trkpt lat="18.865859" lon="98.937456">
        <ele>363.25</ele>
      </trkpt>
      <trkpt lat="18.865949" lon="98.937353">
        <ele>363.75</ele>
      </trkpt>
      <trkpt lat="18.866188" lon="98.937193">
        <ele>364.0</ele>
      </trkpt>
      <trkpt lat="18.866438" lon="98.937042">
        <ele>364.5</ele>
      </trkpt>
      <trkpt lat="18.866631" lon="98.936976">
        <ele>364.25</ele>
      </trkpt>
      <trkpt lat="18.866694" lon="98.936963">
        <ele>364.25</ele>
      </trkpt>
      <trkpt lat="18.866768" lon="98.936963">
        <ele>363.75</ele>
      </trkpt>
      <trkpt lat="18.866838" lon="98.936977">
        <ele>363.25</ele>
      </trkpt>
      <trkpt lat="18.866925" lon="98.937023">
        <ele>362.25</ele>
      </trkpt>
      <trkpt lat="18.866997" lon="98.937096">
        <ele>361.0</ele>
      </trkpt>
      <trkpt lat="18.867168" lon="98.937363">
        <ele>357.0</ele>
      </trkpt>
      <trkpt lat="18.867549" lon="98.937998">
        <ele>352.75</ele>
      </trkpt>
      <trkpt lat="18.867655" lon="98.938118">
        <ele>352.5</ele>
      </trkpt>
      <trkpt lat="18.867717" lon="98.938125">
        <ele>352.5</ele>
      </trkpt>
      <trkpt lat="18.867778" lon="98.938112">
        <ele>352.5</ele>
      </trkpt>
      <trkpt lat="18.867904" lon="98.938027">
        <ele>353.0</ele>
      </trkpt>
      <trkpt lat="18.868195" lon="98.937753">
        <ele>354.5</ele>
      </trkpt>
      <trkpt lat="18.868254" lon="98.93769">
        <ele>354.75</ele>
      </trkpt>
      <trkpt lat="18.868353" lon="98.937569">
        <ele>355.5</ele>
      </trkpt>
      <trkpt lat="18.868459" lon="98.9375">
        <ele>356.0</ele>
      </trkpt>
      <trkpt lat="18.868548" lon="98.937526">
        <ele>355.75</ele>
      </trkpt>
      <trkpt lat="18.868692" lon="98.937583">
        <ele>355.5</ele>
      </trkpt>
      <trkpt lat="18.868825" lon="98.937677">
        <ele>355.5</ele>
      </trkpt>
      <trkpt lat="18.869036" lon="98.937926">
        <ele>355.0</ele>
      </trkpt>
      <trkpt lat="18.869084" lon="98.937989">
        <ele>355.0</ele>
      </trkpt>
      <trkpt lat="18.869174" lon="98.938032">
        <ele>355.25</ele>
      </trkpt>
      <trkpt lat="18.869271" lon="98.938023">
        <ele>354.75</ele>
      </trkpt>
      <trkpt lat="18.869352" lon="98.938006">
        <ele>354.5</ele>
      </trkpt>
      <trkpt lat="18.86947" lon="98.93793">
        <ele>354.0</ele>
      </trkpt>
      <trkpt lat="18.869651" lon="98.9378">
        <ele>353.75</ele>
      </trkpt>
      <trkpt lat="18.869856" lon="98.937671">
        <ele>353.5</ele>
      </trkpt>
      <trkpt lat="18.869933" lon="98.93764">
        <ele>353.5</ele>
      </trkpt>
      <trkpt lat="18.870072" lon="98.937583">
        <ele>353.5</ele>
      </trkpt>
      <trkpt lat="18.870465" lon="98.937405">
        <ele>354.5</ele>
      </trkpt>
      <trkpt lat="18.870619" lon="98.93732">
        <ele>354.75</ele>
      </trkpt>
      <trkpt lat="18.870708" lon="98.937294">
        <ele>355.0</ele>
      </trkpt>
      <trkpt lat="18.870824" lon="98.937271">
        <ele>355.0</ele>
      </trkpt>
      <trkpt lat="18.871031" lon="98.937255">
        <ele>354.75</ele>
      </trkpt>
      <trkpt lat="18.871122" lon="98.937231">
        <ele>354.5</ele>
      </trkpt>
      <trkpt lat="18.871177" lon="98.937204">
        <ele>354.5</ele>
      </trkpt>
      <trkpt lat="18.871224" lon="98.93716">
        <ele>354.75</ele>
      </trkpt>
      <trkpt lat="18.871383" lon="98.936916">
        <ele>355.0</ele>
      </trkpt>
      <trkpt lat="18.871451" lon="98.936852">
        <ele>355.0</ele>
      </trkpt>
      <trkpt lat="18.871603" lon="98.936808">
        <ele>354.75</ele>
      </trkpt>
      <trkpt lat="18.87175" lon="98.936792">
        <ele>354.25</ele>
      </trkpt>
      <trkpt lat="18.871871" lon="98.936815">
        <ele>353.75</ele>
      </trkpt>
      <trkpt lat="18.871959" lon="98.936839">
        <ele>353.5</ele>
      </trkpt>
      <trkpt lat="18.872136" lon="98.936927">
        <ele>352.75</ele>
      </trkpt>
      <trkpt lat="18.872272" lon="98.937015">
        <ele>352.25</ele>
      </trkpt>
      <trkpt lat="18.872307" lon="98.937044">
        <ele>352.0</ele>
      </trkpt>
      <trkpt lat="18.872391" lon="98.937112">
        <ele>351.75</ele>
      </trkpt>
      <trkpt lat="18.872448" lon="98.937163">
        <ele>351.5</ele>
      </trkpt>
      <trkpt lat="18.872496" lon="98.937242">
        <ele>351.25</ele>
      </trkpt>
      <trkpt lat="18.872513" lon="98.937314">
        <ele>351.0</ele>
      </trkpt>
      <trkpt lat="18.872521" lon="98.937476">
        <ele>351.0</ele>
      </trkpt>
      <trkpt lat="18.87254" lon="98.937572">
        <ele>351.0</ele>
      </trkpt>
      <trkpt lat="18.872557" lon="98.937614">
        <ele>351.25</ele>
      </trkpt>
      <trkpt lat="18.872587" lon="98.937659">
        <ele>351.25</ele>
      </trkpt>
      <trkpt lat="18.87266" lon="98.93771">
        <ele>351.5</ele>
      </trkpt>
      <trkpt lat="18.872953" lon="98.937798">
        <ele>352.25</ele>
      </trkpt>
      <trkpt lat="18.873016" lon="98.937859">
        <ele>352.5</ele>
      </trkpt>
      <trkpt lat="18.873104" lon="98.937982">
        <ele>353.25</ele>
      </trkpt>
      <trkpt lat="18.873147" lon="98.93807">
        <ele>353.75</ele>
      </trkpt>
      <trkpt lat="18.873161" lon="98.938148">
        <ele>354.25</ele>
      </trkpt>
      <trkpt lat="18.873157" lon="98.938222">
        <ele>354.75</ele>
      </trkpt>
      <trkpt lat="18.873143" lon="98.938319">
        <ele>355.0</ele>
      </trkpt>
      <trkpt lat="18.873077" lon="98.938486">
        <ele>356.25</ele>
      </trkpt>
      <trkpt lat="18.873027" lon="98.93856">
        <ele>356.75</ele>
      </trkpt>
      <trkpt lat="18.872963" lon="98.938626">
        <ele>357.0</ele>
      </trkpt>
      <trkpt lat="18.872869" lon="98.938711">
        <ele>357.25</ele>
      </trkpt>
      <trkpt lat="18.872767" lon="98.938776">
        <ele>357.5</ele>
      </trkpt>
      <trkpt lat="18.872652" lon="98.938813">
        <ele>357.5</ele>
      </trkpt>
      <trkpt lat="18.872517" lon="98.938847">
        <ele>357.25</ele>
      </trkpt>
      <trkpt lat="18.872219" lon="98.938909">
        <ele>355.75</ele>
      </trkpt>
      <trkpt lat="18.872103" lon="98.938952">
        <ele>355.25</ele>
      </trkpt>
      <trkpt lat="18.871892" lon="98.939129">
        <ele>354.5</ele>
      </trkpt>
      <trkpt lat="18.871818" lon="98.939211">
        <ele>354.25</ele>
      </trkpt>
      <trkpt lat="18.871723" lon="98.939341">
        <ele>354.0</ele>
      </trkpt>
      <trkpt lat="18.871626" lon="98.939521">
        <ele>354.0</ele>
      </trkpt>
      <trkpt lat="18.871569" lon="98.940134">
        <ele>356.25</ele>
      </trkpt>
      <trkpt lat="18.871537" lon="98.940272">
        <ele>356.75</ele>
      </trkpt>
      <trkpt lat="18.8715" lon="98.940361">
        <ele>357.0</ele>
      </trkpt>
      <trkpt lat="18.871455" lon="98.940412">
        <ele>357.0</ele>
      </trkpt>
      <trkpt lat="18.871408" lon="98.940442">
        <ele>357.25</ele>
      </trkpt>
      <trkpt lat="18.871258" lon="98.940449">
        <ele>357.5</ele>
      </trkpt>
      <trkpt lat="18.871087" lon="98.940433">
        <ele>357.5</ele>
      </trkpt>
      <trkpt lat="18.870852" lon="98.940428">
        <ele>358.0</ele>
      </trkpt>
      <trkpt lat="18.870668" lon="98.940399">
        <ele>357.5</ele>
      </trkpt>
      <trkpt lat="18.870545" lon="98.940373">
        <ele>357.25</ele>
      </trkpt>
      <trkpt lat="18.870349" lon="98.940364">
        <ele>357.0</ele>
      </trkpt>
      <trkpt lat="18.870029" lon="98.940385">
        <ele>356.5</ele>
      </trkpt>
      <trkpt lat="18.869909" lon="98.940426">
        <ele>355.75</ele>
      </trkpt>
      <trkpt lat="18.869773" lon="98.940482">
        <ele>354.75</ele>
      </trkpt>
      <trkpt lat="18.869684" lon="98.940566">
        <ele>354.25</ele>
      </trkpt>
      <trkpt lat="18.869637" lon="98.940622">
        <ele>354.0</ele>
      </trkpt>
      <trkpt lat="18.869604" lon="98.940727">
        <ele>354.25</ele>
      </trkpt>
      <trkpt lat="18.869645" lon="98.940907">
        <ele>354.5</ele>
      </trkpt>
      <trkpt lat="18.86971" lon="98.941096">
        <ele>354.75</ele>
      </trkpt>
      <trkpt lat="18.869828" lon="98.941577">
        <ele>355.0</ele>
      </trkpt>
      <trkpt lat="18.869986" lon="98.941981">
        <ele>356.25</ele>
      </trkpt>
      <trkpt lat="18.870007" lon="98.942148">
        <ele>356.5</ele>
      </trkpt>
      <trkpt lat="18.87" lon="98.942336">
        <ele>356.75</ele>
      </trkpt>
      <trkpt lat="18.869963" lon="98.942601">
        <ele>356.75</ele>
      </trkpt>
      <trkpt lat="18.869945" lon="98.942689">
        <ele>356.75</ele>
      </trkpt>
      <trkpt lat="18.869911" lon="98.942798">
        <ele>356.5</ele>
      </trkpt>
      <trkpt lat="18.869885" lon="98.94286">
        <ele>356.5</ele>
      </trkpt>
      <trkpt lat="18.869855" lon="98.942935">
        <ele>356.25</ele>
      </trkpt>
      <trkpt lat="18.869842" lon="98.943074">
        <ele>356.25</ele>
      </trkpt>
      <trkpt lat="18.869828" lon="98.943315">
        <ele>356.25</ele>
      </trkpt>
      <trkpt lat="18.869878" lon="98.94343">
        <ele>356.75</ele>
      </trkpt>
      <trkpt lat="18.869901" lon="98.943735">
        <ele>357.5</ele>
      </trkpt>
      <trkpt lat="18.869905" lon="98.943792">
        <ele>357.75</ele>
      </trkpt>
      <trkpt lat="18.869878" lon="98.943935">
        <ele>358.0</ele>
      </trkpt>
      <trkpt lat="18.869801" lon="98.94414">
        <ele>358.25</ele>
      </trkpt>
      <trkpt lat="18.86971" lon="98.944303">
        <ele>357.5</ele>
      </trkpt>
      <trkpt lat="18.86971" lon="98.944303">
        <ele>357.5</ele>
      </trkpt>
      <trkpt lat="18.869407" lon="98.944855">
        <ele>356.0</ele>
      </trkpt>
      <trkpt lat="18.869326" lon="98.944965">
        <ele>355.5</ele>
      </trkpt>
      <trkpt lat="18.869208" lon="98.945052">
        <ele>355.0</ele>
      </trkpt>
      <trkpt lat="18.868158" lon="98.94511">
        <ele>354.25</ele>
      </trkpt>
      <trkpt lat="18.867064" lon="98.945176">
        <ele>353.25</ele>
      </trkpt>
      <trkpt lat="18.866818" lon="98.945173">
        <ele>353.0</ele>
      </trkpt>
      <trkpt lat="18.866713" lon="98.945156">
        <ele>353.0</ele>
      </trkpt>
      <trkpt lat="18.866615" lon="98.94513">
        <ele>353.0</ele>
      </trkpt>
      <trkpt lat="18.866401" lon="98.945044">
        <ele>353.25</ele>
      </trkpt>
      <trkpt lat="18.866194" lon="98.944961">
        <ele>353.5</ele>
      </trkpt>
      <trkpt lat="18.866132" lon="98.94493">
        <ele>353.5</ele>
      </trkpt>
      <trkpt lat="18.866098" lon="98.944938">
        <ele>353.75</ele>
      </trkpt>
      <trkpt lat="18.866065" lon="98.944966">
        <ele>353.75</ele>
      </trkpt>
      <trkpt lat="18.866012" lon="98.945029">
        <ele>353.75</ele>
      </trkpt>
      <trkpt lat="18.865852" lon="98.945245">
        <ele>353.5</ele>
      </trkpt>
      <trkpt lat="18.865454" lon="98.945728">
        <ele>352.75</ele>
      </trkpt>
      <trkpt lat="18.865368" lon="98.945777">
        <ele>352.5</ele>
      </trkpt>
      <trkpt lat="18.865125" lon="98.945993">
        <ele>351.75</ele>
      </trkpt>
      <trkpt lat="18.864855" lon="98.94619">
        <ele>351.0</ele>
      </trkpt>
      <trkpt lat="18.864456" lon="98.946479">
        <ele>350.5</ele>
      </trkpt>
      <trkpt lat="18.864254" lon="98.946641">
        <ele>350.75</ele>
      </trkpt>
      <trkpt lat="18.864214" lon="98.946702">
        <ele>350.75</ele>
      </trkpt>
      <trkpt lat="18.86402" lon="98.946858">
        <ele>350.75</ele>
      </trkpt>
      <trkpt lat="18.863799" lon="98.94704">
        <ele>350.75</ele>
      </trkpt>
      <trkpt lat="18.863734" lon="98.94705">
        <ele>350.75</ele>
      </trkpt>
      <trkpt lat="18.863067" lon="98.947561">
        <ele>347.75</ele>
      </trkpt>
      <trkpt lat="18.861492" lon="98.94884">
        <ele>343.5</ele>
      </trkpt>
      <trkpt lat="18.859447" lon="98.950508">
        <ele>338.25</ele>
      </trkpt>
      <trkpt lat="18.859048" lon="98.950833">
        <ele>337.75</ele>
      </trkpt>
      <trkpt lat="18.85799" lon="98.951696">
        <ele>339.75</ele>
      </trkpt>
      <trkpt lat="18.857916" lon="98.951765">
        <ele>340.0</ele>
      </trkpt>
      <trkpt lat="18.857843" lon="98.951851">
        <ele>340.25</ele>
      </trkpt>
      <trkpt lat="18.857803" lon="98.951928">
        <ele>340.5</ele>
      </trkpt>
      <trkpt lat="18.857778" lon="98.951997">
        <ele>340.75</ele>
      </trkpt>
      <trkpt lat="18.857778" lon="98.95216">
        <ele>341.0</ele>
      </trkpt>
      <trkpt lat="18.858153" lon="98.953367">
        <ele>340.0</ele>
      </trkpt>
      <trkpt lat="18.85962" lon="98.958239">
        <ele>329.75</ele>
      </trkpt>
      <trkpt lat="18.860106" lon="98.959852">
        <ele>329.25</ele>
      </trkpt>
      <trkpt lat="18.860303" lon="98.960508">
        <ele>328.5</ele>
      </trkpt>
      <trkpt lat="18.86032" lon="98.960564">
        <ele>328.5</ele>
      </trkpt>
      <trkpt lat="18.860412" lon="98.96085">
        <ele>328.25</ele>
      </trkpt>
      <trkpt lat="18.860463" lon="98.960988">
        <ele>328.0</ele>
      </trkpt>
      <trkpt lat="18.860163" lon="98.961105">
        <ele>328.5</ele>
      </trkpt>
      <trkpt lat="18.857486" lon="98.962138">
        <ele>330.0</ele>
      </trkpt>
      <trkpt lat="18.856726" lon="98.962431">
        <ele>331.0</ele>
      </trkpt>
      <trkpt lat="18.856585" lon="98.962467">
        <ele>330.5</ele>
      </trkpt>
      <trkpt lat="18.856431" lon="98.962485">
        <ele>329.25</ele>
      </trkpt>
      <trkpt lat="18.856276" lon="98.962493">
        <ele>328.0</ele>
      </trkpt>
      <trkpt lat="18.856135" lon="98.962484">
        <ele>327.25</ele>
      </trkpt>
      <trkpt lat="18.8558" lon="98.962447">
        <ele>325.5</ele>
      </trkpt>
      <trkpt lat="18.85408" lon="98.96227">
        <ele>327.75</ele>
      </trkpt>
      <trkpt lat="18.85334" lon="98.962206">
        <ele>328.0</ele>
      </trkpt>
      <trkpt lat="18.852918" lon="98.962146">
        <ele>328.0</ele>
      </trkpt>
      <trkpt lat="18.852499" lon="98.962041">
        <ele>328.0</ele>
      </trkpt>
      <trkpt lat="18.852078" lon="98.961902">
        <ele>328.25</ele>
      </trkpt>
      <trkpt lat="18.851974" lon="98.961867">
        <ele>328.0</ele>
      </trkpt>
      <trkpt lat="18.851438" lon="98.961691">
        <ele>327.75</ele>
      </trkpt>
      <trkpt lat="18.849896" lon="98.961164">
        <ele>327.5</ele>
      </trkpt>
      <trkpt lat="18.849805" lon="98.961132">
        <ele>327.25</ele>
      </trkpt>
      <trkpt lat="18.849315" lon="98.960955">
        <ele>325.5</ele>
      </trkpt>
      <trkpt lat="18.84903" lon="98.960843">
        <ele>324.5</ele>
      </trkpt>
      <trkpt lat="18.848745" lon="98.960701">
        <ele>324.5</ele>
      </trkpt>
      <trkpt lat="18.84743" lon="98.959946">
        <ele>325.75</ele>
      </trkpt>
      <trkpt lat="18.847254" lon="98.95986">
        <ele>325.5</ele>
      </trkpt>
      <trkpt lat="18.847069" lon="98.959801">
        <ele>325.25</ele>
      </trkpt>
      <trkpt lat="18.846889" lon="98.959774">
        <ele>325.25</ele>
      </trkpt>
      <trkpt lat="18.846735" lon="98.959773">
        <ele>325.0</ele>
      </trkpt>
      <trkpt lat="18.846509" lon="98.959814">
        <ele>325.0</ele>
      </trkpt>
      <trkpt lat="18.845636" lon="98.960008">
        <ele>325.75</ele>
      </trkpt>
      <trkpt lat="18.845452" lon="98.960059">
        <ele>325.75</ele>
      </trkpt>
      <trkpt lat="18.845314" lon="98.960125">
        <ele>325.5</ele>
      </trkpt>
      <trkpt lat="18.845201" lon="98.960227">
        <ele>325.0</ele>
      </trkpt>
      <trkpt lat="18.8451" lon="98.960357">
        <ele>324.75</ele>
      </trkpt>
      <trkpt lat="18.844436" lon="98.961411">
        <ele>322.75</ele>
      </trkpt>
      <trkpt lat="18.843957" lon="98.962188">
        <ele>323.25</ele>
      </trkpt>
      <trkpt lat="18.84364" lon="98.962703">
        <ele>324.75</ele>
      </trkpt>
      <trkpt lat="18.843484" lon="98.962958">
        <ele>325.5</ele>
      </trkpt>
      <trkpt lat="18.843294" lon="98.963253">
        <ele>325.75</ele>
      </trkpt>
      <trkpt lat="18.842142" lon="98.965014">
        <ele>326.0</ele>
      </trkpt>
      <trkpt lat="18.842052" lon="98.96513">
        <ele>326.0</ele>
      </trkpt>
      <trkpt lat="18.841954" lon="98.965226">
        <ele>326.0</ele>
      </trkpt>
      <trkpt lat="18.841834" lon="98.965309">
        <ele>325.75</ele>
      </trkpt>
      <trkpt lat="18.841712" lon="98.965358">
        <ele>325.75</ele>
      </trkpt>
      <trkpt lat="18.841589" lon="98.965393">
        <ele>326.0</ele>
      </trkpt>
      <trkpt lat="18.84149" lon="98.965405">
        <ele>326.25</ele>
      </trkpt>
      <trkpt lat="18.841344" lon="98.965404">
        <ele>326.5</ele>
      </trkpt>
      <trkpt lat="18.840506" lon="98.965233">
        <ele>328.5</ele>
      </trkpt>
      <trkpt lat="18.840463" lon="98.965225">
        <ele>328.5</ele>
      </trkpt>
      <trkpt lat="18.839997" lon="98.965132">
        <ele>330.5</ele>
      </trkpt>
      <trkpt lat="18.839841" lon="98.965102">
        <ele>331.25</ele>
      </trkpt>
      <trkpt lat="18.83973" lon="98.965077">
        <ele>332.0</ele>
      </trkpt>
      <trkpt lat="18.83895" lon="98.9649">
        <ele>334.25</ele>
      </trkpt>
      <trkpt lat="18.83886" lon="98.96488">
        <ele>334.0</ele>
      </trkpt>
      <trkpt lat="18.837584" lon="98.964592">
        <ele>328.25</ele>
      </trkpt>
      <trkpt lat="18.837294" lon="98.964522">
        <ele>328.0</ele>
      </trkpt>
      <trkpt lat="18.83668" lon="98.964366">
        <ele>328.5</ele>
      </trkpt>
      <trkpt lat="18.83539" lon="98.964024">
        <ele>328.5</ele>
      </trkpt>
      <trkpt lat="18.835294" lon="98.964002">
        <ele>328.5</ele>
      </trkpt>
      <trkpt lat="18.834721" lon="98.963865">
        <ele>327.75</ele>
      </trkpt>
      <trkpt lat="18.83218" lon="98.963458">
        <ele>325.5</ele>
      </trkpt>
      <trkpt lat="18.831991" lon="98.963437">
        <ele>326.75</ele>
      </trkpt>
      <trkpt lat="18.831839" lon="98.963449">
        <ele>327.5</ele>
      </trkpt>
      <trkpt lat="18.83168" lon="98.96348">
        <ele>328.5</ele>
      </trkpt>
      <trkpt lat="18.830861" lon="98.963654">
        <ele>328.25</ele>
      </trkpt>
      <trkpt lat="18.830256" lon="98.963782">
        <ele>324.75</ele>
      </trkpt>
      <trkpt lat="18.828944" lon="98.964029">
        <ele>325.75</ele>
      </trkpt>
      <trkpt lat="18.828741" lon="98.96409">
        <ele>325.75</ele>
      </trkpt>
      <trkpt lat="18.828596" lon="98.964158">
        <ele>326.0</ele>
      </trkpt>
      <trkpt lat="18.82842" lon="98.964254">
        <ele>325.75</ele>
      </trkpt>
      <trkpt lat="18.827831" lon="98.964692">
        <ele>327.0</ele>
      </trkpt>
      <trkpt lat="18.827722" lon="98.964779">
        <ele>327.25</ele>
      </trkpt>
      <trkpt lat="18.826624" lon="98.9656">
        <ele>327.25</ele>
      </trkpt>
      <trkpt lat="18.826448" lon="98.965707">
        <ele>327.5</ele>
      </trkpt>
      <trkpt lat="18.82632" lon="98.965764">
        <ele>327.5</ele>
      </trkpt>
      <trkpt lat="18.826164" lon="98.965812">
        <ele>327.25</ele>
      </trkpt>
      <trkpt lat="18.825996" lon="98.965832">
        <ele>327.0</ele>
      </trkpt>
      <trkpt lat="18.825847" lon="98.965837">
        <ele>326.75</ele>
      </trkpt>
      <trkpt lat="18.823531" lon="98.965505">
        <ele>325.25</ele>
      </trkpt>
      <trkpt lat="18.822882" lon="98.965416">
        <ele>325.25</ele>
      </trkpt>
      <trkpt lat="18.822013" lon="98.965275">
        <ele>326.75</ele>
      </trkpt>
      <trkpt lat="18.821819" lon="98.965224">
        <ele>327.0</ele>
      </trkpt>
      <trkpt lat="18.821631" lon="98.96516">
        <ele>327.5</ele>
      </trkpt>
      <trkpt lat="18.821359" lon="98.965037">
        <ele>328.25</ele>
      </trkpt>
      <trkpt lat="18.820721" lon="98.964673">
        <ele>329.25</ele>
      </trkpt>
      <trkpt lat="18.820161" lon="98.964343">
        <ele>331.25</ele>
      </trkpt>
      <trkpt lat="18.818271" lon="98.963233">
        <ele>324.25</ele>
      </trkpt>
      <trkpt lat="18.818237" lon="98.963213">
        <ele>324.25</ele>
      </trkpt>
      <trkpt lat="18.818036" lon="98.963127">
        <ele>324.25</ele>
      </trkpt>
      <trkpt lat="18.81789" lon="98.963081">
        <ele>324.25</ele>
      </trkpt>
      <trkpt lat="18.817768" lon="98.963061">
        <ele>324.25</ele>
      </trkpt>
      <trkpt lat="18.817624" lon="98.963062">
        <ele>324.0</ele>
      </trkpt>
      <trkpt lat="18.816856" lon="98.963145">
        <ele>324.25</ele>
      </trkpt>
      <trkpt lat="18.816242" lon="98.963212">
        <ele>324.25</ele>
      </trkpt>
      <trkpt lat="18.816206" lon="98.963215">
        <ele>324.25</ele>
      </trkpt>
      <trkpt lat="18.81575" lon="98.96327">
        <ele>324.25</ele>
      </trkpt>
      <trkpt lat="18.815103" lon="98.963347">
        <ele>325.75</ele>
      </trkpt>
      <trkpt lat="18.814191" lon="98.963446">
        <ele>325.75</ele>
      </trkpt>
      <trkpt lat="18.813873" lon="98.96348">
        <ele>325.25</ele>
      </trkpt>
      <trkpt lat="18.813523" lon="98.963518">
        <ele>324.75</ele>
      </trkpt>
      <trkpt lat="18.813403" lon="98.963531">
        <ele>324.5</ele>
      </trkpt>
      <trkpt lat="18.812919" lon="98.963558">
        <ele>326.0</ele>
      </trkpt>
      <trkpt lat="18.812717" lon="98.96354">
        <ele>326.75</ele>
      </trkpt>
      <trkpt lat="18.812168" lon="98.963454">
        <ele>327.75</ele>
      </trkpt>
      <trkpt lat="18.811723" lon="98.96338">
        <ele>327.75</ele>
      </trkpt>
      <trkpt lat="18.811603" lon="98.963361">
        <ele>328.0</ele>
      </trkpt>
      <trkpt lat="18.811442" lon="98.963335">
        <ele>328.5</ele>
      </trkpt>
      <trkpt lat="18.811168" lon="98.963291">
        <ele>329.0</ele>
      </trkpt>
      <trkpt lat="18.809854" lon="98.963085">
        <ele>330.25</ele>
      </trkpt>
      <trkpt lat="18.809462" lon="98.963021">
        <ele>328.25</ele>
      </trkpt>
      <trkpt lat="18.809225" lon="98.962983">
        <ele>327.25</ele>
      </trkpt>
      <trkpt lat="18.808744" lon="98.9629">
        <ele>327.5</ele>
      </trkpt>
      <trkpt lat="18.808651" lon="98.963225">
        <ele>329.0</ele>
      </trkpt>
      <trkpt lat="18.808578" lon="98.963475">
        <ele>329.25</ele>
      </trkpt>
      <trkpt lat="18.808559" lon="98.963537">
        <ele>329.25</ele>
      </trkpt>
      <trkpt lat="18.80854" lon="98.963599">
        <ele>329.0</ele>
      </trkpt>
      <trkpt lat="18.808522" lon="98.963657">
        <ele>328.0</ele>
      </trkpt>
      <trkpt lat="18.808409" lon="98.964047">
        <ele>328.0</ele>
      </trkpt>
      <trkpt lat="18.808354" lon="98.964238">
        <ele>327.5</ele>
      </trkpt>
      <trkpt lat="18.808309" lon="98.964392">
        <ele>326.75</ele>
      </trkpt>
      <trkpt lat="18.808255" lon="98.964576">
        <ele>325.75</ele>
      </trkpt>
      <trkpt lat="18.808143" lon="98.964958">
        <ele>324.25</ele>
      </trkpt>
      <trkpt lat="18.808025" lon="98.965384">
        <ele>323.75</ele>
      </trkpt>
      <trkpt lat="18.807882" lon="98.965902">
        <ele>323.5</ele>
      </trkpt>
      <trkpt lat="18.807807" lon="98.966171">
        <ele>324.0</ele>
      </trkpt>
      <trkpt lat="18.807635" lon="98.966793">
        <ele>324.5</ele>
      </trkpt>
      <trkpt lat="18.807604" lon="98.966905">
        <ele>324.5</ele>
      </trkpt>
      <trkpt lat="18.807398" lon="98.967648">
        <ele>323.25</ele>
      </trkpt>
      <trkpt lat="18.80728" lon="98.968044">
        <ele>321.75</ele>
      </trkpt>
      <trkpt lat="18.807227" lon="98.968209">
        <ele>321.25</ele>
      </trkpt>
      <trkpt lat="18.80713" lon="98.968517">
        <ele>320.75</ele>
      </trkpt>
      <trkpt lat="18.8071" lon="98.968586">
        <ele>320.75</ele>
      </trkpt>
      <trkpt lat="18.806973" lon="98.968777">
        <ele>321.0</ele>
      </trkpt>
      <trkpt lat="18.806903" lon="98.968919">
        <ele>321.25</ele>
      </trkpt>
      <trkpt lat="18.806834" lon="98.969152">
        <ele>321.75</ele>
      </trkpt>
      <trkpt lat="18.806784" lon="98.969335">
        <ele>321.75</ele>
      </trkpt>
      <trkpt lat="18.806344" lon="98.969335">
        <ele>321.75</ele>
      </trkpt>
      <trkpt lat="18.806231" lon="98.969315">
        <ele>321.75</ele>
      </trkpt>
      <trkpt lat="18.805552" lon="98.969061">
        <ele>322.5</ele>
      </trkpt>
      <trkpt lat="18.80527" lon="98.968953">
        <ele>323.0</ele>
      </trkpt>
      <trkpt lat="18.805188" lon="98.968922">
        <ele>323.0</ele>
      </trkpt>
      <trkpt lat="18.805014" lon="98.968856">
        <ele>323.0</ele>
      </trkpt>
      <trkpt lat="18.804882" lon="98.968834">
        <ele>322.5</ele>
      </trkpt>
      <trkpt lat="18.804727" lon="98.968842">
        <ele>322.0</ele>
      </trkpt>
      <trkpt lat="18.804558" lon="98.968869">
        <ele>321.25</ele>
      </trkpt>
      <trkpt lat="18.804491" lon="98.968872">
        <ele>321.0</ele>
      </trkpt>
      <trkpt lat="18.80436" lon="98.968878">
        <ele>320.5</ele>
      </trkpt>
      <trkpt lat="18.80419" lon="98.968872">
        <ele>319.75</ele>
      </trkpt>
      <trkpt lat="18.80405" lon="98.968853">
        <ele>320.0</ele>
      </trkpt>
      <trkpt lat="18.804022" lon="98.968851">
        <ele>320.0</ele>
      </trkpt>
      <trkpt lat="18.803866" lon="98.968823">
        <ele>320.75</ele>
      </trkpt>
      <trkpt lat="18.803813" lon="98.968791">
        <ele>321.25</ele>
      </trkpt>
    </trkseg>
  </trk>
</gpx>