<?xml version="1.0" encoding="UTF-8"?>
<gpx creator="StravaGPX" version="1.1" xmlns="http://www.topografix.com/GPX/1/1" xmlns:xsi="http://www.w3.org/2001/XMLSchema-instance" xsi:schemaLocation="http://www.topografix.com/GPX/1/1 http://www.topografix.com/GPX/1/1/gpx.xsd">
 <metadata>
  <name>Cобачка - ерменсай - медео</name>
  <author>
   <name>Vladimir Sumarokov 🇰🇿🇷🇺🇹🇭</name>
   <link href="https://www.strava.com/athletes/16069938"/>
  </author>
  <copyright author="OpenStreetMap contributors">
   <year>2020</year>
   <license>https://www.openstreetmap.org/copyright</license>
  </copyright>
  <link href="https://www.strava.com/routes/3075443901550624688"/>
 </metadata>
 <trk>
  <name>Cобачка - ерменсай - медео</name>
  <link href="https://www.strava.com/routes/3075443901550624688"/>
  <type>cycling</type>
  <trkseg>
   <trkpt lat="43.193760000000005" lon="76.88821">
    <ele>989.4300000000001</ele>
   </trkpt>
   <trkpt lat="43.193060000023216" lon="76.88834500155927">
    <ele>993.1800000000001</ele>
   </trkpt>
   <trkpt lat="43.19236" lon="76.88848">
    <ele>995.9700000000001</ele>
   </trkpt>
   <trkpt lat="43.19151666682974" lon="76.88863333757837">
    <ele>999.11</ele>
   </trkpt>
   <trkpt lat="43.19067333345472" lon="76.88878667091922">
    <ele>1003.1000000000001</ele>
   </trkpt>
   <trkpt lat="43.18983" lon="76.88894">
    <ele>1007.2100000000002</ele>
   </trkpt>
   <trkpt lat="43.18937000000963" lon="76.88899500041495">
    <ele>1009.3000000000001</ele>
   </trkpt>
   <trkpt lat="43.18891000000001" lon="76.88905000000001">
    <ele>1011.3199999999999</ele>
   </trkpt>
   <trkpt lat="43.18805200011566" lon="76.88913400472363">
    <ele>1015.29</ele>
   </trkpt>
   <trkpt lat="43.18719400016985" lon="76.88921800708566">
    <ele>1018.51</ele>
   </trkpt>
   <trkpt lat="43.1863360001626" lon="76.88930200708623">
    <ele>1022.7900000000001</ele>
   </trkpt>
   <trkpt lat="43.18547800009388" lon="76.88938600472548">
    <ele>1026.8600000000001</ele>
   </trkpt>
   <trkpt lat="43.18462" lon="76.88947">
    <ele>1030.6699999999998</ele>
   </trkpt>
   <trkpt lat="43.18400666678397" lon="76.88955000159946">
    <ele>1034.21</ele>
   </trkpt>
   <trkpt lat="43.1833933335122" lon="76.8896300015914">
    <ele>1037.76</ele>
   </trkpt>
   <trkpt lat="43.18278" lon="76.88971000000001">
    <ele>1039.25</ele>
   </trkpt>
   <trkpt lat="43.181900000000006" lon="76.88986000000001">
    <ele>1044.1</ele>
   </trkpt>
   <trkpt lat="43.181031250586415" lon="76.88999876381968">
    <ele>1048.5300000000002</ele>
   </trkpt>
   <trkpt lat="43.180162501005135" lon="76.89013752369041">
    <ele>1052.25</ele>
   </trkpt>
   <trkpt lat="43.179293751256175" lon="76.8902762796125">
    <ele>1056.78</ele>
   </trkpt>
   <trkpt lat="43.17842500133955" lon="76.89041503158609">
    <ele>1059.43</ele>
   </trkpt>
   <trkpt lat="43.17755625125524" lon="76.89055377961147">
    <ele>1062.0800000000002</ele>
   </trkpt>
   <trkpt lat="43.1766875010033" lon="76.89069252368886">
    <ele>1066.67</ele>
   </trkpt>
   <trkpt lat="43.17581875058371" lon="76.89083126381848">
    <ele>1070.53</ele>
   </trkpt>
   <trkpt lat="43.17495" lon="76.89097000000001">
    <ele>1074.51</ele>
   </trkpt>
   <trkpt lat="43.17411000005714" lon="76.8910466687752">
    <ele>1078.5500000000002</ele>
   </trkpt>
   <trkpt lat="43.173270000063106" lon="76.89112333544129">
    <ele>1083.45</ele>
   </trkpt>
   <trkpt lat="43.172430000000006" lon="76.89120000000001">
    <ele>1085.65</ele>
   </trkpt>
   <trkpt lat="43.17160111128692" lon="76.89127111883171">
    <ele>1090.8300000000002</ele>
   </trkpt>
   <trkpt lat="43.17077222252978" lon="76.89134223573302">
    <ele>1094.24</ele>
   </trkpt>
   <trkpt lat="43.16994333372861" lon="76.89141335070404">
    <ele>1098.96</ele>
   </trkpt>
   <trkpt lat="43.16911444488339" lon="76.89148446374489">
    <ele>1102.29</ele>
   </trkpt>
   <trkpt lat="43.168285555994125" lon="76.89155557485567">
    <ele>1105.51</ele>
   </trkpt>
   <trkpt lat="43.16745666706083" lon="76.8916266840365">
    <ele>1108.93</ele>
   </trkpt>
   <trkpt lat="43.1666277780835" lon="76.89169779128746">
    <ele>1113.24</ele>
   </trkpt>
   <trkpt lat="43.165798889062124" lon="76.8917688966087">
    <ele>1117.95</ele>
   </trkpt>
   <trkpt lat="43.164970000000004" lon="76.89184">
    <ele>1121.42</ele>
   </trkpt>
   <trkpt lat="43.16442000000001" lon="76.89193">
    <ele>1124.17</ele>
   </trkpt>
   <trkpt lat="43.163740000119255" lon="76.89216500265766">
    <ele>1127.2000000000003</ele>
   </trkpt>
   <trkpt lat="43.16306" lon="76.89240000000001">
    <ele>1129.0</ele>
   </trkpt>
   <trkpt lat="43.163430000000005" lon="76.89308000000001">
    <ele>1124.0</ele>
   </trkpt>
   <trkpt lat="43.16376" lon="76.89361000000001">
    <ele>1118.77</ele>
   </trkpt>
   <trkpt lat="43.164010000000005" lon="76.89378">
    <ele>1117.5400000000002</ele>
   </trkpt>
   <trkpt lat="43.164190000000005" lon="76.89385">
    <ele>1116.43</ele>
   </trkpt>
   <trkpt lat="43.16477999994812" lon="76.89390999941365">
    <ele>1114.65</ele>
   </trkpt>
   <trkpt lat="43.16537" lon="76.89397000000001">
    <ele>1112.3100000000002</ele>
   </trkpt>
   <trkpt lat="43.16563" lon="76.89408">
    <ele>1112.06</ele>
   </trkpt>
   <trkpt lat="43.16572" lon="76.89420000000001">
    <ele>1111.91</ele>
   </trkpt>
   <trkpt lat="43.16577" lon="76.89434">
    <ele>1111.8600000000001</ele>
   </trkpt>
   <trkpt lat="43.165780000000005" lon="76.89457">
    <ele>1112.02</ele>
   </trkpt>
   <trkpt lat="43.165710000000004" lon="76.89531000000001">
    <ele>1113.51</ele>
   </trkpt>
   <trkpt lat="43.16575" lon="76.89588">
    <ele>1113.69</ele>
   </trkpt>
   <trkpt lat="43.165890000000005" lon="76.89621000000001">
    <ele>1113.3600000000001</ele>
   </trkpt>
   <trkpt lat="43.166090000000004" lon="76.89634000000001">
    <ele>1112.77</ele>
   </trkpt>
   <trkpt lat="43.165400000000005" lon="76.89634000000001">
    <ele>1117.27</ele>
   </trkpt>
   <trkpt lat="43.165040000000005" lon="76.89677">
    <ele>1122.48</ele>
   </trkpt>
   <trkpt lat="43.16463" lon="76.89742000000001">
    <ele>1130.64</ele>
   </trkpt>
   <trkpt lat="43.164405001367285" lon="76.89798000205819">
    <ele>1136.12</ele>
   </trkpt>
   <trkpt lat="43.16418" lon="76.89854000000001">
    <ele>1140.8200000000002</ele>
   </trkpt>
   <trkpt lat="43.16409" lon="76.89865">
    <ele>1141.99</ele>
   </trkpt>
   <trkpt lat="43.163940000000004" lon="76.89878">
    <ele>1143.73</ele>
   </trkpt>
   <trkpt lat="43.16333333340271" lon="76.89886666838737">
    <ele>1150.0400000000002</ele>
   </trkpt>
   <trkpt lat="43.16272666674001" lon="76.89895333505343">
    <ele>1157.54</ele>
   </trkpt>
   <trkpt lat="43.16212" lon="76.89904">
    <ele>1161.51</ele>
   </trkpt>
   <trkpt lat="43.16141750066401" lon="76.89926500776039">
    <ele>1166.96</ele>
   </trkpt>
   <trkpt lat="43.1607150008871" lon="76.89949001034647">
    <ele>1170.5100000000002</ele>
   </trkpt>
   <trkpt lat="43.160012500669346" lon="76.89971500775843">
    <ele>1174.26</ele>
   </trkpt>
   <trkpt lat="43.159310000000005" lon="76.89994">
    <ele>1178.96</ele>
   </trkpt>
   <trkpt lat="43.158585000148314" lon="76.90016000262933">
    <ele>1183.3700000000001</ele>
   </trkpt>
   <trkpt lat="43.15786000000001" lon="76.90038000000001">
    <ele>1187.1200000000001</ele>
   </trkpt>
   <trkpt lat="43.157700000000006" lon="76.89975000000001">
    <ele>1188.3600000000001</ele>
   </trkpt>
   <trkpt lat="43.157630000000005" lon="76.8996">
    <ele>1188.7</ele>
   </trkpt>
   <trkpt lat="43.15748000000001" lon="76.89951">
    <ele>1189.33</ele>
   </trkpt>
   <trkpt lat="43.156810000024954" lon="76.89966500171795">
    <ele>1191.0200000000002</ele>
   </trkpt>
   <trkpt lat="43.15614" lon="76.89982">
    <ele>1194.28</ele>
   </trkpt>
   <trkpt lat="43.15563500028614" lon="76.8999850013088">
    <ele>1197.6</ele>
   </trkpt>
   <trkpt lat="43.15513000000001" lon="76.90015000000001">
    <ele>1199.84</ele>
   </trkpt>
   <trkpt lat="43.15513000000001" lon="76.90016">
    <ele>1199.88</ele>
   </trkpt>
   <trkpt lat="43.154450000458496" lon="76.90038333829558">
    <ele>1203.2</ele>
   </trkpt>
   <trkpt lat="43.1537700004826" lon="76.90060667162092">
    <ele>1207.93</ele>
   </trkpt>
   <trkpt lat="43.153090000000006" lon="76.90083000000001">
    <ele>1210.3300000000002</ele>
   </trkpt>
   <trkpt lat="43.15313667520684" lon="76.90181999859293">
    <ele>1212.3600000000001</ele>
   </trkpt>
   <trkpt lat="43.153183341878446" lon="76.90280999869793">
    <ele>1212.7100000000003</ele>
   </trkpt>
   <trkpt lat="43.15323" lon="76.9038">
    <ele>1211.0200000000002</ele>
   </trkpt>
   <trkpt lat="43.153355001902995" lon="76.9044549988432">
    <ele>1210.21</ele>
   </trkpt>
   <trkpt lat="43.15348" lon="76.90511000000001">
    <ele>1209.92</ele>
   </trkpt>
   <trkpt lat="43.153560000000006" lon="76.90512000000001">
    <ele>1208.13</ele>
   </trkpt>
   <trkpt lat="43.15361" lon="76.90521000000001">
    <ele>1208.13</ele>
   </trkpt>
   <trkpt lat="43.15372000000001" lon="76.90554">
    <ele>1206.17</ele>
   </trkpt>
   <trkpt lat="43.15381" lon="76.90567">
    <ele>1205.8500000000001</ele>
   </trkpt>
   <trkpt lat="43.153940000000006" lon="76.90576">
    <ele>1205.96</ele>
   </trkpt>
   <trkpt lat="43.15422" lon="76.90585">
    <ele>1208.3000000000002</ele>
   </trkpt>
   <trkpt lat="43.15451" lon="76.9059">
    <ele>1209.9</ele>
   </trkpt>
   <trkpt lat="43.15487" lon="76.90605000000001">
    <ele>1211.44</ele>
   </trkpt>
   <trkpt lat="43.154860000000006" lon="76.90605000000001">
    <ele>1211.38</ele>
   </trkpt>
   <trkpt lat="43.15493" lon="76.90608">
    <ele>1211.67</ele>
   </trkpt>
   <trkpt lat="43.15560000000001" lon="76.90624000000001">
    <ele>1208.8500000000001</ele>
   </trkpt>
   <trkpt lat="43.155950000000004" lon="76.90628000000001">
    <ele>1206.49</ele>
   </trkpt>
   <trkpt lat="43.156180000000006" lon="76.90634">
    <ele>1204.89</ele>
   </trkpt>
   <trkpt lat="43.156200000000005" lon="76.90604">
    <ele>1203.2</ele>
   </trkpt>
   <trkpt lat="43.156180000000006" lon="76.90571000000001">
    <ele>1201.17</ele>
   </trkpt>
   <trkpt lat="43.156130000000005" lon="76.90541">
    <ele>1198.77</ele>
   </trkpt>
   <trkpt lat="43.15614" lon="76.90517000000001">
    <ele>1196.98</ele>
   </trkpt>
   <trkpt lat="43.15619" lon="76.90493000000001">
    <ele>1195.15</ele>
   </trkpt>
   <trkpt lat="43.15623" lon="76.90483">
    <ele>1195.15</ele>
   </trkpt>
   <trkpt lat="43.156890000000004" lon="76.90473">
    <ele>1188.5</ele>
   </trkpt>
   <trkpt lat="43.15692000000001" lon="76.90464">
    <ele>1188.2</ele>
   </trkpt>
   <trkpt lat="43.156960000000005" lon="76.90435000000001">
    <ele>1187.69</ele>
   </trkpt>
   <trkpt lat="43.156980000000004" lon="76.90427000000001">
    <ele>1187.5</ele>
   </trkpt>
   <trkpt lat="43.15755" lon="76.90407">
    <ele>1183.45</ele>
   </trkpt>
   <trkpt lat="43.15764" lon="76.90402">
    <ele>1182.4800000000002</ele>
   </trkpt>
   <trkpt lat="43.158310000006615" lon="76.9039500015389">
    <ele>1179.0</ele>
   </trkpt>
   <trkpt lat="43.158979999970576" lon="76.90388000154269">
    <ele>1174.93</ele>
   </trkpt>
   <trkpt lat="43.159650000000006" lon="76.90381000000001">
    <ele>1171.48</ele>
   </trkpt>
   <trkpt lat="43.16027333332999" lon="76.9037633342872">
    <ele>1167.47</ele>
   </trkpt>
   <trkpt lat="43.16089666664101" lon="76.90371666762222">
    <ele>1164.86</ele>
   </trkpt>
   <trkpt lat="43.16152" lon="76.90367">
    <ele>1161.43</ele>
   </trkpt>
   <trkpt lat="43.161530000000006" lon="76.90367">
    <ele>1161.44</ele>
   </trkpt>
   <trkpt lat="43.16228" lon="76.90365000000001">
    <ele>1157.5900000000001</ele>
   </trkpt>
   <trkpt lat="43.16288500005516" lon="76.90367999970547">
    <ele>1152.46</ele>
   </trkpt>
   <trkpt lat="43.16349" lon="76.90371">
    <ele>1151.0500000000002</ele>
   </trkpt>
   <trkpt lat="43.163700000000006" lon="76.90375">
    <ele>1150.6100000000001</ele>
   </trkpt>
   <trkpt lat="43.16393" lon="76.90354">
    <ele>1149.8300000000002</ele>
   </trkpt>
   <trkpt lat="43.16404000000001" lon="76.90337000000001">
    <ele>1149.49</ele>
   </trkpt>
   <trkpt lat="43.164210000000004" lon="76.90332000000001">
    <ele>1149.2</ele>
   </trkpt>
   <trkpt lat="43.164390000000004" lon="76.90333000000001">
    <ele>1149.1</ele>
   </trkpt>
   <trkpt lat="43.16510000103702" lon="76.90281000614654">
    <ele>1147.1299999999999</ele>
   </trkpt>
   <trkpt lat="43.16581" lon="76.90229000000001">
    <ele>1141.2900000000002</ele>
   </trkpt>
   <trkpt lat="43.16583000000001" lon="76.90211000000001">
    <ele>1141.2</ele>
   </trkpt>
   <trkpt lat="43.1664" lon="76.90179">
    <ele>1141.65</ele>
   </trkpt>
   <trkpt lat="43.16646" lon="76.90179">
    <ele>1141.65</ele>
   </trkpt>
   <trkpt lat="43.166540000000005" lon="76.902">
    <ele>1141.43</ele>
   </trkpt>
   <trkpt lat="43.1666" lon="76.90206">
    <ele>1141.16</ele>
   </trkpt>
   <trkpt lat="43.16667" lon="76.90205">
    <ele>1141.16</ele>
   </trkpt>
   <trkpt lat="43.166760000000004" lon="76.902">
    <ele>1141.16</ele>
   </trkpt>
   <trkpt lat="43.16682" lon="76.90187">
    <ele>1140.47</ele>
   </trkpt>
   <trkpt lat="43.1668" lon="76.90174">
    <ele>1140.47</ele>
   </trkpt>
   <trkpt lat="43.16671" lon="76.90154000000001">
    <ele>1139.95</ele>
   </trkpt>
   <trkpt lat="43.16732333336227" lon="76.90154666653311">
    <ele>1136.23</ele>
   </trkpt>
   <trkpt lat="43.167936666724145" lon="76.90155333320008">
    <ele>1134.05</ele>
   </trkpt>
   <trkpt lat="43.16855" lon="76.90156">
    <ele>1129.9</ele>
   </trkpt>
   <trkpt lat="43.16922749999427" lon="76.90156749975036">
    <ele>1126.54</ele>
   </trkpt>
   <trkpt lat="43.169904999988034" lon="76.90157499966709">
    <ele>1123.39</ele>
   </trkpt>
   <trkpt lat="43.170582499981315" lon="76.9015824997502">
    <ele>1119.3600000000001</ele>
   </trkpt>
   <trkpt lat="43.171260000000004" lon="76.90159000000001">
    <ele>1116.23</ele>
   </trkpt>
   <trkpt lat="43.1712850039253" lon="76.90253999943675">
    <ele>1113.94</ele>
   </trkpt>
   <trkpt lat="43.171310000000005" lon="76.90349">
    <ele>1112.89</ele>
   </trkpt>
   <trkpt lat="43.17135000355496" lon="76.90439499914874">
    <ele>1109.44</ele>
   </trkpt>
   <trkpt lat="43.17139" lon="76.90530000000001">
    <ele>1109.3600000000001</ele>
   </trkpt>
   <trkpt lat="43.17136000000001" lon="76.90543000000001">
    <ele>1109.3600000000001</ele>
   </trkpt>
   <trkpt lat="43.17123" lon="76.90557000000001">
    <ele>1109.39</ele>
   </trkpt>
   <trkpt lat="43.171200000000006" lon="76.90567">
    <ele>1109.2300000000002</ele>
   </trkpt>
   <trkpt lat="43.171220000000005" lon="76.90621">
    <ele>1108.22</ele>
   </trkpt>
   <trkpt lat="43.17137" lon="76.90656000000001">
    <ele>1108.2500000000002</ele>
   </trkpt>
   <trkpt lat="43.17148" lon="76.90669000000001">
    <ele>1108.6299999999999</ele>
   </trkpt>
   <trkpt lat="43.17168" lon="76.90684">
    <ele>1109.5600000000002</ele>
   </trkpt>
   <trkpt lat="43.17229333404236" lon="76.90711999438811">
    <ele>1109.76</ele>
   </trkpt>
   <trkpt lat="43.17290666740194" lon="76.90739999440001">
    <ele>1107.0800000000002</ele>
   </trkpt>
   <trkpt lat="43.17352" lon="76.90768000000001">
    <ele>1103.6200000000001</ele>
   </trkpt>
   <trkpt lat="43.17413333387069" lon="76.90792999497552">
    <ele>1099.94</ele>
   </trkpt>
   <trkpt lat="43.1747466671971" lon="76.90817999497261">
    <ele>1097.5300000000002</ele>
   </trkpt>
   <trkpt lat="43.175360000000005" lon="76.90843000000001">
    <ele>1096.72</ele>
   </trkpt>
   <trkpt lat="43.17504" lon="76.90879000000001">
    <ele>1097.5600000000002</ele>
   </trkpt>
   <trkpt lat="43.17474000000001" lon="76.90926">
    <ele>1098.06</ele>
   </trkpt>
   <trkpt lat="43.174420000000005" lon="76.9094">
    <ele>1097.1200000000001</ele>
   </trkpt>
   <trkpt lat="43.1739" lon="76.90949">
    <ele>1096.47</ele>
   </trkpt>
   <trkpt lat="43.17339499997602" lon="76.90945499970856">
    <ele>1095.94</ele>
   </trkpt>
   <trkpt lat="43.17289" lon="76.90942000000001">
    <ele>1095.69</ele>
   </trkpt>
   <trkpt lat="43.172650000000004" lon="76.90944">
    <ele>1095.7800000000002</ele>
   </trkpt>
   <trkpt lat="43.17237" lon="76.90953">
    <ele>1096.51</ele>
   </trkpt>
   <trkpt lat="43.17211" lon="76.9097">
    <ele>1098.17</ele>
   </trkpt>
   <trkpt lat="43.17168000110799" lon="76.91017500320567">
    <ele>1102.6200000000001</ele>
   </trkpt>
   <trkpt lat="43.17125" lon="76.91065">
    <ele>1108.13</ele>
   </trkpt>
   <trkpt lat="43.170970000000004" lon="76.91093000000001">
    <ele>1111.5600000000002</ele>
   </trkpt>
   <trkpt lat="43.1706" lon="76.91124">
    <ele>1114.88</ele>
   </trkpt>
   <trkpt lat="43.170320000000004" lon="76.91146">
    <ele>1116.6599999999999</ele>
   </trkpt>
   <trkpt lat="43.170030000000004" lon="76.91174000000001">
    <ele>1118.16</ele>
   </trkpt>
   <trkpt lat="43.169760000000004" lon="76.91211000000001">
    <ele>1118.8400000000001</ele>
   </trkpt>
   <trkpt lat="43.169360000000005" lon="76.91291000000001">
    <ele>1120.38</ele>
   </trkpt>
   <trkpt lat="43.169000000000004" lon="76.91381000000001">
    <ele>1122.89</ele>
   </trkpt>
   <trkpt lat="43.16874000162127" lon="76.91442000259424">
    <ele>1124.47</ele>
   </trkpt>
   <trkpt lat="43.16848" lon="76.91503">
    <ele>1128.3100000000002</ele>
   </trkpt>
   <trkpt lat="43.1681" lon="76.91572000000001">
    <ele>1131.58</ele>
   </trkpt>
   <trkpt lat="43.16787" lon="76.91621">
    <ele>1134.3100000000002</ele>
   </trkpt>
   <trkpt lat="43.16781" lon="76.91637">
    <ele>1134.66</ele>
   </trkpt>
   <trkpt lat="43.16818000000001" lon="76.91659">
    <ele>1132.49</ele>
   </trkpt>
   <trkpt lat="43.16869000025222" lon="76.91683499794996">
    <ele>1128.93</ele>
   </trkpt>
   <trkpt lat="43.169200000000004" lon="76.91708000000001">
    <ele>1124.1100000000001</ele>
   </trkpt>
   <trkpt lat="43.16992000284645" lon="76.91748398095207">
    <ele>1118.8</ele>
   </trkpt>
   <trkpt lat="43.17064000427158" lon="76.91788797142867">
    <ele>1114.29</ele>
   </trkpt>
   <trkpt lat="43.17136000427532" lon="76.91829197143029">
    <ele>1106.99</ele>
   </trkpt>
   <trkpt lat="43.17208000285759" lon="76.91869598095734">
    <ele>1102.42</ele>
   </trkpt>
   <trkpt lat="43.1728" lon="76.9191">
    <ele>1100.96</ele>
   </trkpt>
   <trkpt lat="43.173605000845136" lon="76.9195299943533">
    <ele>1097.43</ele>
   </trkpt>
   <trkpt lat="43.17441" lon="76.91996">
    <ele>1094.73</ele>
   </trkpt>
   <trkpt lat="43.17500500051459" lon="76.92030499663639">
    <ele>1092.95</ele>
   </trkpt>
   <trkpt lat="43.1756" lon="76.92065000000001">
    <ele>1092.23</ele>
   </trkpt>
   <trkpt lat="43.176095000486704" lon="76.92099999712981">
    <ele>1090.66</ele>
   </trkpt>
   <trkpt lat="43.176590000000004" lon="76.92135">
    <ele>1088.88</ele>
   </trkpt>
   <trkpt lat="43.177040000000005" lon="76.92162">
    <ele>1087.21</ele>
   </trkpt>
   <trkpt lat="43.177480000278344" lon="76.92186499824403">
    <ele>1084.41</ele>
   </trkpt>
   <trkpt lat="43.17792" lon="76.92211">
    <ele>1082.4</ele>
   </trkpt>
   <trkpt lat="43.17842500023808" lon="76.92235499796242">
    <ele>1079.67</ele>
   </trkpt>
   <trkpt lat="43.17893" lon="76.9226">
    <ele>1077.74</ele>
   </trkpt>
   <trkpt lat="43.17904" lon="76.9227">
    <ele>1077.2400000000002</ele>
   </trkpt>
   <trkpt lat="43.17927" lon="76.92286">
    <ele>1076.47</ele>
   </trkpt>
   <trkpt lat="43.17972500070215" lon="76.92324999712781">
    <ele>1074.96</ele>
   </trkpt>
   <trkpt lat="43.18018" lon="76.92364">
    <ele>1072.2900000000002</ele>
   </trkpt>
   <trkpt lat="43.180640000000004" lon="76.92406000000001">
    <ele>1070.8300000000002</ele>
   </trkpt>
   <trkpt lat="43.181340000000006" lon="76.9248">
    <ele>1069.94</ele>
   </trkpt>
   <trkpt lat="43.18186" lon="76.92524">
    <ele>1068.3500000000001</ele>
   </trkpt>
   <trkpt lat="43.18222" lon="76.92559">
    <ele>1066.5900000000001</ele>
   </trkpt>
   <trkpt lat="43.18265" lon="76.92625000000001">
    <ele>1064.8200000000002</ele>
   </trkpt>
   <trkpt lat="43.182880000000004" lon="76.92674000000001">
    <ele>1063.9199999999998</ele>
   </trkpt>
   <trkpt lat="43.182930000000006" lon="76.92692000000001">
    <ele>1063.7</ele>
   </trkpt>
   <trkpt lat="43.18309000000001" lon="76.92718">
    <ele>1063.13</ele>
   </trkpt>
   <trkpt lat="43.18309000000001" lon="76.92719000000001">
    <ele>1063.1200000000001</ele>
   </trkpt>
   <trkpt lat="43.18328" lon="76.92749">
    <ele>1061.92</ele>
   </trkpt>
   <trkpt lat="43.183420000000005" lon="76.92765">
    <ele>1061.21</ele>
   </trkpt>
   <trkpt lat="43.18357" lon="76.92777000000001">
    <ele>1059.74</ele>
   </trkpt>
   <trkpt lat="43.18368" lon="76.92781000000001">
    <ele>1059.74</ele>
   </trkpt>
   <trkpt lat="43.183890000000005" lon="76.92783">
    <ele>1057.2700000000002</ele>
   </trkpt>
   <trkpt lat="43.18444" lon="76.92701000000001">
    <ele>1052.3500000000001</ele>
   </trkpt>
   <trkpt lat="43.184900000000006" lon="76.92611000000001">
    <ele>1047.92</ele>
   </trkpt>
   <trkpt lat="43.18488000000001" lon="76.92637">
    <ele>1047.91</ele>
   </trkpt>
   <trkpt lat="43.18491" lon="76.92654">
    <ele>1047.7500000000002</ele>
   </trkpt>
   <trkpt lat="43.185190000000006" lon="76.92748">
    <ele>1049.3100000000002</ele>
   </trkpt>
   <trkpt lat="43.18533" lon="76.92822000000001">
    <ele>1054.0900000000001</ele>
   </trkpt>
   <trkpt lat="43.18535000000001" lon="76.92853000000001">
    <ele>1055.3400000000001</ele>
   </trkpt>
   <trkpt lat="43.185370000000006" lon="76.92898000000001">
    <ele>1056.4900000000002</ele>
   </trkpt>
   <trkpt lat="43.185410000000005" lon="76.92922">
    <ele>1056.71</ele>
   </trkpt>
   <trkpt lat="43.185480000000005" lon="76.92936">
    <ele>1056.92</ele>
   </trkpt>
   <trkpt lat="43.185570000000006" lon="76.92945">
    <ele>1056.92</ele>
   </trkpt>
   <trkpt lat="43.185880000000004" lon="76.92961000000001">
    <ele>1056.5600000000002</ele>
   </trkpt>
   <trkpt lat="43.18623" lon="76.92999">
    <ele>1054.3700000000001</ele>
   </trkpt>
   <trkpt lat="43.186690000000006" lon="76.93063000000001">
    <ele>1050.22</ele>
   </trkpt>
   <trkpt lat="43.18668" lon="76.93079">
    <ele>1050.3600000000001</ele>
   </trkpt>
   <trkpt lat="43.186600000000006" lon="76.93109000000001">
    <ele>1051.0300000000002</ele>
   </trkpt>
   <trkpt lat="43.18643" lon="76.93159">
    <ele>1053.08</ele>
   </trkpt>
   <trkpt lat="43.186370000000004" lon="76.93195">
    <ele>1054.6200000000001</ele>
   </trkpt>
   <trkpt lat="43.18638000000001" lon="76.93220000000001">
    <ele>1055.3300000000002</ele>
   </trkpt>
   <trkpt lat="43.18634" lon="76.93238000000001">
    <ele>1055.99</ele>
   </trkpt>
   <trkpt lat="43.1863" lon="76.9325">
    <ele>1056.71</ele>
   </trkpt>
   <trkpt lat="43.185950000000005" lon="76.93311">
    <ele>1061.45</ele>
   </trkpt>
   <trkpt lat="43.18585" lon="76.93345000000001">
    <ele>1063.3799999999999</ele>
   </trkpt>
   <trkpt lat="43.1858" lon="76.93394">
    <ele>1065.39</ele>
   </trkpt>
   <trkpt lat="43.18582000000001" lon="76.93474">
    <ele>1070.5800000000002</ele>
   </trkpt>
   <trkpt lat="43.1858" lon="76.93507000000001">
    <ele>1073.7800000000002</ele>
   </trkpt>
   <trkpt lat="43.185770000000005" lon="76.93574000000001">
    <ele>1081.01</ele>
   </trkpt>
   <trkpt lat="43.18574" lon="76.93593000000001">
    <ele>1082.36</ele>
   </trkpt>
   <trkpt lat="43.1854800067329" lon="76.93681000753497">
    <ele>1085.8700000000001</ele>
   </trkpt>
   <trkpt lat="43.18522000672139" lon="76.93769000757386">
    <ele>1088.5</ele>
   </trkpt>
   <trkpt lat="43.184960000000004" lon="76.93857000000001">
    <ele>1094.5200000000002</ele>
   </trkpt>
   <trkpt lat="43.18466" lon="76.93949">
    <ele>1098.78</ele>
   </trkpt>
   <trkpt lat="43.18453" lon="76.93974">
    <ele>1101.15</ele>
   </trkpt>
   <trkpt lat="43.18406" lon="76.94032">
    <ele>1104.3100000000002</ele>
   </trkpt>
   <trkpt lat="43.183840000000004" lon="76.94103000000001">
    <ele>1109.4</ele>
   </trkpt>
   <trkpt lat="43.183710000000005" lon="76.94135">
    <ele>1111.7700000000002</ele>
   </trkpt>
   <trkpt lat="43.183530000000005" lon="76.94166000000001">
    <ele>1114.97</ele>
   </trkpt>
   <trkpt lat="43.18338000000001" lon="76.94182">
    <ele>1117.2000000000003</ele>
   </trkpt>
   <trkpt lat="43.18323" lon="76.94203">
    <ele>1118.14</ele>
   </trkpt>
   <trkpt lat="43.18296" lon="76.94258">
    <ele>1122.1499999999999</ele>
   </trkpt>
   <trkpt lat="43.182840000000006" lon="76.94276">
    <ele>1125.2300000000002</ele>
   </trkpt>
   <trkpt lat="43.182610000000004" lon="76.94291000000001">
    <ele>1127.0500000000002</ele>
   </trkpt>
   <trkpt lat="43.18249" lon="76.94301">
    <ele>1128.1100000000001</ele>
   </trkpt>
   <trkpt lat="43.18238" lon="76.94322000000001">
    <ele>1129.7</ele>
   </trkpt>
   <trkpt lat="43.182030000000005" lon="76.94374">
    <ele>1133.04</ele>
   </trkpt>
   <trkpt lat="43.1818" lon="76.94403000000001">
    <ele>1136.39</ele>
   </trkpt>
   <trkpt lat="43.181540000000005" lon="76.94428">
    <ele>1140.7800000000002</ele>
   </trkpt>
   <trkpt lat="43.181340000000006" lon="76.94443000000001">
    <ele>1142.5400000000002</ele>
   </trkpt>
   <trkpt lat="43.18108" lon="76.94477">
    <ele>1145.2600000000002</ele>
   </trkpt>
   <trkpt lat="43.181090000000005" lon="76.94489">
    <ele>1145.55</ele>
   </trkpt>
   <trkpt lat="43.18113" lon="76.94499">
    <ele>1145.66</ele>
   </trkpt>
   <trkpt lat="43.181430000000006" lon="76.94531">
    <ele>1145.61</ele>
   </trkpt>
   <trkpt lat="43.18148" lon="76.94539">
    <ele>1146.0400000000002</ele>
   </trkpt>
   <trkpt lat="43.18151" lon="76.94551000000001">
    <ele>1146.63</ele>
   </trkpt>
   <trkpt lat="43.18151" lon="76.94584">
    <ele>1148.8200000000002</ele>
   </trkpt>
   <trkpt lat="43.181380000000004" lon="76.94641">
    <ele>1154.64</ele>
   </trkpt>
   <trkpt lat="43.181430000000006" lon="76.94651">
    <ele>1155.0500000000002</ele>
   </trkpt>
   <trkpt lat="43.181520000000006" lon="76.94653000000001">
    <ele>1155.1299999999999</ele>
   </trkpt>
   <trkpt lat="43.18171" lon="76.94640000000001">
    <ele>1155.4</ele>
   </trkpt>
   <trkpt lat="43.18211" lon="76.94619">
    <ele>1157.04</ele>
   </trkpt>
   <trkpt lat="43.18236" lon="76.94599000000001">
    <ele>1159.5900000000001</ele>
   </trkpt>
   <trkpt lat="43.182640000000006" lon="76.94583">
    <ele>1162.15</ele>
   </trkpt>
   <trkpt lat="43.182790000000004" lon="76.94583">
    <ele>1163.95</ele>
   </trkpt>
   <trkpt lat="43.182990000000004" lon="76.94593">
    <ele>1163.95</ele>
   </trkpt>
   <trkpt lat="43.18314" lon="76.94608000000001">
    <ele>1166.73</ele>
   </trkpt>
   <trkpt lat="43.18325" lon="76.94631000000001">
    <ele>1167.8700000000001</ele>
   </trkpt>
   <trkpt lat="43.183350000000004" lon="76.94659">
    <ele>1169.46</ele>
   </trkpt>
   <trkpt lat="43.183400000000006" lon="76.94680000000001">
    <ele>1171.6200000000001</ele>
   </trkpt>
   <trkpt lat="43.183460000000004" lon="76.94692">
    <ele>1172.44</ele>
   </trkpt>
   <trkpt lat="43.18354" lon="76.94699">
    <ele>1172.59</ele>
   </trkpt>
   <trkpt lat="43.183780000000006" lon="76.94704">
    <ele>1173.38</ele>
   </trkpt>
   <trkpt lat="43.184090000000005" lon="76.94707000000001">
    <ele>1175.06</ele>
   </trkpt>
   <trkpt lat="43.1843" lon="76.947">
    <ele>1175.68</ele>
   </trkpt>
   <trkpt lat="43.184745000602895" lon="76.94668000221976">
    <ele>1180.8700000000001</ele>
   </trkpt>
   <trkpt lat="43.185190000000006" lon="76.94636000000001">
    <ele>1187.98</ele>
   </trkpt>
   <trkpt lat="43.18542" lon="76.94632">
    <ele>1191.03</ele>
   </trkpt>
   <trkpt lat="43.18565" lon="76.94631000000001">
    <ele>1196.48</ele>
   </trkpt>
   <trkpt lat="43.18592" lon="76.94640000000001">
    <ele>1199.2200000000003</ele>
   </trkpt>
   <trkpt lat="43.18620000000001" lon="76.94652">
    <ele>1203.4</ele>
   </trkpt>
   <trkpt lat="43.186420000000005" lon="76.94657000000001">
    <ele>1206.73</ele>
   </trkpt>
   <trkpt lat="43.18694000000001" lon="76.94651">
    <ele>1213.21</ele>
   </trkpt>
   <trkpt lat="43.18701" lon="76.94656">
    <ele>1213.74</ele>
   </trkpt>
   <trkpt lat="43.18701" lon="76.94668">
    <ele>1213.8500000000001</ele>
   </trkpt>
   <trkpt lat="43.186960000000006" lon="76.94683">
    <ele>1213.81</ele>
   </trkpt>
   <trkpt lat="43.18688" lon="76.94694000000001">
    <ele>1213.7</ele>
   </trkpt>
   <trkpt lat="43.186640000000004" lon="76.94708">
    <ele>1213.0200000000002</ele>
   </trkpt>
   <trkpt lat="43.18603" lon="76.94733000000001">
    <ele>1212.23</ele>
   </trkpt>
   <trkpt lat="43.185750000000006" lon="76.94754">
    <ele>1212.17</ele>
   </trkpt>
   <trkpt lat="43.18549" lon="76.94779000000001">
    <ele>1212.96</ele>
   </trkpt>
   <trkpt lat="43.18516" lon="76.94816">
    <ele>1216.65</ele>
   </trkpt>
   <trkpt lat="43.18502" lon="76.94863000000001">
    <ele>1219.3500000000001</ele>
   </trkpt>
   <trkpt lat="43.18493" lon="76.94916">
    <ele>1217.95</ele>
   </trkpt>
   <trkpt lat="43.184630000000006" lon="76.95014">
    <ele>1209.16</ele>
   </trkpt>
   <trkpt lat="43.18450000000001" lon="76.95046">
    <ele>1207.99</ele>
   </trkpt>
   <trkpt lat="43.184340000000006" lon="76.95076">
    <ele>1205.72</ele>
   </trkpt>
   <trkpt lat="43.184070000000006" lon="76.95107">
    <ele>1203.96</ele>
   </trkpt>
   <trkpt lat="43.183730000000004" lon="76.95142000000001">
    <ele>1202.59</ele>
   </trkpt>
   <trkpt lat="43.183440000000004" lon="76.95192">
    <ele>1201.0</ele>
   </trkpt>
   <trkpt lat="43.18332" lon="76.95202">
    <ele>1199.87</ele>
   </trkpt>
   <trkpt lat="43.182790000000004" lon="76.95222000000001">
    <ele>1196.01</ele>
   </trkpt>
   <trkpt lat="43.182300000000005" lon="76.95235000000001">
    <ele>1192.26</ele>
   </trkpt>
   <trkpt lat="43.181940000000004" lon="76.95254000000001">
    <ele>1190.64</ele>
   </trkpt>
   <trkpt lat="43.18184" lon="76.95262000000001">
    <ele>1189.8500000000001</ele>
   </trkpt>
   <trkpt lat="43.18209500180054" lon="76.95325499745898">
    <ele>1187.3100000000002</ele>
   </trkpt>
   <trkpt lat="43.18235000000001" lon="76.95389">
    <ele>1187.51</ele>
   </trkpt>
   <trkpt lat="43.182480000000005" lon="76.95452">
    <ele>1187.84</ele>
   </trkpt>
   <trkpt lat="43.18256" lon="76.95478">
    <ele>1188.45</ele>
   </trkpt>
   <trkpt lat="43.18272" lon="76.95511">
    <ele>1191.6</ele>
   </trkpt>
   <trkpt lat="43.182770000000005" lon="76.95533">
    <ele>1194.11</ele>
   </trkpt>
   <trkpt lat="43.18272" lon="76.95552">
    <ele>1195.8600000000001</ele>
   </trkpt>
   <trkpt lat="43.18226000000001" lon="76.95616000000001">
    <ele>1201.24</ele>
   </trkpt>
   <trkpt lat="43.182080000000006" lon="76.95654">
    <ele>1203.42</ele>
   </trkpt>
   <trkpt lat="43.182010000000005" lon="76.95685">
    <ele>1204.8100000000002</ele>
   </trkpt>
   <trkpt lat="43.18202" lon="76.95724000000001">
    <ele>1207.7</ele>
   </trkpt>
   <trkpt lat="43.18211" lon="76.95756">
    <ele>1212.79</ele>
   </trkpt>
   <trkpt lat="43.18234" lon="76.95811">
    <ele>1220.64</ele>
   </trkpt>
   <trkpt lat="43.18247" lon="76.95835000000001">
    <ele>1223.3200000000002</ele>
   </trkpt>
   <trkpt lat="43.182943336511634" lon="76.95895332398813">
    <ele>1232.34</ele>
   </trkpt>
   <trkpt lat="43.183416669853095" lon="76.95955665733169">
    <ele>1237.8300000000002</ele>
   </trkpt>
   <trkpt lat="43.183890000000005" lon="76.96016">
    <ele>1239.3100000000002</ele>
   </trkpt>
   <trkpt lat="43.18419" lon="76.96059000000001">
    <ele>1237.19</ele>
   </trkpt>
   <trkpt lat="43.18424" lon="76.96064000000001">
    <ele>1237.19</ele>
   </trkpt>
   <trkpt lat="43.18424" lon="76.96063000000001">
    <ele>1237.2800000000002</ele>
   </trkpt>
   <trkpt lat="43.184360000000005" lon="76.96075">
    <ele>1236.15</ele>
   </trkpt>
   <trkpt lat="43.1846" lon="76.96092">
    <ele>1234.97</ele>
   </trkpt>
   <trkpt lat="43.184920000000005" lon="76.96093">
    <ele>1234.85</ele>
   </trkpt>
   <trkpt lat="43.185370000000006" lon="76.96101">
    <ele>1234.8700000000001</ele>
   </trkpt>
   <trkpt lat="43.185660000000006" lon="76.96111">
    <ele>1234.1200000000001</ele>
   </trkpt>
   <trkpt lat="43.18618" lon="76.96116">
    <ele>1233.89</ele>
   </trkpt>
   <trkpt lat="43.187000000000005" lon="76.96117000000001">
    <ele>1236.3700000000001</ele>
   </trkpt>
   <trkpt lat="43.18722" lon="76.96122000000001">
    <ele>1237.69</ele>
   </trkpt>
   <trkpt lat="43.18744" lon="76.96133">
    <ele>1239.2200000000003</ele>
   </trkpt>
   <trkpt lat="43.18751" lon="76.96156">
    <ele>1238.8700000000001</ele>
   </trkpt>
   <trkpt lat="43.187960000000004" lon="76.96220000000001">
    <ele>1231.3100000000002</ele>
   </trkpt>
   <trkpt lat="43.18849" lon="76.96289">
    <ele>1220.8100000000002</ele>
   </trkpt>
   <trkpt lat="43.18892500149212" lon="76.96349999547286">
    <ele>1214.19</ele>
   </trkpt>
   <trkpt lat="43.18936" lon="76.96411">
    <ele>1205.39</ele>
   </trkpt>
   <trkpt lat="43.18954" lon="76.96445">
    <ele>1200.8700000000001</ele>
   </trkpt>
   <trkpt lat="43.189600000000006" lon="76.96484000000001">
    <ele>1196.14</ele>
   </trkpt>
   <trkpt lat="43.18958000000001" lon="76.96513">
    <ele>1192.2700000000002</ele>
   </trkpt>
   <trkpt lat="43.189460000000004" lon="76.96554">
    <ele>1187.27</ele>
   </trkpt>
   <trkpt lat="43.189310000000006" lon="76.96593">
    <ele>1184.5</ele>
   </trkpt>
   <trkpt lat="43.189350000000005" lon="76.96609000000001">
    <ele>1182.88</ele>
   </trkpt>
   <trkpt lat="43.18945" lon="76.96623000000001">
    <ele>1179.5600000000002</ele>
   </trkpt>
   <trkpt lat="43.18963" lon="76.96633">
    <ele>1176.71</ele>
   </trkpt>
   <trkpt lat="43.19024" lon="76.96632000000001">
    <ele>1170.67</ele>
   </trkpt>
   <trkpt lat="43.190540000000006" lon="76.96635">
    <ele>1167.0</ele>
   </trkpt>
   <trkpt lat="43.190850000000005" lon="76.96651">
    <ele>1162.56</ele>
   </trkpt>
   <trkpt lat="43.19113" lon="76.96673000000001">
    <ele>1157.92</ele>
   </trkpt>
   <trkpt lat="43.19135000000001" lon="76.96699000000001">
    <ele>1154.29</ele>
   </trkpt>
   <trkpt lat="43.19163" lon="76.96757000000001">
    <ele>1150.3600000000001</ele>
   </trkpt>
   <trkpt lat="43.1918" lon="76.96808">
    <ele>1147.89</ele>
   </trkpt>
   <trkpt lat="43.191810000000004" lon="76.96849">
    <ele>1145.42</ele>
   </trkpt>
   <trkpt lat="43.191840000000006" lon="76.96866">
    <ele>1144.63</ele>
   </trkpt>
   <trkpt lat="43.19191" lon="76.9688">
    <ele>1144.43</ele>
   </trkpt>
   <trkpt lat="43.192080000000004" lon="76.9689">
    <ele>1142.91</ele>
   </trkpt>
   <trkpt lat="43.19241" lon="76.96886">
    <ele>1141.72</ele>
   </trkpt>
   <trkpt lat="43.192600000000006" lon="76.96879000000001">
    <ele>1140.5100000000002</ele>
   </trkpt>
   <trkpt lat="43.19308000007756" lon="76.96885999945764">
    <ele>1139.7700000000002</ele>
   </trkpt>
   <trkpt lat="43.193560000000005" lon="76.96893">
    <ele>1139.34</ele>
   </trkpt>
   <trkpt lat="43.19409000007994" lon="76.96907499873754">
    <ele>1138.0100000000002</ele>
   </trkpt>
   <trkpt lat="43.19462" lon="76.96922">
    <ele>1138.66</ele>
   </trkpt>
   <trkpt lat="43.194750000000006" lon="76.96932000000001">
    <ele>1139.6200000000001</ele>
   </trkpt>
   <trkpt lat="43.19482" lon="76.96951">
    <ele>1140.29</ele>
   </trkpt>
   <trkpt lat="43.194840000000006" lon="76.96969">
    <ele>1141.8000000000002</ele>
   </trkpt>
   <trkpt lat="43.19483" lon="76.96988">
    <ele>1142.7200000000003</ele>
   </trkpt>
   <trkpt lat="43.194810000000004" lon="76.97011">
    <ele>1143.0600000000002</ele>
   </trkpt>
   <trkpt lat="43.194860000000006" lon="76.97041">
    <ele>1142.69</ele>
   </trkpt>
   <trkpt lat="43.19494" lon="76.97070000000001">
    <ele>1141.67</ele>
   </trkpt>
   <trkpt lat="43.19498" lon="76.97094000000001">
    <ele>1139.9</ele>
   </trkpt>
   <trkpt lat="43.19496" lon="76.97108">
    <ele>1139.3200000000002</ele>
   </trkpt>
   <trkpt lat="43.19496" lon="76.97116000000001">
    <ele>1138.5800000000002</ele>
   </trkpt>
   <trkpt lat="43.194790000000005" lon="76.9718">
    <ele>1133.82</ele>
   </trkpt>
   <trkpt lat="43.194790000000005" lon="76.97217">
    <ele>1132.2800000000002</ele>
   </trkpt>
   <trkpt lat="43.194810000000004" lon="76.97251">
    <ele>1130.59</ele>
   </trkpt>
   <trkpt lat="43.19493000000001" lon="76.97287">
    <ele>1129.68</ele>
   </trkpt>
   <trkpt lat="43.19512" lon="76.97323">
    <ele>1128.6200000000001</ele>
   </trkpt>
   <trkpt lat="43.19554000031014" lon="76.97344999853789">
    <ele>1127.0200000000002</ele>
   </trkpt>
   <trkpt lat="43.19596000000001" lon="76.97367000000001">
    <ele>1124.44</ele>
   </trkpt>
   <trkpt lat="43.196220000000004" lon="76.97386">
    <ele>1122.7</ele>
   </trkpt>
   <trkpt lat="43.196400000000004" lon="76.97408">
    <ele>1119.7</ele>
   </trkpt>
   <trkpt lat="43.19691" lon="76.9744">
    <ele>1109.72</ele>
   </trkpt>
   <trkpt lat="43.19718" lon="76.97454">
    <ele>1106.0700000000002</ele>
   </trkpt>
   <trkpt lat="43.19744" lon="76.97461000000001">
    <ele>1101.99</ele>
   </trkpt>
   <trkpt lat="43.197720000000004" lon="76.97457">
    <ele>1100.3899999999999</ele>
   </trkpt>
   <trkpt lat="43.198" lon="76.97446000000001">
    <ele>1098.94</ele>
   </trkpt>
   <trkpt lat="43.1984400001864" lon="76.97420500189492">
    <ele>1095.1200000000001</ele>
   </trkpt>
   <trkpt lat="43.19888" lon="76.97395">
    <ele>1092.53</ele>
   </trkpt>
   <trkpt lat="43.199580000000005" lon="76.97343000000001">
    <ele>1087.1000000000001</ele>
   </trkpt>
   <trkpt lat="43.19988" lon="76.97325000000001">
    <ele>1083.8700000000001</ele>
   </trkpt>
   <trkpt lat="43.200050000000005" lon="76.97321000000001">
    <ele>1082.3100000000002</ele>
   </trkpt>
   <trkpt lat="43.20042" lon="76.97322000000001">
    <ele>1081.2700000000002</ele>
   </trkpt>
   <trkpt lat="43.200630000000004" lon="76.97344000000001">
    <ele>1080.89</ele>
   </trkpt>
   <trkpt lat="43.20092" lon="76.97387">
    <ele>1081.08</ele>
   </trkpt>
   <trkpt lat="43.200860000000006" lon="76.97379000000001">
    <ele>1080.88</ele>
   </trkpt>
   <trkpt lat="43.20141" lon="76.97457">
    <ele>1081.76</ele>
   </trkpt>
   <trkpt lat="43.20187000187103" lon="76.9752299949866">
    <ele>1081.8400000000001</ele>
   </trkpt>
   <trkpt lat="43.20233" lon="76.97589">
    <ele>1082.53</ele>
   </trkpt>
   <trkpt lat="43.20255" lon="76.97627">
    <ele>1082.93</ele>
   </trkpt>
   <trkpt lat="43.20266" lon="76.97640000000001">
    <ele>1082.78</ele>
   </trkpt>
   <trkpt lat="43.202780000000004" lon="76.97649000000001">
    <ele>1082.5200000000002</ele>
   </trkpt>
   <trkpt lat="43.20317" lon="76.97667000000001">
    <ele>1081.0300000000002</ele>
   </trkpt>
   <trkpt lat="43.203630000000004" lon="76.97704">
    <ele>1080.17</ele>
   </trkpt>
   <trkpt lat="43.20374" lon="76.97716000000001">
    <ele>1080.16</ele>
   </trkpt>
   <trkpt lat="43.20405" lon="76.97745">
    <ele>1080.54</ele>
   </trkpt>
   <trkpt lat="43.203670001584356" lon="76.9780600038575">
    <ele>1084.6</ele>
   </trkpt>
   <trkpt lat="43.20329" lon="76.97867000000001">
    <ele>1087.3600000000001</ele>
   </trkpt>
   <trkpt lat="43.202975001042844" lon="76.9791600025343">
    <ele>1089.1399999999999</ele>
   </trkpt>
   <trkpt lat="43.20266" lon="76.97965">
    <ele>1091.67</ele>
   </trkpt>
   <trkpt lat="43.20244" lon="76.9799">
    <ele>1093.45</ele>
   </trkpt>
   <trkpt lat="43.202160000000006" lon="76.98012">
    <ele>1095.6200000000001</ele>
   </trkpt>
   <trkpt lat="43.20147400422219" lon="76.98061202212374">
    <ele>1098.48</ele>
   </trkpt>
   <trkpt lat="43.200788006336" lon="76.9811040331831">
    <ele>1101.2700000000002</ele>
   </trkpt>
   <trkpt lat="43.2001020063415" lon="76.9815960331786">
    <ele>1105.63</ele>
   </trkpt>
   <trkpt lat="43.19941600423881" lon="76.98208802211072">
    <ele>1111.76</ele>
   </trkpt>
   <trkpt lat="43.198730000000005" lon="76.98258000000001">
    <ele>1115.64</ele>
   </trkpt>
   <trkpt lat="43.19943000000001" lon="76.98207000000001">
    <ele>1111.01</ele>
   </trkpt>
   <trkpt lat="43.19886333472864" lon="76.98247667425251">
    <ele>1114.3100000000002</ele>
   </trkpt>
   <trkpt lat="43.19829666801691" lon="76.9828833409514">
    <ele>1117.42</ele>
   </trkpt>
   <trkpt lat="43.19773000000001" lon="76.98329000000001">
    <ele>1121.17</ele>
   </trkpt>
   <trkpt lat="43.19708333519112" lon="76.9837500097392">
    <ele>1127.28</ele>
   </trkpt>
   <trkpt lat="43.19643666853929" lon="76.9842100097285">
    <ele>1131.8400000000001</ele>
   </trkpt>
   <trkpt lat="43.19579" lon="76.98467000000001">
    <ele>1135.6000000000001</ele>
   </trkpt>
   <trkpt lat="43.195600000000006" lon="76.98486000000001">
    <ele>1137.63</ele>
   </trkpt>
   <trkpt lat="43.19536" lon="76.98525000000001">
    <ele>1139.43</ele>
   </trkpt>
   <trkpt lat="43.19503000194858" lon="76.9859300038112">
    <ele>1143.21</ele>
   </trkpt>
   <trkpt lat="43.194700000000005" lon="76.98661000000001">
    <ele>1146.2800000000002</ele>
   </trkpt>
   <trkpt lat="43.194280000000006" lon="76.98745000000001">
    <ele>1149.67</ele>
   </trkpt>
   <trkpt lat="43.19418" lon="76.98771">
    <ele>1149.67</ele>
   </trkpt>
   <trkpt lat="43.19403500180031" lon="76.98835500158297">
    <ele>1154.2800000000002</ele>
   </trkpt>
   <trkpt lat="43.19389" lon="76.989">
    <ele>1157.3200000000002</ele>
   </trkpt>
   <trkpt lat="43.193720000000006" lon="76.98951000000001">
    <ele>1158.8100000000002</ele>
   </trkpt>
   <trkpt lat="43.19323000000001" lon="76.99053">
    <ele>1163.31</ele>
   </trkpt>
   <trkpt lat="43.1929" lon="76.99092">
    <ele>1165.16</ele>
   </trkpt>
   <trkpt lat="43.19252000072126" lon="76.99131500241599">
    <ele>1166.7800000000002</ele>
   </trkpt>
   <trkpt lat="43.19214" lon="76.99171000000001">
    <ele>1169.7600000000002</ele>
   </trkpt>
   <trkpt lat="43.191990000000004" lon="76.99203">
    <ele>1171.84</ele>
   </trkpt>
   <trkpt lat="43.19174" lon="76.99271">
    <ele>1176.8200000000002</ele>
   </trkpt>
   <trkpt lat="43.191375004947005" lon="76.9937700061821">
    <ele>1183.78</ele>
   </trkpt>
   <trkpt lat="43.191010000000006" lon="76.99483000000001">
    <ele>1186.5400000000002</ele>
   </trkpt>
   <trkpt lat="43.19071" lon="76.99553">
    <ele>1192.28</ele>
   </trkpt>
   <trkpt lat="43.19039500440608" lon="76.9965400053283">
    <ele>1200.5100000000002</ele>
   </trkpt>
   <trkpt lat="43.19008" lon="76.99755">
    <ele>1206.0600000000002</ele>
   </trkpt>
   <trkpt lat="43.189750005727475" lon="76.99836000872605">
    <ele>1209.6</ele>
   </trkpt>
   <trkpt lat="43.18942000574076" lon="76.99917000869333">
    <ele>1211.15</ele>
   </trkpt>
   <trkpt lat="43.18909" lon="76.99998000000001">
    <ele>1213.15</ele>
   </trkpt>
   <trkpt lat="43.18878334075205" lon="77.0009033426303">
    <ele>1215.64</ele>
   </trkpt>
   <trkpt lat="43.188476674079034" lon="77.00182667598261">
    <ele>1220.48</ele>
   </trkpt>
   <trkpt lat="43.18817000000001" lon="77.00275">
    <ele>1223.3200000000002</ele>
   </trkpt>
   <trkpt lat="43.18808000000001" lon="77.00295000000001">
    <ele>1224.13</ele>
   </trkpt>
   <trkpt lat="43.187690001939224" lon="77.00361000414524">
    <ele>1227.8300000000002</ele>
   </trkpt>
   <trkpt lat="43.1873" lon="77.00427">
    <ele>1230.9800000000002</ele>
   </trkpt>
   <trkpt lat="43.18719" lon="77.00456000000001">
    <ele>1231.77</ele>
   </trkpt>
   <trkpt lat="43.18692" lon="77.00512">
    <ele>1233.43</ele>
   </trkpt>
   <trkpt lat="43.18654000150997" lon="77.00573000397453">
    <ele>1235.94</ele>
   </trkpt>
   <trkpt lat="43.18616" lon="77.00634000000001">
    <ele>1241.02</ele>
   </trkpt>
   <trkpt lat="43.18591000000001" lon="77.00671000000001">
    <ele>1243.22</ele>
   </trkpt>
   <trkpt lat="43.18549" lon="77.00739">
    <ele>1246.0200000000002</ele>
   </trkpt>
   <trkpt lat="43.18529" lon="77.00762">
    <ele>1247.0800000000002</ele>
   </trkpt>
   <trkpt lat="43.184765000611776" lon="77.007990003171">
    <ele>1251.98</ele>
   </trkpt>
   <trkpt lat="43.18424" lon="77.00836000000001">
    <ele>1256.31</ele>
   </trkpt>
   <trkpt lat="43.18395" lon="77.00862000000001">
    <ele>1257.6100000000001</ele>
   </trkpt>
   <trkpt lat="43.183840000000004" lon="77.00877000000001">
    <ele>1258.3500000000001</ele>
   </trkpt>
   <trkpt lat="43.18342500275522" lon="77.00956000529881">
    <ele>1261.8200000000002</ele>
   </trkpt>
   <trkpt lat="43.18301" lon="77.01035">
    <ele>1266.49</ele>
   </trkpt>
   <trkpt lat="43.182900000000004" lon="77.01053">
    <ele>1266.49</ele>
   </trkpt>
   <trkpt lat="43.182790000000004" lon="77.01065000000001">
    <ele>1267.6000000000001</ele>
   </trkpt>
   <trkpt lat="43.18216" lon="77.01104000000001">
    <ele>1271.32</ele>
   </trkpt>
   <trkpt lat="43.18157666764365" lon="77.01136333947505">
    <ele>1274.68</ele>
   </trkpt>
   <trkpt lat="43.18099333437681" lon="77.01168667277145">
    <ele>1277.67</ele>
   </trkpt>
   <trkpt lat="43.18041" lon="77.01201">
    <ele>1282.42</ele>
   </trkpt>
   <trkpt lat="43.179700000000004" lon="77.01235000000001">
    <ele>1287.0700000000002</ele>
   </trkpt>
   <trkpt lat="43.179215000281715" lon="77.01256500167216">
    <ele>1290.27</ele>
   </trkpt>
   <trkpt lat="43.17873" lon="77.01278">
    <ele>1293.98</ele>
   </trkpt>
   <trkpt lat="43.17842" lon="77.01289000000001">
    <ele>1295.89</ele>
   </trkpt>
   <trkpt lat="43.177914999973375" lon="77.01280999932973">
    <ele>1299.49</ele>
   </trkpt>
   <trkpt lat="43.17741" lon="77.01273">
    <ele>1304.9</ele>
   </trkpt>
   <trkpt lat="43.177170000000004" lon="77.01273">
    <ele>1306.71</ele>
   </trkpt>
   <trkpt lat="43.177060000000004" lon="77.01275000000001">
    <ele>1307.3600000000001</ele>
   </trkpt>
   <trkpt lat="43.17676" lon="77.01285">
    <ele>1310.2900000000002</ele>
   </trkpt>
   <trkpt lat="43.17633" lon="77.01308">
    <ele>1312.78</ele>
   </trkpt>
   <trkpt lat="43.175720000000005" lon="77.01348">
    <ele>1316.91</ele>
   </trkpt>
   <trkpt lat="43.175520000000006" lon="77.01365000000001">
    <ele>1318.98</ele>
   </trkpt>
   <trkpt lat="43.175340000000006" lon="77.01385">
    <ele>1318.98</ele>
   </trkpt>
   <trkpt lat="43.174730000000004" lon="77.01473">
    <ele>1324.54</ele>
   </trkpt>
   <trkpt lat="43.17454" lon="77.01506">
    <ele>1330.69</ele>
   </trkpt>
   <trkpt lat="43.174380000000006" lon="77.0154">
    <ele>1330.69</ele>
   </trkpt>
   <trkpt lat="43.174290000000006" lon="77.01571000000001">
    <ele>1332.81</ele>
   </trkpt>
   <trkpt lat="43.17427000000001" lon="77.01584000000001">
    <ele>1334.18</ele>
   </trkpt>
   <trkpt lat="43.174215005904905" lon="77.01700500115709">
    <ele>1340.0100000000002</ele>
   </trkpt>
   <trkpt lat="43.17416" lon="77.01817000000001">
    <ele>1345.99</ele>
   </trkpt>
   <trkpt lat="43.174060004303406" lon="77.01916500170509">
    <ele>1351.7800000000002</ele>
   </trkpt>
   <trkpt lat="43.17396" lon="77.02016">
    <ele>1356.5900000000001</ele>
   </trkpt>
   <trkpt lat="43.17391000000001" lon="77.02061">
    <ele>1358.3500000000001</ele>
   </trkpt>
   <trkpt lat="43.173770000000005" lon="77.02153000000001">
    <ele>1362.5500000000002</ele>
   </trkpt>
   <trkpt lat="43.17364000519179" lon="77.02262000216717">
    <ele>1368.5900000000001</ele>
   </trkpt>
   <trkpt lat="43.17351" lon="77.02371000000001">
    <ele>1374.72</ele>
   </trkpt>
   <trkpt lat="43.173500000000004" lon="77.02399000000001">
    <ele>1375.7</ele>
   </trkpt>
   <trkpt lat="43.17353000000001" lon="77.02519000000001">
    <ele>1382.03</ele>
   </trkpt>
   <trkpt lat="43.17349500345135" lon="77.0260800004548">
    <ele>1386.95</ele>
   </trkpt>
   <trkpt lat="43.173460000000006" lon="77.02697">
    <ele>1391.1200000000001</ele>
   </trkpt>
   <trkpt lat="43.17345" lon="77.02761000000001">
    <ele>1393.43</ele>
   </trkpt>
   <trkpt lat="43.173460000000006" lon="77.02828000000001">
    <ele>1398.7</ele>
   </trkpt>
   <trkpt lat="43.17343" lon="77.02881000000001">
    <ele>1402.67</ele>
   </trkpt>
   <trkpt lat="43.17334" lon="77.02947">
    <ele>1406.4</ele>
   </trkpt>
   <trkpt lat="43.173320000000004" lon="77.02983">
    <ele>1408.47</ele>
   </trkpt>
   <trkpt lat="43.173346672618365" lon="77.03065666595148">
    <ele>1413.21</ele>
   </trkpt>
   <trkpt lat="43.17337333928524" lon="77.031483332625">
    <ele>1418.25</ele>
   </trkpt>
   <trkpt lat="43.1734" lon="77.03231000000001">
    <ele>1422.5</ele>
   </trkpt>
   <trkpt lat="43.173390000000005" lon="77.03259000000001">
    <ele>1422.94</ele>
   </trkpt>
   <trkpt lat="43.17333" lon="77.03286">
    <ele>1423.5000000000002</ele>
   </trkpt>
   <trkpt lat="43.173170000000006" lon="77.03327">
    <ele>1424.6000000000001</ele>
   </trkpt>
   <trkpt lat="43.172900000000006" lon="77.03385">
    <ele>1427.99</ele>
   </trkpt>
   <trkpt lat="43.1726" lon="77.03441000000001">
    <ele>1432.7</ele>
   </trkpt>
   <trkpt lat="43.17228" lon="77.03493">
    <ele>1436.8700000000001</ele>
   </trkpt>
   <trkpt lat="43.171775002493604" lon="77.03568500622569">
    <ele>1443.7900000000002</ele>
   </trkpt>
   <trkpt lat="43.17127000000001" lon="77.03644000000001">
    <ele>1450.49</ele>
   </trkpt>
   <trkpt lat="43.171060000000004" lon="77.03681">
    <ele>1452.43</ele>
   </trkpt>
   <trkpt lat="43.170930000000006" lon="77.03710000000001">
    <ele>1454.32</ele>
   </trkpt>
   <trkpt lat="43.17073500179787" lon="77.03774500210457">
    <ele>1457.63</ele>
   </trkpt>
   <trkpt lat="43.17054" lon="77.03839">
    <ele>1464.53</ele>
   </trkpt>
   <trkpt lat="43.170390000000005" lon="77.03873">
    <ele>1466.43</ele>
   </trkpt>
   <trkpt lat="43.169900000000005" lon="77.0394">
    <ele>1471.8200000000002</ele>
   </trkpt>
   <trkpt lat="43.169650000000004" lon="77.03964">
    <ele>1473.69</ele>
   </trkpt>
   <trkpt lat="43.16951" lon="77.03975000000001">
    <ele>1476.25</ele>
   </trkpt>
   <trkpt lat="43.168890000000005" lon="77.04017">
    <ele>1480.5800000000002</ele>
   </trkpt>
   <trkpt lat="43.16830500054136" lon="77.04053000346198">
    <ele>1486.94</ele>
   </trkpt>
   <trkpt lat="43.16772" lon="77.04089">
    <ele>1493.1100000000001</ele>
   </trkpt>
   <trkpt lat="43.167590000000004" lon="77.04101">
    <ele>1493.8200000000002</ele>
   </trkpt>
   <trkpt lat="43.16722" lon="77.04146">
    <ele>1497.3400000000001</ele>
   </trkpt>
   <trkpt lat="43.16709" lon="77.04158000000001">
    <ele>1498.79</ele>
   </trkpt>
   <trkpt lat="43.166970000000006" lon="77.04165">
    <ele>1499.5600000000002</ele>
   </trkpt>
   <trkpt lat="43.166880000000006" lon="77.04168">
    <ele>1500.3500000000001</ele>
   </trkpt>
   <trkpt lat="43.16669" lon="77.04168">
    <ele>1502.43</ele>
   </trkpt>
   <trkpt lat="43.166035000015775" lon="77.04163499951797">
    <ele>1509.0</ele>
   </trkpt>
   <trkpt lat="43.165380000000006" lon="77.04159">
    <ele>1513.8100000000002</ele>
   </trkpt>
   <trkpt lat="43.164970000000004" lon="77.04154000000001">
    <ele>1515.9900000000002</ele>
   </trkpt>
   <trkpt lat="43.16469" lon="77.04154000000001">
    <ele>1517.92</ele>
   </trkpt>
   <trkpt lat="43.16427" lon="77.04164">
    <ele>1522.34</ele>
   </trkpt>
   <trkpt lat="43.163790000000006" lon="77.04176000000001">
    <ele>1527.3200000000002</ele>
   </trkpt>
   <trkpt lat="43.16349" lon="77.04177">
    <ele>1529.0</ele>
   </trkpt>
   <trkpt lat="43.16333" lon="77.04172000000001">
    <ele>1531.88</ele>
   </trkpt>
   <trkpt lat="43.163140000000006" lon="77.04162000000001">
    <ele>1531.88</ele>
   </trkpt>
   <trkpt lat="43.16286" lon="77.04138">
    <ele>1538.3600000000001</ele>
   </trkpt>
   <trkpt lat="43.16261" lon="77.04109000000001">
    <ele>1538.3600000000001</ele>
   </trkpt>
   <trkpt lat="43.1623" lon="77.04096000000001">
    <ele>1542.43</ele>
   </trkpt>
   <trkpt lat="43.16212" lon="77.04093">
    <ele>1543.68</ele>
   </trkpt>
   <trkpt lat="43.16194" lon="77.04095000000001">
    <ele>1544.8500000000001</ele>
   </trkpt>
   <trkpt lat="43.161750000000005" lon="77.04103">
    <ele>1545.67</ele>
   </trkpt>
   <trkpt lat="43.16158" lon="77.04114000000001">
    <ele>1547.59</ele>
   </trkpt>
   <trkpt lat="43.16138" lon="77.04137">
    <ele>1550.37</ele>
   </trkpt>
   <trkpt lat="43.16129" lon="77.04154000000001">
    <ele>1550.37</ele>
   </trkpt>
   <trkpt lat="43.161170000000006" lon="77.04191">
    <ele>1552.28</ele>
   </trkpt>
   <trkpt lat="43.161150000000006" lon="77.04212000000001">
    <ele>1553.3000000000002</ele>
   </trkpt>
   <trkpt lat="43.16118" lon="77.04247000000001">
    <ele>1555.63</ele>
   </trkpt>
   <trkpt lat="43.16125" lon="77.04283000000001">
    <ele>1557.19</ele>
   </trkpt>
   <trkpt lat="43.16145" lon="77.04365">
    <ele>1561.3400000000001</ele>
   </trkpt>
   <trkpt lat="43.16171000238239" lon="77.04439499673107">
    <ele>1567.25</ele>
   </trkpt>
   <trkpt lat="43.161970000000004" lon="77.04514">
    <ele>1573.93</ele>
   </trkpt>
   <trkpt lat="43.1621" lon="77.04541">
    <ele>1573.93</ele>
   </trkpt>
   <trkpt lat="43.162440000000004" lon="77.04589">
    <ele>1579.46</ele>
   </trkpt>
   <trkpt lat="43.16254000000001" lon="77.04609">
    <ele>1582.66</ele>
   </trkpt>
   <trkpt lat="43.162620000000004" lon="77.04635">
    <ele>1582.66</ele>
   </trkpt>
   <trkpt lat="43.16268" lon="77.04685">
    <ele>1586.3600000000001</ele>
   </trkpt>
   <trkpt lat="43.16275334124822" lon="77.04780333104493">
    <ele>1595.22</ele>
   </trkpt>
   <trkpt lat="43.16282667458157" lon="77.04875666437863">
    <ele>1599.8300000000002</ele>
   </trkpt>
   <trkpt lat="43.1629" lon="77.04971">
    <ele>1607.04</ele>
   </trkpt>
   <trkpt lat="43.1629" lon="77.04993">
    <ele>1608.2</ele>
   </trkpt>
   <trkpt lat="43.16288" lon="77.05006">
    <ele>1608.2</ele>
   </trkpt>
   <trkpt lat="43.16284" lon="77.05017000000001">
    <ele>1609.28</ele>
   </trkpt>
   <trkpt lat="43.162560000000006" lon="77.05088">
    <ele>1612.7900000000002</ele>
   </trkpt>
   <trkpt lat="43.16241" lon="77.05137">
    <ele>1615.7500000000002</ele>
   </trkpt>
   <trkpt lat="43.16237" lon="77.05159">
    <ele>1619.22</ele>
   </trkpt>
   <trkpt lat="43.16235" lon="77.05238">
    <ele>1624.14</ele>
   </trkpt>
   <trkpt lat="43.162290000000006" lon="77.05260000000001">
    <ele>1624.13</ele>
   </trkpt>
   <trkpt lat="43.16207000000001" lon="77.05294">
    <ele>1625.2900000000002</ele>
   </trkpt>
   <trkpt lat="43.1617" lon="77.05338">
    <ele>1628.0400000000002</ele>
   </trkpt>
   <trkpt lat="43.16131000106865" lon="77.05388500327774">
    <ele>1633.76</ele>
   </trkpt>
   <trkpt lat="43.160920000000004" lon="77.05439000000001">
    <ele>1639.16</ele>
   </trkpt>
   <trkpt lat="43.160740000000004" lon="77.05466000000001">
    <ele>1641.67</ele>
   </trkpt>
   <trkpt lat="43.160680000000006" lon="77.05477">
    <ele>1642.42</ele>
   </trkpt>
   <trkpt lat="43.160630000000005" lon="77.05491">
    <ele>1643.97</ele>
   </trkpt>
   <trkpt lat="43.16062" lon="77.05507">
    <ele>1643.97</ele>
   </trkpt>
   <trkpt lat="43.16064" lon="77.05521">
    <ele>1645.1200000000001</ele>
   </trkpt>
   <trkpt lat="43.16077000000001" lon="77.05566">
    <ele>1649.6000000000001</ele>
   </trkpt>
   <trkpt lat="43.16078" lon="77.05592">
    <ele>1651.75</ele>
   </trkpt>
   <trkpt lat="43.16075" lon="77.05611">
    <ele>1654.06</ele>
   </trkpt>
   <trkpt lat="43.160610000000005" lon="77.05640000000001">
    <ele>1656.71</ele>
   </trkpt>
   <trkpt lat="43.160430000000005" lon="77.05667000000001">
    <ele>1658.3200000000002</ele>
   </trkpt>
   <trkpt lat="43.16033" lon="77.05687">
    <ele>1661.43</ele>
   </trkpt>
   <trkpt lat="43.160105001830544" lon="77.0575050021274">
    <ele>1665.5400000000002</ele>
   </trkpt>
   <trkpt lat="43.15988" lon="77.05814000000001">
    <ele>1669.8700000000001</ele>
   </trkpt>
   <trkpt lat="43.15977" lon="77.05834">
    <ele>1671.25</ele>
   </trkpt>
   <trkpt lat="43.15948" lon="77.05871">
    <ele>1675.3600000000001</ele>
   </trkpt>
   <trkpt lat="43.15888" lon="77.05926000000001">
    <ele>1683.75</ele>
   </trkpt>
   <trkpt lat="43.15948" lon="77.05871">
    <ele>1675.3600000000001</ele>
   </trkpt>
   <trkpt lat="43.15977" lon="77.05834">
    <ele>1671.25</ele>
   </trkpt>
   <trkpt lat="43.15988" lon="77.05814000000001">
    <ele>1669.8700000000001</ele>
   </trkpt>
   <trkpt lat="43.160105001680975" lon="77.05750500254948">
    <ele>1665.5400000000002</ele>
   </trkpt>
   <trkpt lat="43.16033" lon="77.05687">
    <ele>1661.43</ele>
   </trkpt>
   <trkpt lat="43.160430000000005" lon="77.05667000000001">
    <ele>1658.3200000000002</ele>
   </trkpt>
   <trkpt lat="43.160610000000005" lon="77.05640000000001">
    <ele>1656.71</ele>
   </trkpt>
   <trkpt lat="43.16109" lon="77.05564000000001">
    <ele>1651.5700000000002</ele>
   </trkpt>
   <trkpt lat="43.16127" lon="77.05538">
    <ele>1648.64</ele>
   </trkpt>
   <trkpt lat="43.16138" lon="77.05519000000001">
    <ele>1647.3300000000002</ele>
   </trkpt>
   <trkpt lat="43.16172000380288" lon="77.05425500521378">
    <ele>1638.91</ele>
   </trkpt>
   <trkpt lat="43.162060000000004" lon="77.05332">
    <ele>1629.5600000000002</ele>
   </trkpt>
   <trkpt lat="43.16232" lon="77.05252">
    <ele>1624.14</ele>
   </trkpt>
   <trkpt lat="43.16235" lon="77.05238">
    <ele>1624.14</ele>
   </trkpt>
   <trkpt lat="43.16237" lon="77.05159">
    <ele>1615.7500000000002</ele>
   </trkpt>
   <trkpt lat="43.162560000000006" lon="77.05088">
    <ele>1612.7900000000002</ele>
   </trkpt>
   <trkpt lat="43.16284" lon="77.05017000000001">
    <ele>1609.28</ele>
   </trkpt>
   <trkpt lat="43.16288" lon="77.05006">
    <ele>1608.2</ele>
   </trkpt>
   <trkpt lat="43.1629" lon="77.04993">
    <ele>1608.2</ele>
   </trkpt>
   <trkpt lat="43.1629" lon="77.04971">
    <ele>1607.04</ele>
   </trkpt>
   <trkpt lat="43.162826674581524" lon="77.04875666437775">
    <ele>1599.8300000000002</ele>
   </trkpt>
   <trkpt lat="43.16275334124814" lon="77.04780333104405">
    <ele>1595.22</ele>
   </trkpt>
   <trkpt lat="43.16268" lon="77.04685">
    <ele>1586.3600000000001</ele>
   </trkpt>
   <trkpt lat="43.162620000000004" lon="77.04635">
    <ele>1582.66</ele>
   </trkpt>
   <trkpt lat="43.16254000000001" lon="77.04609">
    <ele>1582.66</ele>
   </trkpt>
   <trkpt lat="43.162440000000004" lon="77.04589">
    <ele>1579.46</ele>
   </trkpt>
   <trkpt lat="43.1621" lon="77.04541">
    <ele>1573.93</ele>
   </trkpt>
   <trkpt lat="43.161970000000004" lon="77.04514">
    <ele>1573.93</ele>
   </trkpt>
   <trkpt lat="43.16171000245115" lon="77.04439499692805">
    <ele>1567.25</ele>
   </trkpt>
   <trkpt lat="43.16145" lon="77.04365">
    <ele>1561.3400000000001</ele>
   </trkpt>
   <trkpt lat="43.16125" lon="77.04283000000001">
    <ele>1556.5300000000002</ele>
   </trkpt>
   <trkpt lat="43.16118" lon="77.04247000000001">
    <ele>1555.63</ele>
   </trkpt>
   <trkpt lat="43.161150000000006" lon="77.04212000000001">
    <ele>1553.3000000000002</ele>
   </trkpt>
   <trkpt lat="43.161170000000006" lon="77.04191">
    <ele>1552.28</ele>
   </trkpt>
   <trkpt lat="43.16129" lon="77.04154000000001">
    <ele>1550.37</ele>
   </trkpt>
   <trkpt lat="43.16138" lon="77.04137">
    <ele>1550.37</ele>
   </trkpt>
   <trkpt lat="43.16158" lon="77.04114000000001">
    <ele>1547.59</ele>
   </trkpt>
   <trkpt lat="43.161750000000005" lon="77.04103">
    <ele>1545.67</ele>
   </trkpt>
   <trkpt lat="43.16194" lon="77.04095000000001">
    <ele>1544.8500000000001</ele>
   </trkpt>
   <trkpt lat="43.16212" lon="77.04093">
    <ele>1543.68</ele>
   </trkpt>
   <trkpt lat="43.1623" lon="77.04096000000001">
    <ele>1542.43</ele>
   </trkpt>
   <trkpt lat="43.16261" lon="77.04109000000001">
    <ele>1538.3600000000001</ele>
   </trkpt>
   <trkpt lat="43.16286" lon="77.04138">
    <ele>1538.3600000000001</ele>
   </trkpt>
   <trkpt lat="43.163140000000006" lon="77.04162000000001">
    <ele>1531.88</ele>
   </trkpt>
   <trkpt lat="43.16333" lon="77.04172000000001">
    <ele>1531.88</ele>
   </trkpt>
   <trkpt lat="43.16349" lon="77.04177">
    <ele>1529.0</ele>
   </trkpt>
   <trkpt lat="43.163790000000006" lon="77.04176000000001">
    <ele>1527.3200000000002</ele>
   </trkpt>
   <trkpt lat="43.16424000005192" lon="77.04165000081048">
    <ele>1522.15</ele>
   </trkpt>
   <trkpt lat="43.16469" lon="77.04154000000001">
    <ele>1517.92</ele>
   </trkpt>
   <trkpt lat="43.164970000000004" lon="77.04154000000001">
    <ele>1515.9900000000002</ele>
   </trkpt>
   <trkpt lat="43.165380000000006" lon="77.04159">
    <ele>1513.8100000000002</ele>
   </trkpt>
   <trkpt lat="43.16603500000187" lon="77.04163499951702">
    <ele>1509.0</ele>
   </trkpt>
   <trkpt lat="43.16669" lon="77.04168">
    <ele>1502.43</ele>
   </trkpt>
   <trkpt lat="43.166880000000006" lon="77.04168">
    <ele>1500.3500000000001</ele>
   </trkpt>
   <trkpt lat="43.166970000000006" lon="77.04165">
    <ele>1500.3500000000001</ele>
   </trkpt>
   <trkpt lat="43.16709" lon="77.04158000000001">
    <ele>1498.79</ele>
   </trkpt>
   <trkpt lat="43.16722" lon="77.04146">
    <ele>1497.3400000000001</ele>
   </trkpt>
   <trkpt lat="43.167590000000004" lon="77.04101">
    <ele>1493.8200000000002</ele>
   </trkpt>
   <trkpt lat="43.16772" lon="77.04089">
    <ele>1493.1100000000001</ele>
   </trkpt>
   <trkpt lat="43.1683050005873" lon="77.04053000343373">
    <ele>1486.94</ele>
   </trkpt>
   <trkpt lat="43.168890000000005" lon="77.04017">
    <ele>1480.5800000000002</ele>
   </trkpt>
   <trkpt lat="43.16951" lon="77.03975000000001">
    <ele>1476.25</ele>
   </trkpt>
   <trkpt lat="43.169650000000004" lon="77.03964">
    <ele>1473.69</ele>
   </trkpt>
   <trkpt lat="43.169900000000005" lon="77.0394">
    <ele>1471.8200000000002</ele>
   </trkpt>
   <trkpt lat="43.170390000000005" lon="77.03873">
    <ele>1466.43</ele>
   </trkpt>
   <trkpt lat="43.17054" lon="77.03839">
    <ele>1464.53</ele>
   </trkpt>
   <trkpt lat="43.17073500182523" lon="77.03774500201406">
    <ele>1457.63</ele>
   </trkpt>
   <trkpt lat="43.170930000000006" lon="77.03710000000001">
    <ele>1454.32</ele>
   </trkpt>
   <trkpt lat="43.171060000000004" lon="77.03681">
    <ele>1452.43</ele>
   </trkpt>
   <trkpt lat="43.17127000000001" lon="77.03644000000001">
    <ele>1448.8899999999999</ele>
   </trkpt>
   <trkpt lat="43.17177500247068" lon="77.03568500625997">
    <ele>1443.7900000000002</ele>
   </trkpt>
   <trkpt lat="43.17228" lon="77.03493">
    <ele>1436.8700000000001</ele>
   </trkpt>
   <trkpt lat="43.1726" lon="77.03441000000001">
    <ele>1432.7</ele>
   </trkpt>
   <trkpt lat="43.172900000000006" lon="77.03385">
    <ele>1427.99</ele>
   </trkpt>
   <trkpt lat="43.173170000000006" lon="77.03327">
    <ele>1424.6000000000001</ele>
   </trkpt>
   <trkpt lat="43.17333" lon="77.03286">
    <ele>1423.5000000000002</ele>
   </trkpt>
   <trkpt lat="43.173390000000005" lon="77.03259000000001">
    <ele>1422.94</ele>
   </trkpt>
   <trkpt lat="43.1734" lon="77.03231000000001">
    <ele>1422.1000000000001</ele>
   </trkpt>
   <trkpt lat="43.1733733392846" lon="77.03148333260465">
    <ele>1418.25</ele>
   </trkpt>
   <trkpt lat="43.173346672617704" lon="77.03065666593115">
    <ele>1413.21</ele>
   </trkpt>
   <trkpt lat="43.173320000000004" lon="77.02983">
    <ele>1408.47</ele>
   </trkpt>
   <trkpt lat="43.17334" lon="77.02947">
    <ele>1406.4</ele>
   </trkpt>
   <trkpt lat="43.17349" lon="77.02853">
    <ele>1401.14</ele>
   </trkpt>
   <trkpt lat="43.17358" lon="77.02761000000001">
    <ele>1394.7900000000002</ele>
   </trkpt>
   <trkpt lat="43.17361500247697" lon="77.02685500054429">
    <ele>1391.3500000000001</ele>
   </trkpt>
   <trkpt lat="43.17365" lon="77.0261">
    <ele>1390.3400000000001</ele>
   </trkpt>
   <trkpt lat="43.17363667387812" lon="77.02518999957555">
    <ele>1385.6000000000001</ele>
   </trkpt>
   <trkpt lat="43.1736233405444" lon="77.02427999954837">
    <ele>1378.67</ele>
   </trkpt>
   <trkpt lat="43.173610000000004" lon="77.02337">
    <ele>1374.3</ele>
   </trkpt>
   <trkpt lat="43.173660000000005" lon="77.02299000000001">
    <ele>1371.25</ele>
   </trkpt>
   <trkpt lat="43.17372" lon="77.02275">
    <ele>1370.97</ele>
   </trkpt>
   <trkpt lat="43.17378" lon="77.02259000000001">
    <ele>1370.51</ele>
   </trkpt>
   <trkpt lat="43.173950000000005" lon="77.02172">
    <ele>1366.2800000000002</ele>
   </trkpt>
   <trkpt lat="43.17396" lon="77.02085000000001">
    <ele>1361.1100000000001</ele>
   </trkpt>
   <trkpt lat="43.173950000000005" lon="77.02061">
    <ele>1359.5100000000002</ele>
   </trkpt>
   <trkpt lat="43.17396" lon="77.02016">
    <ele>1356.5900000000001</ele>
   </trkpt>
   <trkpt lat="43.174060004318655" lon="77.01916500155352">
    <ele>1351.7800000000002</ele>
   </trkpt>
   <trkpt lat="43.17416" lon="77.01817000000001">
    <ele>1345.99</ele>
   </trkpt>
   <trkpt lat="43.17421500591509" lon="77.01700500094138">
    <ele>1340.0100000000002</ele>
   </trkpt>
   <trkpt lat="43.17427000000001" lon="77.01584000000001">
    <ele>1332.89</ele>
   </trkpt>
   <trkpt lat="43.1743" lon="77.01567">
    <ele>1331.8500000000001</ele>
   </trkpt>
   <trkpt lat="43.174380000000006" lon="77.0154">
    <ele>1330.69</ele>
   </trkpt>
   <trkpt lat="43.17454" lon="77.01506">
    <ele>1330.69</ele>
   </trkpt>
   <trkpt lat="43.174730000000004" lon="77.01473">
    <ele>1324.54</ele>
   </trkpt>
   <trkpt lat="43.17492" lon="77.01444000000001">
    <ele>1322.72</ele>
   </trkpt>
   <trkpt lat="43.175340000000006" lon="77.01385">
    <ele>1318.98</ele>
   </trkpt>
   <trkpt lat="43.175520000000006" lon="77.01365000000001">
    <ele>1316.91</ele>
   </trkpt>
   <trkpt lat="43.175720000000005" lon="77.01348">
    <ele>1316.91</ele>
   </trkpt>
   <trkpt lat="43.17633" lon="77.01308">
    <ele>1312.78</ele>
   </trkpt>
   <trkpt lat="43.17676" lon="77.01285">
    <ele>1308.57</ele>
   </trkpt>
   <trkpt lat="43.177060000000004" lon="77.01275000000001">
    <ele>1306.71</ele>
   </trkpt>
   <trkpt lat="43.177170000000004" lon="77.01273">
    <ele>1306.01</ele>
   </trkpt>
   <trkpt lat="43.17741" lon="77.01273">
    <ele>1304.1200000000001</ele>
   </trkpt>
   <trkpt lat="43.17791500008236" lon="77.012809999347">
    <ele>1299.49</ele>
   </trkpt>
   <trkpt lat="43.17842" lon="77.01289000000001">
    <ele>1295.89</ele>
   </trkpt>
   <trkpt lat="43.17873" lon="77.01278">
    <ele>1293.98</ele>
   </trkpt>
   <trkpt lat="43.179215000120855" lon="77.01256500174345">
    <ele>1289.97</ele>
   </trkpt>
   <trkpt lat="43.179700000000004" lon="77.01235000000001">
    <ele>1287.0700000000002</ele>
   </trkpt>
   <trkpt lat="43.18041" lon="77.01201">
    <ele>1281.47</ele>
   </trkpt>
   <trkpt lat="43.18099333417732" lon="77.011686672882">
    <ele>1277.67</ele>
   </trkpt>
   <trkpt lat="43.181576667444176" lon="77.01136333958561">
    <ele>1274.68</ele>
   </trkpt>
   <trkpt lat="43.18216" lon="77.01104000000001">
    <ele>1271.32</ele>
   </trkpt>
   <trkpt lat="43.182790000000004" lon="77.01065000000001">
    <ele>1267.6000000000001</ele>
   </trkpt>
   <trkpt lat="43.182900000000004" lon="77.01053">
    <ele>1266.49</ele>
   </trkpt>
   <trkpt lat="43.18301" lon="77.01035">
    <ele>1265.17</ele>
   </trkpt>
   <trkpt lat="43.183425002680146" lon="77.00956000544173">
    <ele>1261.8200000000002</ele>
   </trkpt>
   <trkpt lat="43.183840000000004" lon="77.00877000000001">
    <ele>1257.6100000000001</ele>
   </trkpt>
   <trkpt lat="43.18395" lon="77.00862000000001">
    <ele>1257.6100000000001</ele>
   </trkpt>
   <trkpt lat="43.18424" lon="77.00836000000001">
    <ele>1256.31</ele>
   </trkpt>
   <trkpt lat="43.184765000580505" lon="77.00799000319303">
    <ele>1251.05</ele>
   </trkpt>
   <trkpt lat="43.18529" lon="77.00762">
    <ele>1247.0800000000002</ele>
   </trkpt>
   <trkpt lat="43.185430000000004" lon="77.00748">
    <ele>1246.0200000000002</ele>
   </trkpt>
   <trkpt lat="43.18549" lon="77.00739">
    <ele>1246.0200000000002</ele>
   </trkpt>
   <trkpt lat="43.18591000000001" lon="77.00671000000001">
    <ele>1242.18</ele>
   </trkpt>
   <trkpt lat="43.18616" lon="77.00634000000001">
    <ele>1238.7100000000003</ele>
   </trkpt>
   <trkpt lat="43.1865400017307" lon="77.00573000362019">
    <ele>1235.94</ele>
   </trkpt>
   <trkpt lat="43.18692" lon="77.00512">
    <ele>1233.43</ele>
   </trkpt>
   <trkpt lat="43.18719" lon="77.00456000000001">
    <ele>1231.27</ele>
   </trkpt>
   <trkpt lat="43.1873" lon="77.00427">
    <ele>1230.9800000000002</ele>
   </trkpt>
   <trkpt lat="43.187690001854506" lon="77.00361000428859">
    <ele>1227.8300000000002</ele>
   </trkpt>
   <trkpt lat="43.18808000000001" lon="77.00295000000001">
    <ele>1224.13</ele>
   </trkpt>
   <trkpt lat="43.18817000000001" lon="77.00275">
    <ele>1222.9500000000003</ele>
   </trkpt>
   <trkpt lat="43.188476674097934" lon="77.00182667592571">
    <ele>1220.02</ele>
   </trkpt>
   <trkpt lat="43.18878334077095" lon="77.0009033425734">
    <ele>1215.64</ele>
   </trkpt>
   <trkpt lat="43.18909" lon="76.99998000000001">
    <ele>1213.15</ele>
   </trkpt>
   <trkpt lat="43.18942000570079" lon="76.99917000879147">
    <ele>1211.15</ele>
   </trkpt>
   <trkpt lat="43.189750005687486" lon="76.99836000882419">
    <ele>1209.6</ele>
   </trkpt>
   <trkpt lat="43.19008" lon="76.99755">
    <ele>1206.0600000000002</ele>
   </trkpt>
   <trkpt lat="43.19039500447822" lon="76.99654000509697">
    <ele>1197.7300000000002</ele>
   </trkpt>
   <trkpt lat="43.19071" lon="76.99553">
    <ele>1192.28</ele>
   </trkpt>
   <trkpt lat="43.191010000000006" lon="76.99483000000001">
    <ele>1188.4</ele>
   </trkpt>
   <trkpt lat="43.19137500483874" lon="76.99377000649648">
    <ele>1180.79</ele>
   </trkpt>
   <trkpt lat="43.19174" lon="76.99271">
    <ele>1176.8200000000002</ele>
   </trkpt>
   <trkpt lat="43.191990000000004" lon="76.99203">
    <ele>1171.84</ele>
   </trkpt>
   <trkpt lat="43.19214" lon="76.99171000000001">
    <ele>1169.7600000000002</ele>
   </trkpt>
   <trkpt lat="43.1925200006376" lon="76.99131500250294">
    <ele>1166.7800000000002</ele>
   </trkpt>
   <trkpt lat="43.1929" lon="76.99092">
    <ele>1165.16</ele>
   </trkpt>
   <trkpt lat="43.19323000000001" lon="76.99053">
    <ele>1163.31</ele>
   </trkpt>
   <trkpt lat="43.193720000000006" lon="76.98951000000001">
    <ele>1158.8100000000002</ele>
   </trkpt>
   <trkpt lat="43.19389" lon="76.989">
    <ele>1155.0800000000002</ele>
   </trkpt>
   <trkpt lat="43.19403500182299" lon="76.98835500148209">
    <ele>1152.26</ele>
   </trkpt>
   <trkpt lat="43.19418" lon="76.98771">
    <ele>1149.67</ele>
   </trkpt>
   <trkpt lat="43.194280000000006" lon="76.98745000000001">
    <ele>1148.7</ele>
   </trkpt>
   <trkpt lat="43.194700000000005" lon="76.98661000000001">
    <ele>1145.39</ele>
   </trkpt>
   <trkpt lat="43.19503000207862" lon="76.98593000354325">
    <ele>1141.72</ele>
   </trkpt>
   <trkpt lat="43.19536" lon="76.98525000000001">
    <ele>1139.43</ele>
   </trkpt>
   <trkpt lat="43.195600000000006" lon="76.98486000000001">
    <ele>1137.0600000000002</ele>
   </trkpt>
   <trkpt lat="43.19579" lon="76.98467000000001">
    <ele>1135.6000000000001</ele>
   </trkpt>
   <trkpt lat="43.1964366684947" lon="76.9842100097602">
    <ele>1129.67</ele>
   </trkpt>
   <trkpt lat="43.19708333514654" lon="76.98375000977092">
    <ele>1124.7800000000002</ele>
   </trkpt>
   <trkpt lat="43.19773000000001" lon="76.98329000000001">
    <ele>1121.17</ele>
   </trkpt>
   <trkpt lat="43.198515006957656" lon="76.98272503634">
    <ele>1116.93</ele>
   </trkpt>
   <trkpt lat="43.199300011135335" lon="76.98216005814287">
    <ele>1111.76</ele>
   </trkpt>
   <trkpt lat="43.20008501253289" lon="76.9815950654079">
    <ele>1105.63</ele>
   </trkpt>
   <trkpt lat="43.20087001115019" lon="76.98103005813438">
    <ele>1101.2700000000002</ele>
   </trkpt>
   <trkpt lat="43.20165500698706" lon="76.98046503632159">
    <ele>1097.19</ele>
   </trkpt>
   <trkpt lat="43.20244" lon="76.9799">
    <ele>1092.53</ele>
   </trkpt>
   <trkpt lat="43.20266" lon="76.97965">
    <ele>1090.5900000000001</ele>
   </trkpt>
   <trkpt lat="43.202975001048316" lon="76.97916000252575">
    <ele>1089.1399999999999</ele>
   </trkpt>
   <trkpt lat="43.20329" lon="76.97867000000001">
    <ele>1087.32</ele>
   </trkpt>
   <trkpt lat="43.20376000244014" lon="76.97791500588441">
    <ele>1083.0000000000002</ele>
   </trkpt>
   <trkpt lat="43.20423" lon="76.97716000000001">
    <ele>1079.35</ele>
   </trkpt>
   <trkpt lat="43.20470667043" lon="76.97650334358478">
    <ele>1075.2</ele>
   </trkpt>
   <trkpt lat="43.20518333710443" lon="76.97584667690757">
    <ele>1073.05</ele>
   </trkpt>
   <trkpt lat="43.20566" lon="76.97519000000001">
    <ele>1069.5100000000002</ele>
   </trkpt>
   <trkpt lat="43.206216009756744" lon="76.97444202725691">
    <ele>1066.84</ele>
   </trkpt>
   <trkpt lat="43.20677201464072" lon="76.97369404087844">
    <ele>1060.8300000000002</ele>
   </trkpt>
   <trkpt lat="43.20732801465176" lon="76.97294604086424">
    <ele>1057.8400000000001</ele>
   </trkpt>
   <trkpt lat="43.207884009789666" lon="76.97219802721388">
    <ele>1055.18</ele>
   </trkpt>
   <trkpt lat="43.20844" lon="76.97145">
    <ele>1051.11</ele>
   </trkpt>
   <trkpt lat="43.20886" lon="76.9709">
    <ele>1047.17</ele>
   </trkpt>
   <trkpt lat="43.20908" lon="76.9705">
    <ele>1044.8700000000001</ele>
   </trkpt>
   <trkpt lat="43.20951667598944" lon="76.96946668140836">
    <ele>1039.5800000000002</ele>
   </trkpt>
   <trkpt lat="43.209953342679086" lon="76.96843334802092">
    <ele>1035.3600000000001</ele>
   </trkpt>
   <trkpt lat="43.210390000000004" lon="76.96740000000001">
    <ele>1032.45</ele>
   </trkpt>
   <trkpt lat="43.21025" lon="76.96717000000001">
    <ele>1032.25</ele>
   </trkpt>
   <trkpt lat="43.20967000305892" lon="76.96633499209236">
    <ele>1031.6000000000001</ele>
   </trkpt>
   <trkpt lat="43.20909" lon="76.9655">
    <ele>1031.3600000000001</ele>
   </trkpt>
   <trkpt lat="43.2096233377806" lon="76.96478667912105">
    <ele>1027.42</ele>
   </trkpt>
   <trkpt lat="43.21015667112942" lon="76.96407334576718">
    <ele>1022.71</ele>
   </trkpt>
   <trkpt lat="43.21069000000001" lon="76.96336000000001">
    <ele>1020.1200000000001</ele>
   </trkpt>
   <trkpt lat="43.21085" lon="76.96311">
    <ele>1019.47</ele>
   </trkpt>
   <trkpt lat="43.21047" lon="76.96255000000001">
    <ele>1019.4100000000001</ele>
   </trkpt>
   <trkpt lat="43.21022000000001" lon="76.96222">
    <ele>1019.5</ele>
   </trkpt>
   <trkpt lat="43.210150000000006" lon="76.96198000000001">
    <ele>1019.5</ele>
   </trkpt>
   <trkpt lat="43.210100000000004" lon="76.96187">
    <ele>1019.5</ele>
   </trkpt>
   <trkpt lat="43.20960500045706" lon="76.9615099970003">
    <ele>1019.44</ele>
   </trkpt>
   <trkpt lat="43.20911" lon="76.96115">
    <ele>1018.5600000000001</ele>
   </trkpt>
   <trkpt lat="43.20908" lon="76.9611">
    <ele>1018.2900000000001</ele>
   </trkpt>
   <trkpt lat="43.20908" lon="76.96104000000001">
    <ele>1018.2900000000001</ele>
   </trkpt>
   <trkpt lat="43.20947500070469" lon="76.9606550024356">
    <ele>1014.5200000000001</ele>
   </trkpt>
   <trkpt lat="43.20987" lon="76.96027000000001">
    <ele>1012.6700000000002</ele>
   </trkpt>
   <trkpt lat="43.21032500034058" lon="76.95998500213436">
    <ele>1011.2700000000001</ele>
   </trkpt>
   <trkpt lat="43.21078000000001" lon="76.95970000000001">
    <ele>1009.4800000000001</ele>
   </trkpt>
   <trkpt lat="43.211090000000006" lon="76.95960000000001">
    <ele>1007.1800000000002</ele>
   </trkpt>
   <trkpt lat="43.21141" lon="76.95945">
    <ele>1004.7700000000001</ele>
   </trkpt>
   <trkpt lat="43.21155" lon="76.95932">
    <ele>1004.32</ele>
   </trkpt>
   <trkpt lat="43.212120000000006" lon="76.95870000000001">
    <ele>1001.29</ele>
   </trkpt>
   <trkpt lat="43.21267" lon="76.95790000000001">
    <ele>998.5600000000001</ele>
   </trkpt>
   <trkpt lat="43.21217000299238" lon="76.95731665713541">
    <ele>998.2400000000001</ele>
   </trkpt>
   <trkpt lat="43.211670003021005" lon="76.95673332383559">
    <ele>998.2</ele>
   </trkpt>
   <trkpt lat="43.21117" lon="76.95615000000001">
    <ele>996.5100000000001</ele>
   </trkpt>
   <trkpt lat="43.21076500106064" lon="76.95570499726291">
    <ele>994.5400000000001</ele>
   </trkpt>
   <trkpt lat="43.21036" lon="76.95526000000001">
    <ele>992.9700000000001</ele>
   </trkpt>
   <trkpt lat="43.21034" lon="76.95512000000001">
    <ele>992.7600000000001</ele>
   </trkpt>
   <trkpt lat="43.210350000000005" lon="76.95498">
    <ele>992.5800000000002</ele>
   </trkpt>
   <trkpt lat="43.210420000000006" lon="76.95487">
    <ele>992.0300000000001</ele>
   </trkpt>
   <trkpt lat="43.21014" lon="76.95482000000001">
    <ele>990.98</ele>
   </trkpt>
   <trkpt lat="43.209520000000005" lon="76.95458">
    <ele>989.0500000000001</ele>
   </trkpt>
   <trkpt lat="43.20965" lon="76.95417">
    <ele>987.7800000000001</ele>
   </trkpt>
   <trkpt lat="43.209790001595316" lon="76.95358000101962">
    <ele>985.9200000000001</ele>
   </trkpt>
   <trkpt lat="43.20993000000001" lon="76.95299">
    <ele>984.35</ele>
   </trkpt>
   <trkpt lat="43.2102" lon="76.95230000000001">
    <ele>980.32</ele>
   </trkpt>
   <trkpt lat="43.21067" lon="76.95127000000001">
    <ele>975.8700000000001</ele>
   </trkpt>
   <trkpt lat="43.21083" lon="76.95062">
    <ele>975.32</ele>
   </trkpt>
   <trkpt lat="43.21094" lon="76.95028">
    <ele>974.35</ele>
   </trkpt>
   <trkpt lat="43.21116000000001" lon="76.95003000000001">
    <ele>970.5600000000001</ele>
   </trkpt>
   <trkpt lat="43.21128" lon="76.94974">
    <ele>968.0900000000001</ele>
   </trkpt>
   <trkpt lat="43.21146" lon="76.94923">
    <ele>964.32</ele>
   </trkpt>
   <trkpt lat="43.2115900015579" lon="76.94863000132436">
    <ele>962.96</ele>
   </trkpt>
   <trkpt lat="43.21172000000001" lon="76.94803">
    <ele>960.2100000000002</ele>
   </trkpt>
   <trkpt lat="43.211890000000004" lon="76.94745">
    <ele>957.96</ele>
   </trkpt>
   <trkpt lat="43.21209" lon="76.94687">
    <ele>953.79</ele>
   </trkpt>
   <trkpt lat="43.212270000000004" lon="76.94645000000001">
    <ele>953.79</ele>
   </trkpt>
   <trkpt lat="43.21251" lon="76.94603000000001">
    <ele>948.97</ele>
   </trkpt>
   <trkpt lat="43.21303000786801" lon="76.9452550197928">
    <ele>943.83</ele>
   </trkpt>
   <trkpt lat="43.21355001050495" lon="76.94448002636953">
    <ele>938.5400000000001</ele>
   </trkpt>
   <trkpt lat="43.214070007910635" lon="76.94370501972989">
    <ele>932.19</ele>
   </trkpt>
   <trkpt lat="43.21459" lon="76.94293">
    <ele>925.1</ele>
   </trkpt>
   <trkpt lat="43.21499000165518" lon="76.9423150040216">
    <ele>921.45</ele>
   </trkpt>
   <trkpt lat="43.215390000000006" lon="76.94170000000001">
    <ele>917.88</ele>
   </trkpt>
   <trkpt lat="43.215730001861516" lon="76.94107500318991">
    <ele>914.8000000000001</ele>
   </trkpt>
   <trkpt lat="43.21607" lon="76.94045000000001">
    <ele>913.3500000000001</ele>
   </trkpt>
   <trkpt lat="43.21658" lon="76.93944">
    <ele>909.87</ele>
   </trkpt>
   <trkpt lat="43.216930000000005" lon="76.93857000000001">
    <ele>908.83</ele>
   </trkpt>
   <trkpt lat="43.21725000356734" lon="76.93766500474769">
    <ele>906.8100000000001</ele>
   </trkpt>
   <trkpt lat="43.21757" lon="76.93676">
    <ele>906.0400000000001</ele>
   </trkpt>
   <trkpt lat="43.21792500553617" lon="76.93563000665708">
    <ele>904.75</ele>
   </trkpt>
   <trkpt lat="43.21828" lon="76.9345">
    <ele>904.19</ele>
   </trkpt>
   <trkpt lat="43.21829" lon="76.93432">
    <ele>904.3800000000001</ele>
   </trkpt>
   <trkpt lat="43.218270000000004" lon="76.93413000000001">
    <ele>904.84</ele>
   </trkpt>
   <trkpt lat="43.218210000000006" lon="76.93387000000001">
    <ele>905.2500000000001</ele>
   </trkpt>
   <trkpt lat="43.218210000000006" lon="76.93386000000001">
    <ele>905.29</ele>
   </trkpt>
   <trkpt lat="43.218120000000006" lon="76.93344">
    <ele>908.87</ele>
   </trkpt>
   <trkpt lat="43.21813" lon="76.93325">
    <ele>909.45</ele>
   </trkpt>
   <trkpt lat="43.21826" lon="76.93295">
    <ele>909.2500000000001</ele>
   </trkpt>
   <trkpt lat="43.21839000000001" lon="76.93273">
    <ele>908.6700000000001</ele>
   </trkpt>
   <trkpt lat="43.218790000000006" lon="76.93213">
    <ele>907.08</ele>
   </trkpt>
   <trkpt lat="43.218970000000006" lon="76.93180000000001">
    <ele>904.9</ele>
   </trkpt>
   <trkpt lat="43.21904000000001" lon="76.93161">
    <ele>904.5500000000001</ele>
   </trkpt>
   <trkpt lat="43.21893" lon="76.93137">
    <ele>904.5200000000001</ele>
   </trkpt>
   <trkpt lat="43.21862" lon="76.93099000000001">
    <ele>904.6200000000001</ele>
   </trkpt>
   <trkpt lat="43.218560000000004" lon="76.93082000000001">
    <ele>904.6500000000001</ele>
   </trkpt>
   <trkpt lat="43.21817" lon="76.93025">
    <ele>904.7</ele>
   </trkpt>
   <trkpt lat="43.21770500191495" lon="76.929599995148">
    <ele>903.85</ele>
   </trkpt>
   <trkpt lat="43.217240000000004" lon="76.92895">
    <ele>902.9300000000001</ele>
   </trkpt>
   <trkpt lat="43.2168100036922" lon="76.9282999908514">
    <ele>902.5600000000001</ele>
   </trkpt>
   <trkpt lat="43.216380003704494" lon="76.9276499908701">
    <ele>903.0</ele>
   </trkpt>
   <trkpt lat="43.21595000000001" lon="76.927">
    <ele>903.3800000000001</ele>
   </trkpt>
   <trkpt lat="43.21565000093785" lon="76.92652999764995">
    <ele>903.5500000000001</ele>
   </trkpt>
   <trkpt lat="43.21535" lon="76.92606">
    <ele>904.17</ele>
   </trkpt>
   <trkpt lat="43.215230000000005" lon="76.92575000000001">
    <ele>903.95</ele>
   </trkpt>
   <trkpt lat="43.21501000000001" lon="76.92540000000001">
    <ele>903.94</ele>
   </trkpt>
   <trkpt lat="43.214980000000004" lon="76.92524">
    <ele>903.87</ele>
   </trkpt>
   <trkpt lat="43.215" lon="76.92517000000001">
    <ele>903.5200000000001</ele>
   </trkpt>
   <trkpt lat="43.21504" lon="76.9251">
    <ele>903.5200000000001</ele>
   </trkpt>
   <trkpt lat="43.21535" lon="76.92504000000001">
    <ele>901.78</ele>
   </trkpt>
   <trkpt lat="43.21544" lon="76.92504000000001">
    <ele>901.78</ele>
   </trkpt>
   <trkpt lat="43.215500000000006" lon="76.92506">
    <ele>901.7400000000001</ele>
   </trkpt>
   <trkpt lat="43.2156" lon="76.92518000000001">
    <ele>901.7400000000001</ele>
   </trkpt>
   <trkpt lat="43.21571" lon="76.92527000000001">
    <ele>901.7700000000001</ele>
   </trkpt>
   <trkpt lat="43.216185002844455" lon="76.9260799936687">
    <ele>901.4200000000001</ele>
   </trkpt>
   <trkpt lat="43.216660000000005" lon="76.92689">
    <ele>900.6700000000001</ele>
   </trkpt>
   <trkpt lat="43.21714000948186" lon="76.92762797675378">
    <ele>900.5500000000001</ele>
   </trkpt>
   <trkpt lat="43.217620014220195" lon="76.92836596512623">
    <ele>900.5300000000001</ele>
   </trkpt>
   <trkpt lat="43.21810001421491" lon="76.92910396511758">
    <ele>901.4000000000001</ele>
   </trkpt>
   <trkpt lat="43.2185800094658" lon="76.92984197672811">
    <ele>902.0100000000001</ele>
   </trkpt>
   <trkpt lat="43.219060000000006" lon="76.93058">
    <ele>902.6400000000001</ele>
   </trkpt>
   <trkpt lat="43.218880000000006" lon="76.93046000000001">
    <ele>902.4300000000001</ele>
   </trkpt>
   <trkpt lat="43.218300000000006" lon="76.92974000000001">
    <ele>901.4900000000001</ele>
   </trkpt>
   <trkpt lat="43.21789500119638" lon="76.92920499638036">
    <ele>897.0500000000001</ele>
   </trkpt>
   <trkpt lat="43.217490000000005" lon="76.92867000000001">
    <ele>891.7100000000002</ele>
   </trkpt>
   <trkpt lat="43.21743" lon="76.92855">
    <ele>892.14</ele>
   </trkpt>
   <trkpt lat="43.21741" lon="76.92831000000001">
    <ele>892.2800000000001</ele>
   </trkpt>
   <trkpt lat="43.21745000000001" lon="76.92818000000001">
    <ele>892.7900000000001</ele>
   </trkpt>
   <trkpt lat="43.21752" lon="76.92807">
    <ele>893.0000000000001</ele>
   </trkpt>
   <trkpt lat="43.21759" lon="76.92803">
    <ele>893.0600000000001</ele>
   </trkpt>
   <trkpt lat="43.21768" lon="76.92802">
    <ele>893.2</ele>
   </trkpt>
   <trkpt lat="43.21775" lon="76.92806">
    <ele>893.26</ele>
   </trkpt>
   <trkpt lat="43.21807000100944" lon="76.92854499743206">
    <ele>896.2800000000001</ele>
   </trkpt>
   <trkpt lat="43.21839000000001" lon="76.92903000000001">
    <ele>899.94</ele>
   </trkpt>
   <trkpt lat="43.21855" lon="76.92912000000001">
    <ele>900.29</ele>
   </trkpt>
   <trkpt lat="43.218450000000004" lon="76.92891">
    <ele>900.0400000000001</ele>
   </trkpt>
   <trkpt lat="43.217980002133686" lon="76.92822499485155">
    <ele>898.8600000000001</ele>
   </trkpt>
   <trkpt lat="43.217510000000004" lon="76.92754000000001">
    <ele>898.4900000000001</ele>
   </trkpt>
   <trkpt lat="43.21739" lon="76.92741000000001">
    <ele>898.5900000000001</ele>
   </trkpt>
   <trkpt lat="43.217220000000005" lon="76.92728000000001">
    <ele>898.7700000000001</ele>
   </trkpt>
   <trkpt lat="43.216800000000006" lon="76.92666000000001">
    <ele>899.0100000000001</ele>
   </trkpt>
   <trkpt lat="43.216390000000004" lon="76.9261">
    <ele>899.9</ele>
   </trkpt>
   <trkpt lat="43.216620000000006" lon="76.92647000000001">
    <ele>899.5900000000001</ele>
   </trkpt>
   <trkpt lat="43.216620000000006" lon="76.92646">
    <ele>899.6</ele>
   </trkpt>
   <trkpt lat="43.216186671084714" lon="76.92574998995416">
    <ele>900.11</ele>
   </trkpt>
   <trkpt lat="43.21575333777879" lon="76.9250399899992">
    <ele>900.7600000000001</ele>
   </trkpt>
   <trkpt lat="43.215320000000006" lon="76.92433000000001">
    <ele>901.22</ele>
   </trkpt>
   <trkpt lat="43.21475250777856" lon="76.9235574784093">
    <ele>902.21</ele>
   </trkpt>
   <trkpt lat="43.21418501035937" lon="76.92278497119644">
    <ele>903.19</ele>
   </trkpt>
   <trkpt lat="43.213617507742605" lon="76.92201247836103">
    <ele>904.5400000000001</ele>
   </trkpt>
   <trkpt lat="43.21305" lon="76.92124000000001">
    <ele>905.97</ele>
   </trkpt>
   <trkpt lat="43.2125050026084" lon="76.92046499306412">
    <ele>908.0</ele>
   </trkpt>
   <trkpt lat="43.211960000000005" lon="76.91969">
    <ele>908.5400000000001</ele>
   </trkpt>
   <trkpt lat="43.2113900052267" lon="76.91891331877926">
    <ele>910.7600000000001</ele>
   </trkpt>
   <trkpt lat="43.21082000519956" lon="76.91813665207583">
    <ele>913.46</ele>
   </trkpt>
   <trkpt lat="43.21025" lon="76.91736">
    <ele>915.96</ele>
   </trkpt>
   <trkpt lat="43.21025" lon="76.91735000000001">
    <ele>915.9800000000001</ele>
   </trkpt>
   <trkpt lat="43.2096850077366" lon="76.91657997858916">
    <ele>918.4100000000001</ele>
   </trkpt>
   <trkpt lat="43.2091200103091" lon="76.91580997144396">
    <ele>920.7700000000001</ele>
   </trkpt>
   <trkpt lat="43.20855500771767" lon="76.91503997856402">
    <ele>922.7900000000001</ele>
   </trkpt>
   <trkpt lat="43.20799" lon="76.91427">
    <ele>924.9900000000001</ele>
   </trkpt>
   <trkpt lat="43.20769000000001" lon="76.91399000000001">
    <ele>927.07</ele>
   </trkpt>
   <trkpt lat="43.207420000000006" lon="76.91382">
    <ele>928.54</ele>
   </trkpt>
   <trkpt lat="43.207280000000004" lon="76.91377">
    <ele>928.54</ele>
   </trkpt>
   <trkpt lat="43.20675000000001" lon="76.91367000000001">
    <ele>930.4100000000001</ele>
   </trkpt>
   <trkpt lat="43.20615" lon="76.91363000000001">
    <ele>932.73</ele>
   </trkpt>
   <trkpt lat="43.20557" lon="76.91363000000001">
    <ele>934.83</ele>
   </trkpt>
   <trkpt lat="43.205000000000005" lon="76.9136">
    <ele>935.98</ele>
   </trkpt>
   <trkpt lat="43.20477" lon="76.91357">
    <ele>937.51</ele>
   </trkpt>
   <trkpt lat="43.20447" lon="76.91349000000001">
    <ele>938.3800000000001</ele>
   </trkpt>
   <trkpt lat="43.204240000000006" lon="76.91340000000001">
    <ele>938.3800000000001</ele>
   </trkpt>
   <trkpt lat="43.204080000000005" lon="76.91331000000001">
    <ele>940.15</ele>
   </trkpt>
   <trkpt lat="43.20383" lon="76.91309000000001">
    <ele>940.61</ele>
   </trkpt>
   <trkpt lat="43.203450000000004" lon="76.91267">
    <ele>942.3500000000001</ele>
   </trkpt>
   <trkpt lat="43.202905002446435" lon="76.91191999329574">
    <ele>944.7800000000001</ele>
   </trkpt>
   <trkpt lat="43.202360000000006" lon="76.91117000000001">
    <ele>947.7700000000001</ele>
   </trkpt>
   <trkpt lat="43.20201" lon="76.91064">
    <ele>950.3300000000002</ele>
   </trkpt>
   <trkpt lat="43.20174" lon="76.91016">
    <ele>951.59</ele>
   </trkpt>
   <trkpt lat="43.201620000000005" lon="76.90990000000001">
    <ele>952.69</ele>
   </trkpt>
   <trkpt lat="43.20152" lon="76.90961">
    <ele>953.1100000000001</ele>
   </trkpt>
   <trkpt lat="43.201420000000006" lon="76.90922">
    <ele>953.8700000000001</ele>
   </trkpt>
   <trkpt lat="43.20136" lon="76.90875000000001">
    <ele>955.0400000000001</ele>
   </trkpt>
   <trkpt lat="43.20130500439077" lon="76.90774499895502">
    <ele>956.19</ele>
   </trkpt>
   <trkpt lat="43.20125" lon="76.90674">
    <ele>957.3800000000001</ele>
   </trkpt>
   <trkpt lat="43.2012" lon="76.90637000000001">
    <ele>958.35</ele>
   </trkpt>
   <trkpt lat="43.201060000000005" lon="76.9058">
    <ele>959.3800000000001</ele>
   </trkpt>
   <trkpt lat="43.20085" lon="76.90527">
    <ele>959.98</ele>
   </trkpt>
   <trkpt lat="43.20065" lon="76.90491">
    <ele>960.1200000000001</ele>
   </trkpt>
   <trkpt lat="43.200260002739384" lon="76.90411999499405">
    <ele>961.0600000000001</ele>
   </trkpt>
   <trkpt lat="43.199870000000004" lon="76.90333000000001">
    <ele>963.13</ele>
   </trkpt>
   <trkpt lat="43.19934334185555" lon="76.9023399828831">
    <ele>965.4800000000001</ele>
   </trkpt>
   <trkpt lat="43.19881667517483" lon="76.901349982857">
    <ele>968.1</ele>
   </trkpt>
   <trkpt lat="43.19829" lon="76.90036">
    <ele>970.32</ele>
   </trkpt>
   <trkpt lat="43.19805" lon="76.89995">
    <ele>971.46</ele>
   </trkpt>
   <trkpt lat="43.1976" lon="76.89924">
    <ele>972.7700000000001</ele>
   </trkpt>
   <trkpt lat="43.19708000000001" lon="76.89854000000001">
    <ele>975.11</ele>
   </trkpt>
   <trkpt lat="43.19671" lon="76.89808000000001">
    <ele>977.1700000000001</ele>
   </trkpt>
   <trkpt lat="43.19627000338474" lon="76.89745999111089">
    <ele>978.0600000000001</ele>
   </trkpt>
   <trkpt lat="43.19583000342155" lon="76.89683999116286">
    <ele>980.46</ele>
   </trkpt>
   <trkpt lat="43.19539" lon="76.89622">
    <ele>982.23</ele>
   </trkpt>
   <trkpt lat="43.19509" lon="76.89569">
    <ele>982.96</ele>
   </trkpt>
   <trkpt lat="43.194880000000005" lon="76.89509000000001">
    <ele>984.6700000000001</ele>
   </trkpt>
   <trkpt lat="43.194770000000005" lon="76.89454">
    <ele>985.28</ele>
   </trkpt>
   <trkpt lat="43.19467" lon="76.89343000000001">
    <ele>985.2700000000001</ele>
   </trkpt>
   <trkpt lat="43.19467333957692" lon="76.89258333333393">
    <ele>985.1200000000001</ele>
   </trkpt>
   <trkpt lat="43.194676672910624" lon="76.89173666657526">
    <ele>985.0200000000001</ele>
   </trkpt>
   <trkpt lat="43.194680000000005" lon="76.89089000000001">
    <ele>984.82</ele>
   </trkpt>
   <trkpt lat="43.194710006171434" lon="76.88970000039495">
    <ele>984.6</ele>
   </trkpt>
   <trkpt lat="43.19474" lon="76.88851000000001">
    <ele>984.4800000000001</ele>
   </trkpt>
  </trkseg>
 </trk>
</gpx>
