<?xml version="1.0" encoding="UTF-8"?>
<gpx creator="StravaGPX" version="1.1" xmlns="http://www.topografix.com/GPX/1/1" xmlns:xsi="http://www.w3.org/2001/XMLSchema-instance" xsi:schemaLocation="http://www.topografix.com/GPX/1/1 http://www.topografix.com/GPX/1/1/gpx.xsd">
 <metadata>
  <name>Hainan embankment</name>
  <author>
   <name>Vladimir Sumarokov 🇰🇿🇷🇺🇹🇭</name>
   <link href="https://www.strava.com/athletes/16069938"/>
  </author>
  <copyright author="OpenStreetMap contributors">
   <year>2020</year>
   <license>https://www.openstreetmap.org/copyright</license>
  </copyright>
  <link href="https://www.strava.com/routes/3292913222738413642"/>
 </metadata>
 <trk>
  <name>Hainan embankment</name>
  <link href="https://www.strava.com/routes/3292913222738413642"/>
  <type>cycling</type>
  <trkseg>
   <trkpt lat="18.21374" lon="109.49704000000001">
    <ele>8.540000000000001</ele>
   </trkpt>
   <trkpt lat="18.21395" lon="109.49781000000002">
    <ele>8.57</ele>
   </trkpt>
   <trkpt lat="18.214420000174073" lon="109.49774500015292">
    <ele>8.75</ele>
   </trkpt>
   <trkpt lat="18.21489" lon="109.49768">
    <ele>9.05</ele>
   </trkpt>
   <trkpt lat="18.215714999929112" lon="109.49757000053485">
    <ele>9.35</ele>
   </trkpt>
   <trkpt lat="18.216540000000002" lon="109.49746">
    <ele>9.760000000000002</ele>
   </trkpt>
   <trkpt lat="18.21716" lon="109.49744000000001">
    <ele>10.89</ele>
   </trkpt>
   <trkpt lat="18.21791" lon="109.49758000000001">
    <ele>12.610000000000001</ele>
   </trkpt>
   <trkpt lat="18.21855" lon="109.49783000000001">
    <ele>16.94</ele>
   </trkpt>
   <trkpt lat="18.219130000376722" lon="109.49819499880363">
    <ele>22.78</ele>
   </trkpt>
   <trkpt lat="18.219710000000003" lon="109.49856000000001">
    <ele>28.41</ele>
   </trkpt>
   <trkpt lat="18.220060000201627" lon="109.49888999926044">
    <ele>32.81</ele>
   </trkpt>
   <trkpt lat="18.22041" lon="109.49922000000001">
    <ele>35.93</ele>
   </trkpt>
   <trkpt lat="18.220880001230654" lon="109.49971666393353">
    <ele>40.150000000000006</ele>
   </trkpt>
   <trkpt lat="18.221350001182614" lon="109.5002133305494">
    <ele>45.95</ele>
   </trkpt>
   <trkpt lat="18.22182" lon="109.50071000000001">
    <ele>50.440000000000005</ele>
   </trkpt>
   <trkpt lat="18.22204" lon="109.50112000000001">
    <ele>53.21000000000001</ele>
   </trkpt>
   <trkpt lat="18.222150000000003" lon="109.50144">
    <ele>55.17</ele>
   </trkpt>
   <trkpt lat="18.2222" lon="109.50181">
    <ele>56.120000000000005</ele>
   </trkpt>
   <trkpt lat="18.2222" lon="109.50198">
    <ele>56.39</ele>
   </trkpt>
   <trkpt lat="18.222160000000002" lon="109.50212">
    <ele>56.45</ele>
   </trkpt>
   <trkpt lat="18.221785001270444" lon="109.50282500155252">
    <ele>55.870000000000005</ele>
   </trkpt>
   <trkpt lat="18.221410000000002" lon="109.50353000000001">
    <ele>55.580000000000005</ele>
   </trkpt>
   <trkpt lat="18.221070000721493" lon="109.50406000104557">
    <ele>55.31</ele>
   </trkpt>
   <trkpt lat="18.220730000000003" lon="109.50459000000001">
    <ele>54.64</ele>
   </trkpt>
   <trkpt lat="18.22058" lon="109.50496000000001">
    <ele>54.1</ele>
   </trkpt>
   <trkpt lat="18.22052" lon="109.50535">
    <ele>53.45</ele>
   </trkpt>
   <trkpt lat="18.22052" lon="109.50564000000001">
    <ele>52.61</ele>
   </trkpt>
   <trkpt lat="18.220550000000003" lon="109.50596000000002">
    <ele>52.02</ele>
   </trkpt>
   <trkpt lat="18.220650000000003" lon="109.50623">
    <ele>50.92000000000001</ele>
   </trkpt>
   <trkpt lat="18.2208" lon="109.50649000000001">
    <ele>50.68</ele>
   </trkpt>
   <trkpt lat="18.221210000000003" lon="109.50699000000002">
    <ele>48.43</ele>
   </trkpt>
   <trkpt lat="18.221330000000002" lon="109.50720000000001">
    <ele>47.550000000000004</ele>
   </trkpt>
   <trkpt lat="18.22136" lon="109.5074">
    <ele>46.77</ele>
   </trkpt>
   <trkpt lat="18.22137" lon="109.50803">
    <ele>44.14000000000001</ele>
   </trkpt>
   <trkpt lat="18.221500000000002" lon="109.50839">
    <ele>42.9</ele>
   </trkpt>
   <trkpt lat="18.22192" lon="109.50893">
    <ele>40.63</ele>
   </trkpt>
   <trkpt lat="18.222320000392127" lon="109.50935999891806">
    <ele>39.05</ele>
   </trkpt>
   <trkpt lat="18.222720000000002" lon="109.50979000000001">
    <ele>36.36</ele>
   </trkpt>
   <trkpt lat="18.223200000000002" lon="109.51051000000001">
    <ele>32.910000000000004</ele>
   </trkpt>
   <trkpt lat="18.223705000215794" lon="109.51081999907996">
    <ele>29.7</ele>
   </trkpt>
   <trkpt lat="18.224210000000003" lon="109.51113000000001">
    <ele>26.950000000000003</ele>
   </trkpt>
   <trkpt lat="18.22436" lon="109.51127000000001">
    <ele>26.0</ele>
   </trkpt>
   <trkpt lat="18.22448" lon="109.51143">
    <ele>24.37</ele>
   </trkpt>
   <trkpt lat="18.224783336308494" lon="109.51218999730152">
    <ele>21.16</ele>
   </trkpt>
   <trkpt lat="18.22508666962235" lon="109.51294999725265">
    <ele>17.6</ele>
   </trkpt>
   <trkpt lat="18.22539" lon="109.51371">
    <ele>16.360000000000003</ele>
   </trkpt>
   <trkpt lat="18.22576" lon="109.51427000000001">
    <ele>15.690000000000003</ele>
   </trkpt>
   <trkpt lat="18.226265000620863" lon="109.51473999868077">
    <ele>15.620000000000001</ele>
   </trkpt>
   <trkpt lat="18.226770000000002" lon="109.51521000000001">
    <ele>16.0</ele>
   </trkpt>
   <trkpt lat="18.226940000000003" lon="109.51532">
    <ele>16.23</ele>
   </trkpt>
   <trkpt lat="18.227359999970552" lon="109.51552499943759">
    <ele>16.900000000000002</ele>
   </trkpt>
   <trkpt lat="18.227780000000003" lon="109.51573">
    <ele>17.41</ele>
   </trkpt>
   <trkpt lat="18.22786" lon="109.51579000000001">
    <ele>17.43</ele>
   </trkpt>
   <trkpt lat="18.228" lon="109.51561000000001">
    <ele>17.69</ele>
   </trkpt>
   <trkpt lat="18.22821" lon="109.51540000000001">
    <ele>17.77</ele>
   </trkpt>
   <trkpt lat="18.22858" lon="109.51515">
    <ele>17.32</ele>
   </trkpt>
   <trkpt lat="18.22887" lon="109.51506">
    <ele>16.240000000000002</ele>
   </trkpt>
   <trkpt lat="18.22943" lon="109.51499000000001">
    <ele>14.85</ele>
   </trkpt>
   <trkpt lat="18.23008" lon="109.51507000000001">
    <ele>12.41</ele>
   </trkpt>
   <trkpt lat="18.230770000094054" lon="109.51518333243872">
    <ele>9.8</ele>
   </trkpt>
   <trkpt lat="18.231460000121498" lon="109.51529666577656">
    <ele>8.72</ele>
   </trkpt>
   <trkpt lat="18.23215" lon="109.51541">
    <ele>8.010000000000002</ele>
   </trkpt>
   <trkpt lat="18.232490000000002" lon="109.51541">
    <ele>7.95</ele>
   </trkpt>
   <trkpt lat="18.233340000000002" lon="109.51536000000002">
    <ele>7.5</ele>
   </trkpt>
   <trkpt lat="18.23346" lon="109.51515">
    <ele>7.260000000000001</ele>
   </trkpt>
   <trkpt lat="18.233695000706533" lon="109.51462000076567">
    <ele>7.19</ele>
   </trkpt>
   <trkpt lat="18.23393" lon="109.51409000000001">
    <ele>7.07</ele>
   </trkpt>
   <trkpt lat="18.234285001831292" lon="109.51324000183679">
    <ele>8.120000000000001</ele>
   </trkpt>
   <trkpt lat="18.234640000000002" lon="109.51239000000001">
    <ele>8.89</ele>
   </trkpt>
   <trkpt lat="18.234935006845713" lon="109.5116633395015">
    <ele>10.24</ele>
   </trkpt>
   <trkpt lat="18.23523001095244" lon="109.51093667653772">
    <ele>9.120000000000001</ele>
   </trkpt>
   <trkpt lat="18.235525012320114" lon="109.51021001110858">
    <ele>7.44</ele>
   </trkpt>
   <trkpt lat="18.235820010948686" lon="109.50948334321407">
    <ele>7.320000000000001</ele>
   </trkpt>
   <trkpt lat="18.23611500683809" lon="109.50875667285419">
    <ele>7.74</ele>
   </trkpt>
   <trkpt lat="18.236410000000003" lon="109.50803">
    <ele>8.85</ele>
   </trkpt>
   <trkpt lat="18.23672333691396" lon="109.507196669728">
    <ele>10.530000000000001</ele>
   </trkpt>
   <trkpt lat="18.23703667022546" lon="109.50636333645282">
    <ele>10.190000000000001</ele>
   </trkpt>
   <trkpt lat="18.237350000000003" lon="109.50553000000001">
    <ele>8.43</ele>
   </trkpt>
   <trkpt lat="18.237600002066664" lon="109.50489666852387">
    <ele>7.5200000000000005</ele>
   </trkpt>
   <trkpt lat="18.237850002052458" lon="109.50426333522655">
    <ele>7.55</ele>
   </trkpt>
   <trkpt lat="18.238100000000003" lon="109.50363000000002">
    <ele>7.87</ele>
   </trkpt>
   <trkpt lat="18.23814" lon="109.50358000000001">
    <ele>8.13</ele>
   </trkpt>
   <trkpt lat="18.238220000000002" lon="109.50351">
    <ele>8.370000000000001</ele>
   </trkpt>
   <trkpt lat="18.238190000000003" lon="109.50344000000001">
    <ele>8.290000000000001</ele>
   </trkpt>
   <trkpt lat="18.23805" lon="109.50328">
    <ele>8.09</ele>
   </trkpt>
   <trkpt lat="18.237830000000002" lon="109.50311">
    <ele>8.010000000000002</ele>
   </trkpt>
   <trkpt lat="18.237195000525773" lon="109.5026749984354">
    <ele>7.65</ele>
   </trkpt>
   <trkpt lat="18.23656" lon="109.50224000000001">
    <ele>6.9</ele>
   </trkpt>
   <trkpt lat="18.23654" lon="109.50216">
    <ele>6.9</ele>
   </trkpt>
   <trkpt lat="18.23655" lon="109.50208">
    <ele>6.280000000000001</ele>
   </trkpt>
   <trkpt lat="18.236610000000002" lon="109.50195000000001">
    <ele>6.25</ele>
   </trkpt>
   <trkpt lat="18.237260000000003" lon="109.50177000000001">
    <ele>6.66</ele>
   </trkpt>
   <trkpt lat="18.23794666682192" lon="109.50159000142506">
    <ele>6.99</ele>
   </trkpt>
   <trkpt lat="18.23863333347574" lon="109.50141000142845">
    <ele>7.12</ele>
   </trkpt>
   <trkpt lat="18.239320000000003" lon="109.50123">
    <ele>7.51</ele>
   </trkpt>
   <trkpt lat="18.24012000004728" lon="109.5010300009344">
    <ele>7.8100000000000005</ele>
   </trkpt>
   <trkpt lat="18.240920000000003" lon="109.50083000000001">
    <ele>8.9</ele>
   </trkpt>
   <trkpt lat="18.241575000013903" lon="109.50068500055532">
    <ele>8.370000000000001</ele>
   </trkpt>
   <trkpt lat="18.242230000000003" lon="109.50054000000002">
    <ele>7.83</ele>
   </trkpt>
   <trkpt lat="18.242080001009448" lon="109.4999199995152">
    <ele>6.760000000000001</ele>
   </trkpt>
   <trkpt lat="18.24193" lon="109.4993">
    <ele>6.710000000000001</ele>
   </trkpt>
   <trkpt lat="18.24193" lon="109.49929">
    <ele>6.710000000000001</ele>
   </trkpt>
   <trkpt lat="18.242080000986935" lon="109.49991499935021">
    <ele>6.760000000000001</ele>
   </trkpt>
   <trkpt lat="18.242230000000003" lon="109.50054000000002">
    <ele>7.83</ele>
   </trkpt>
   <trkpt lat="18.242679999947192" lon="109.50041500034953">
    <ele>7.5600000000000005</ele>
   </trkpt>
   <trkpt lat="18.24313" lon="109.50029">
    <ele>7.8100000000000005</ele>
   </trkpt>
   <trkpt lat="18.243440000000003" lon="109.50018000000001">
    <ele>7.800000000000001</ele>
   </trkpt>
   <trkpt lat="18.244145000165712" lon="109.49999000075125">
    <ele>7.430000000000001</ele>
   </trkpt>
   <trkpt lat="18.244850000000003" lon="109.49980000000001">
    <ele>7.130000000000001</ele>
   </trkpt>
   <trkpt lat="18.245570000300987" lon="109.49963400274741">
    <ele>6.83</ele>
   </trkpt>
   <trkpt lat="18.24629000045896" lon="109.49946800411946">
    <ele>7.220000000000001</ele>
   </trkpt>
   <trkpt lat="18.247010000473924" lon="109.49930200411607">
    <ele>7.42</ele>
   </trkpt>
   <trkpt lat="18.247730000345875" lon="109.4991360027372">
    <ele>7.25</ele>
   </trkpt>
   <trkpt lat="18.248450000000002" lon="109.49897000000001">
    <ele>7.680000000000001</ele>
   </trkpt>
   <trkpt lat="18.24895" lon="109.49882000000001">
    <ele>8.290000000000001</ele>
   </trkpt>
   <trkpt lat="18.2495" lon="109.49864000000001">
    <ele>8.06</ele>
   </trkpt>
   <trkpt lat="18.25020500037437" lon="109.49843250251435">
    <ele>7.96</ele>
   </trkpt>
   <trkpt lat="18.25091000052525" lon="109.49822500334486">
    <ele>8.23</ele>
   </trkpt>
   <trkpt lat="18.251615000452617" lon="109.49801750249142">
    <ele>8.13</ele>
   </trkpt>
   <trkpt lat="18.25232" lon="109.49781000000002">
    <ele>8.23</ele>
   </trkpt>
   <trkpt lat="18.252170001582154" lon="109.49703499945039">
    <ele>6.970000000000001</ele>
   </trkpt>
   <trkpt lat="18.25202" lon="109.49626">
    <ele>6.78</ele>
   </trkpt>
   <trkpt lat="18.25267500073969" lon="109.49595000351054">
    <ele>6.83</ele>
   </trkpt>
   <trkpt lat="18.253330000980487" lon="109.49564000468355">
    <ele>6.66</ele>
   </trkpt>
   <trkpt lat="18.253985000722377" lon="109.49533000351886">
    <ele>6.72</ele>
   </trkpt>
   <trkpt lat="18.254640000000002" lon="109.49502000000001">
    <ele>6.86</ele>
   </trkpt>
   <trkpt lat="18.25488" lon="109.49489000000001">
    <ele>6.86</ele>
   </trkpt>
   <trkpt lat="18.25506" lon="109.49478">
    <ele>6.960000000000001</ele>
   </trkpt>
   <trkpt lat="18.255610000312625" lon="109.49450000083107">
    <ele>6.95</ele>
   </trkpt>
   <trkpt lat="18.25616" lon="109.49422000000001">
    <ele>6.930000000000001</ele>
   </trkpt>
   <trkpt lat="18.256823334555687" lon="109.4937233371709">
    <ele>6.890000000000001</ele>
   </trkpt>
   <trkpt lat="18.257486667830516" lon="109.49322667054813">
    <ele>6.880000000000001</ele>
   </trkpt>
   <trkpt lat="18.25815" lon="109.49273000000001">
    <ele>6.95</ele>
   </trkpt>
   <trkpt lat="18.258673334182834" lon="109.49233000239654">
    <ele>6.840000000000001</ele>
   </trkpt>
   <trkpt lat="18.259196667534805" lon="109.49193000238233">
    <ele>6.94</ele>
   </trkpt>
   <trkpt lat="18.25972" lon="109.49153000000001">
    <ele>6.85</ele>
   </trkpt>
   <trkpt lat="18.260213334151096" lon="109.49113666889018">
    <ele>6.760000000000001</ele>
   </trkpt>
   <trkpt lat="18.26070666749873" lon="109.49074333554547">
    <ele>6.7700000000000005</ele>
   </trkpt>
   <trkpt lat="18.261200000000002" lon="109.49035">
    <ele>6.8100000000000005</ele>
   </trkpt>
   <trkpt lat="18.26124" lon="109.49039">
    <ele>6.8100000000000005</ele>
   </trkpt>
   <trkpt lat="18.261800003736113" lon="109.48979000774429">
    <ele>7.38</ele>
   </trkpt>
   <trkpt lat="18.262360005602538" lon="109.4891900116184">
    <ele>7.44</ele>
   </trkpt>
   <trkpt lat="18.262920005599188" lon="109.48859001162222">
    <ele>7.5</ele>
   </trkpt>
   <trkpt lat="18.263480003726" lon="109.48799000775558">
    <ele>7.410000000000001</ele>
   </trkpt>
   <trkpt lat="18.26404" lon="109.48739">
    <ele>7.4</ele>
   </trkpt>
   <trkpt lat="18.264597147913975" lon="109.48682001098258">
    <ele>6.450000000000001</ele>
   </trkpt>
   <trkpt lat="18.26515429414035" lon="109.48625001830668">
    <ele>6.49</ele>
   </trkpt>
   <trkpt lat="18.265711438679055" lon="109.48568002197216">
    <ele>6.49</ele>
   </trkpt>
   <trkpt lat="18.26626858153003" lon="109.48511002197885">
    <ele>6.450000000000001</ele>
   </trkpt>
   <trkpt lat="18.266825722693202" lon="109.48454001832668">
    <ele>6.620000000000001</ele>
   </trkpt>
   <trkpt lat="18.267382862168514" lon="109.48397001101549">
    <ele>6.7</ele>
   </trkpt>
   <trkpt lat="18.267940000000003" lon="109.4834">
    <ele>7.17</ele>
   </trkpt>
   <trkpt lat="18.2682" lon="109.48316000000001">
    <ele>6.960000000000001</ele>
   </trkpt>
   <trkpt lat="18.26826" lon="109.48306000000001">
    <ele>6.95</ele>
   </trkpt>
   <trkpt lat="18.2686300006345" lon="109.48262000078151">
    <ele>6.86</ele>
   </trkpt>
   <trkpt lat="18.269000000000002" lon="109.48218000000001">
    <ele>7.0200000000000005</ele>
   </trkpt>
   <trkpt lat="18.26952666879918" lon="109.48154333716536">
    <ele>7.25</ele>
   </trkpt>
   <trkpt lat="18.270053335492374" lon="109.48090667046671">
    <ele>7.150000000000001</ele>
   </trkpt>
   <trkpt lat="18.270580000000002" lon="109.48027">
    <ele>7.0600000000000005</ele>
   </trkpt>
   <trkpt lat="18.271082003928765" lon="109.47965600709125">
    <ele>7.17</ele>
   </trkpt>
   <trkpt lat="18.271584005898703" lon="109.4790420106303">
    <ele>6.790000000000001</ele>
   </trkpt>
   <trkpt lat="18.272086005909742" lon="109.47842801061697">
    <ele>6.5200000000000005</ele>
   </trkpt>
   <trkpt lat="18.272588003961825" lon="109.47781400705121">
    <ele>6.4</ele>
   </trkpt>
   <trkpt lat="18.27309" lon="109.47720000000001">
    <ele>6.42</ele>
   </trkpt>
   <trkpt lat="18.2735580060753" lon="109.4764360082285">
    <ele>6.280000000000001</ele>
   </trkpt>
   <trkpt lat="18.274026009117424" lon="109.4756720123357">
    <ele>6.3500000000000005</ele>
   </trkpt>
   <trkpt lat="18.27449400912628" lon="109.47490801232152">
    <ele>6.65</ele>
   </trkpt>
   <trkpt lat="18.27496200610177" lon="109.47414400818583">
    <ele>7.410000000000001</ele>
   </trkpt>
   <trkpt lat="18.27543" lon="109.47338">
    <ele>6.95</ele>
   </trkpt>
   <trkpt lat="18.275896674436826" lon="109.47260667706838">
    <ele>6.670000000000001</ele>
   </trkpt>
   <trkpt lat="18.276363345765592" lon="109.47183334997644">
    <ele>6.68</ele>
   </trkpt>
   <trkpt lat="18.2768300139862" lon="109.47106001872405">
    <ele>6.750000000000001</ele>
   </trkpt>
   <trkpt lat="18.277296679098548" lon="109.47028668331113">
    <ele>6.9</ele>
   </trkpt>
   <trkpt lat="18.27776334110253" lon="109.46951334373757">
    <ele>6.55</ele>
   </trkpt>
   <trkpt lat="18.27823" lon="109.46874000000001">
    <ele>6.5200000000000005</ele>
   </trkpt>
   <trkpt lat="18.27871" lon="109.46795">
    <ele>6.5600000000000005</ele>
   </trkpt>
   <trkpt lat="18.279092512721693" lon="109.46711376291135">
    <ele>6.85</ele>
   </trkpt>
   <trkpt lat="18.279475021808505" lon="109.46627752213456">
    <ele>6.890000000000001</ele>
   </trkpt>
   <trkpt lat="18.279857527260326" lon="109.46544127766957">
    <ele>6.91</ele>
   </trkpt>
   <trkpt lat="18.280240029077063" lon="109.4646050295163">
    <ele>6.920000000000001</ele>
   </trkpt>
   <trkpt lat="18.280622527258622" lon="109.46376877767469">
    <ele>6.840000000000001</ele>
   </trkpt>
   <trkpt lat="18.281005021804898" lon="109.46293252214468">
    <ele>6.82</ele>
   </trkpt>
   <trkpt lat="18.281387512715796" lon="109.46209626292621">
    <ele>6.920000000000001</ele>
   </trkpt>
   <trkpt lat="18.28177" lon="109.46126000000001">
    <ele>6.94</ele>
   </trkpt>
   <trkpt lat="18.282103336231888" lon="109.46051333620308">
    <ele>6.73</ele>
   </trkpt>
   <trkpt lat="18.28243666956547" lon="109.45976666953591">
    <ele>6.86</ele>
   </trkpt>
   <trkpt lat="18.282770000000003" lon="109.45902000000001">
    <ele>6.91</ele>
   </trkpt>
   <trkpt lat="18.28305500187118" lon="109.45818000127142">
    <ele>6.920000000000001</ele>
   </trkpt>
   <trkpt lat="18.283340000000003" lon="109.45734">
    <ele>6.85</ele>
   </trkpt>
   <trkpt lat="18.28339" lon="109.45691000000001">
    <ele>6.640000000000001</ele>
   </trkpt>
   <trkpt lat="18.283375001405844" lon="109.45617500001174">
    <ele>6.11</ele>
   </trkpt>
   <trkpt lat="18.283360000000002" lon="109.45544000000001">
    <ele>6.010000000000001</ele>
   </trkpt>
   <trkpt lat="18.2834" lon="109.45514000000001">
    <ele>6.220000000000001</ele>
   </trkpt>
   <trkpt lat="18.28347" lon="109.45495000000001">
    <ele>6.220000000000001</ele>
   </trkpt>
   <trkpt lat="18.28392500124948" lon="109.45427000171333">
    <ele>6.85</ele>
   </trkpt>
   <trkpt lat="18.284380000000002" lon="109.45359">
    <ele>7.03</ele>
   </trkpt>
   <trkpt lat="18.2848" lon="109.45289000000001">
    <ele>6.98</ele>
   </trkpt>
   <trkpt lat="18.28498" lon="109.45246">
    <ele>7.03</ele>
   </trkpt>
   <trkpt lat="18.28521000128835" lon="109.45176000088443">
    <ele>7.07</ele>
   </trkpt>
   <trkpt lat="18.28544" lon="109.45106000000001">
    <ele>6.74</ele>
   </trkpt>
   <trkpt lat="18.28561500119636" lon="109.45039000056397">
    <ele>6.760000000000001</ele>
   </trkpt>
   <trkpt lat="18.285790000000002" lon="109.44972000000001">
    <ele>6.86</ele>
   </trkpt>
   <trkpt lat="18.286007154279815" lon="109.44886429214324">
    <ele>6.630000000000001</ele>
   </trkpt>
   <trkpt lat="18.286224304752267" lon="109.44800858214307">
    <ele>6.430000000000001</ele>
   </trkpt>
   <trkpt lat="18.2864414514173" lon="109.44715286999956">
    <ele>6.51</ele>
   </trkpt>
   <trkpt lat="18.28665859427486" lon="109.44629715571264">
    <ele>6.790000000000001</ele>
   </trkpt>
   <trkpt lat="18.286875733324894" lon="109.44544143928235">
    <ele>6.57</ele>
   </trkpt>
   <trkpt lat="18.287092868567328" lon="109.44458572070869">
    <ele>6.2700000000000005</ele>
   </trkpt>
   <trkpt lat="18.28731" lon="109.44373">
    <ele>6.61</ele>
   </trkpt>
   <trkpt lat="18.28748000172187" lon="109.44291500082366">
    <ele>6.840000000000001</ele>
   </trkpt>
   <trkpt lat="18.287650000000003" lon="109.44210000000001">
    <ele>6.82</ele>
   </trkpt>
   <trkpt lat="18.2878" lon="109.44149000000002">
    <ele>6.7700000000000005</ele>
   </trkpt>
   <trkpt lat="18.287933335900473" lon="109.44078666777615">
    <ele>6.890000000000001</ele>
   </trkpt>
   <trkpt lat="18.288066669228577" lon="109.44008333447043">
    <ele>6.99</ele>
   </trkpt>
   <trkpt lat="18.2882" lon="109.43938000000001">
    <ele>7.010000000000001</ele>
   </trkpt>
   <trkpt lat="18.28833666969642" lon="109.43861666787181">
    <ele>7.280000000000001</ele>
   </trkpt>
   <trkpt lat="18.28847333636281" lon="109.4378533345401">
    <ele>6.800000000000001</ele>
   </trkpt>
   <trkpt lat="18.288610000000002" lon="109.43709000000001">
    <ele>6.99</ele>
   </trkpt>
   <trkpt lat="18.288705001031385" lon="109.43646500023921">
    <ele>6.68</ele>
   </trkpt>
   <trkpt lat="18.288800000000002" lon="109.43584000000001">
    <ele>7.0</ele>
   </trkpt>
   <trkpt lat="18.288800000000002" lon="109.43572">
    <ele>6.99</ele>
   </trkpt>
   <trkpt lat="18.28884" lon="109.43560000000001">
    <ele>6.99</ele>
   </trkpt>
   <trkpt lat="18.28884" lon="109.43546">
    <ele>7.03</ele>
   </trkpt>
   <trkpt lat="18.288947506423014" lon="109.43455250169804">
    <ele>7.0600000000000005</ele>
   </trkpt>
   <trkpt lat="18.289055008563277" lon="109.43364500227055">
    <ele>7.300000000000001</ele>
   </trkpt>
   <trkpt lat="18.289162506420734" lon="109.43273750171757">
    <ele>7.29</ele>
   </trkpt>
   <trkpt lat="18.289270000000002" lon="109.43183">
    <ele>7.83</ele>
   </trkpt>
   <trkpt lat="18.289476668574807" lon="109.4312300013262">
    <ele>8.33</ele>
   </trkpt>
   <trkpt lat="18.28968333527744" lon="109.43063000122181">
    <ele>8.89</ele>
   </trkpt>
   <trkpt lat="18.28989" lon="109.43003">
    <ele>9.55</ele>
   </trkpt>
   <trkpt lat="18.28993250468613" lon="109.42925500055671">
    <ele>9.53</ele>
   </trkpt>
   <trkpt lat="18.28997500624867" lon="109.42848000073339">
    <ele>9.39</ele>
   </trkpt>
   <trkpt lat="18.290017504687604" lon="109.42770500053005">
    <ele>9.370000000000001</ele>
   </trkpt>
   <trkpt lat="18.29006" lon="109.42693000000001">
    <ele>9.430000000000001</ele>
   </trkpt>
   <trkpt lat="18.290127504504234" lon="109.4261700009059">
    <ele>9.24</ele>
   </trkpt>
   <trkpt lat="18.29019500600458" lon="109.42541000121987">
    <ele>9.24</ele>
   </trkpt>
   <trkpt lat="18.29026250450104" lon="109.42465000094198">
    <ele>9.22</ele>
   </trkpt>
   <trkpt lat="18.29033" lon="109.42389000000001">
    <ele>9.370000000000001</ele>
   </trkpt>
   <trkpt lat="18.29036000441909" lon="109.42313750034795">
    <ele>9.45</ele>
   </trkpt>
   <trkpt lat="18.290390005893265" lon="109.42238500043538">
    <ele>9.41</ele>
   </trkpt>
   <trkpt lat="18.29042000442251" lon="109.42163250026232">
    <ele>9.35</ele>
   </trkpt>
   <trkpt lat="18.29045" lon="109.42088000000001">
    <ele>9.58</ele>
   </trkpt>
   <trkpt lat="18.29046000444735" lon="109.42012500008957">
    <ele>9.55</ele>
   </trkpt>
   <trkpt lat="18.29047000593016" lon="109.41937000009199">
    <ele>9.48</ele>
   </trkpt>
   <trkpt lat="18.290480004448444" lon="109.41861500000732">
    <ele>9.63</ele>
   </trkpt>
   <trkpt lat="18.290490000000002" lon="109.41786">
    <ele>9.8</ele>
   </trkpt>
   <trkpt lat="18.29052500215213" lon="109.41695000021579">
    <ele>10.14</ele>
   </trkpt>
   <trkpt lat="18.290560000000003" lon="109.41604000000001">
    <ele>10.25</ele>
   </trkpt>
   <trkpt lat="18.290570004306954" lon="109.4151300000852">
    <ele>10.040000000000001</ele>
   </trkpt>
   <trkpt lat="18.290580004307166" lon="109.4142200000654">
    <ele>10.120000000000001</ele>
   </trkpt>
   <trkpt lat="18.29059" lon="109.41331000000001">
    <ele>10.14</ele>
   </trkpt>
   <trkpt lat="18.290603337799325" lon="109.41238333347238">
    <ele>10.17</ele>
   </trkpt>
   <trkpt lat="18.290616671132714" lon="109.41145666680215">
    <ele>9.92</ele>
   </trkpt>
   <trkpt lat="18.29063" lon="109.41053000000001">
    <ele>9.65</ele>
   </trkpt>
   <trkpt lat="18.29061000459509" lon="109.40958999976958">
    <ele>9.540000000000001</ele>
   </trkpt>
   <trkpt lat="18.290590004594804" lon="109.40864999975601">
    <ele>9.47</ele>
   </trkpt>
   <trkpt lat="18.290570000000002" lon="109.40771000000001">
    <ele>9.540000000000001</ele>
   </trkpt>
   <trkpt lat="18.29058500111948" lon="109.40705499988844">
    <ele>9.49</ele>
   </trkpt>
   <trkpt lat="18.2906" lon="109.4064">
    <ele>9.430000000000001</ele>
   </trkpt>
   <trkpt lat="18.29063500170312" lon="109.4055900002327">
    <ele>9.600000000000001</ele>
   </trkpt>
   <trkpt lat="18.290670000000002" lon="109.40478">
    <ele>9.62</ele>
   </trkpt>
   <trkpt lat="18.29067000134804" lon="109.40406000005665">
    <ele>9.670000000000002</ele>
   </trkpt>
   <trkpt lat="18.290670000000002" lon="109.40334000000001">
    <ele>9.670000000000002</ele>
   </trkpt>
   <trkpt lat="18.290655001132063" lon="109.40267999991369">
    <ele>9.850000000000001</ele>
   </trkpt>
   <trkpt lat="18.29064" lon="109.40202000000001">
    <ele>9.850000000000001</ele>
   </trkpt>
   <trkpt lat="18.290590002305997" lon="109.40135333287618">
    <ele>9.88</ele>
   </trkpt>
   <trkpt lat="18.290540002300553" lon="109.40068666613695">
    <ele>9.98</ele>
   </trkpt>
   <trkpt lat="18.290490000000002" lon="109.40002000000001">
    <ele>10.16</ele>
   </trkpt>
   <trkpt lat="18.290485006638715" lon="109.39909749991193">
    <ele>10.24</ele>
   </trkpt>
   <trkpt lat="18.290480008851592" lon="109.39817499987701">
    <ele>10.280000000000001</ele>
   </trkpt>
   <trkpt lat="18.29047500663863" lon="109.39725249989532">
    <ele>10.21</ele>
   </trkpt>
   <trkpt lat="18.290470000000003" lon="109.39633">
    <ele>10.07</ele>
   </trkpt>
   <trkpt lat="18.29043500600814" lon="109.39545249950069">
    <ele>10.0</ele>
   </trkpt>
   <trkpt lat="18.290400008011705" lon="109.39457499935568">
    <ele>9.92</ele>
   </trkpt>
   <trkpt lat="18.290365006010706" lon="109.39369749956501">
    <ele>9.82</ele>
   </trkpt>
   <trkpt lat="18.29033" lon="109.39282000000001">
    <ele>9.760000000000002</ele>
   </trkpt>
   <trkpt lat="18.290284296131947" lon="109.39200285584786">
    <ele>9.62</ele>
   </trkpt>
   <trkpt lat="18.29023858879128" lon="109.39118571212661">
    <ele>9.510000000000002</ele>
   </trkpt>
   <trkpt lat="18.29019287797802" lon="109.3903685688363">
    <ele>9.28</ele>
   </trkpt>
   <trkpt lat="18.29014716369216" lon="109.38955142597696">
    <ele>9.31</ele>
   </trkpt>
   <trkpt lat="18.29010144593373" lon="109.38873428354862">
    <ele>9.160000000000002</ele>
   </trkpt>
   <trkpt lat="18.29005572470273" lon="109.38791714155133">
    <ele>9.200000000000001</ele>
   </trkpt>
   <trkpt lat="18.290010000000002" lon="109.3871">
    <ele>9.05</ele>
   </trkpt>
   <trkpt lat="18.289977504961467" lon="109.38630249955271">
    <ele>9.0</ele>
   </trkpt>
   <trkpt lat="18.28994500661531" lon="109.38550499940443">
    <ele>8.96</ele>
   </trkpt>
   <trkpt lat="18.289912504961556" lon="109.38470749955516">
    <ele>8.73</ele>
   </trkpt>
   <trkpt lat="18.28988" lon="109.38391000000001">
    <ele>8.8</ele>
   </trkpt>
   <trkpt lat="18.28982750496079" lon="109.38311249926666">
    <ele>8.75</ele>
   </trkpt>
   <trkpt lat="18.289775006613993" lon="109.3823149990163">
    <ele>8.89</ele>
   </trkpt>
   <trkpt lat="18.289722504959624" lon="109.38151749924903">
    <ele>8.85</ele>
   </trkpt>
   <trkpt lat="18.28967" lon="109.38072000000001">
    <ele>8.870000000000001</ele>
   </trkpt>
   <trkpt lat="18.28966" lon="109.38016">
    <ele>8.690000000000001</ele>
   </trkpt>
   <trkpt lat="18.289730000000002" lon="109.37985">
    <ele>8.34</ele>
   </trkpt>
   <trkpt lat="18.28994" lon="109.37944">
    <ele>8.360000000000001</ele>
   </trkpt>
   <trkpt lat="18.289930000000002" lon="109.37917">
    <ele>8.290000000000001</ele>
   </trkpt>
   <trkpt lat="18.289810000000003" lon="109.37898000000001">
    <ele>8.41</ele>
   </trkpt>
   <trkpt lat="18.289730000000002" lon="109.37875000000001">
    <ele>8.690000000000001</ele>
   </trkpt>
   <trkpt lat="18.28966" lon="109.37842">
    <ele>8.860000000000001</ele>
   </trkpt>
   <trkpt lat="18.28963400765643" lon="109.37756199947154">
    <ele>8.950000000000001</ele>
   </trkpt>
   <trkpt lat="18.289608011484432" lon="109.37670399920037">
    <ele>8.780000000000001</ele>
   </trkpt>
   <trkpt lat="18.289582011484008" lon="109.37584599918657">
    <ele>8.93</ele>
   </trkpt>
   <trkpt lat="18.289556007655168" lon="109.37498799943015">
    <ele>8.92</ele>
   </trkpt>
   <trkpt lat="18.289530000000003" lon="109.37413000000001">
    <ele>9.02</ele>
   </trkpt>
   <trkpt lat="18.289505001129193" lon="109.37346999981327">
    <ele>9.01</ele>
   </trkpt>
   <trkpt lat="18.28948" lon="109.37281000000002">
    <ele>8.950000000000001</ele>
   </trkpt>
   <trkpt lat="18.28951" lon="109.37261000000001">
    <ele>8.950000000000001</ele>
   </trkpt>
   <trkpt lat="18.289710000000003" lon="109.37191000000001">
    <ele>8.650000000000002</ele>
   </trkpt>
   <trkpt lat="18.289710000000003" lon="109.37192">
    <ele>8.650000000000002</ele>
   </trkpt>
   <trkpt lat="18.28989000090638" lon="109.37133500055386">
    <ele>7.790000000000001</ele>
   </trkpt>
   <trkpt lat="18.29007" lon="109.37075000000002">
    <ele>7.620000000000001</ele>
   </trkpt>
   <trkpt lat="18.29014" lon="109.37061000000001">
    <ele>7.640000000000001</ele>
   </trkpt>
   <trkpt lat="18.29026" lon="109.3705">
    <ele>7.640000000000001</ele>
   </trkpt>
   <trkpt lat="18.2904" lon="109.37043000000001">
    <ele>7.6000000000000005</ele>
   </trkpt>
   <trkpt lat="18.290680000000002" lon="109.37045">
    <ele>7.65</ele>
   </trkpt>
   <trkpt lat="18.291263333845215" lon="109.37075999791988">
    <ele>8.020000000000001</ele>
   </trkpt>
   <trkpt lat="18.291846667190626" lon="109.37106999792627">
    <ele>8.5</ele>
   </trkpt>
   <trkpt lat="18.292430000000003" lon="109.37138">
    <ele>9.780000000000001</ele>
   </trkpt>
   <trkpt lat="18.293196001931857" lon="109.37181199235707">
    <ele>10.08</ele>
   </trkpt>
   <trkpt lat="18.29396200289304" lon="109.37224398853267">
    <ele>10.270000000000001</ele>
   </trkpt>
   <trkpt lat="18.294728002883485" lon="109.37267598852706">
    <ele>11.170000000000002</ele>
   </trkpt>
   <trkpt lat="18.295494001903158" lon="109.37310799234044">
    <ele>11.88</ele>
   </trkpt>
   <trkpt lat="18.29626" lon="109.37354">
    <ele>11.47</ele>
   </trkpt>
   <trkpt lat="18.296670000000002" lon="109.37376">
    <ele>10.94</ele>
   </trkpt>
   <trkpt lat="18.29683" lon="109.3738">
    <ele>10.75</ele>
   </trkpt>
   <trkpt lat="18.29685800613576" lon="109.37456799947348">
    <ele>10.77</ele>
   </trkpt>
   <trkpt lat="18.2968860092031" lon="109.37533599919519">
    <ele>11.290000000000001</ele>
   </trkpt>
   <trkpt lat="18.296914009202013" lon="109.37610399916511">
    <ele>11.930000000000001</ele>
   </trkpt>
   <trkpt lat="18.29694200613248" lon="109.37687199938323">
    <ele>12.17</ele>
   </trkpt>
   <trkpt lat="18.29697" lon="109.37764000000001">
    <ele>12.58</ele>
   </trkpt>
   <trkpt lat="18.297040000000003" lon="109.37814">
    <ele>12.64</ele>
   </trkpt>
   <trkpt lat="18.297100001617977" lon="109.3789299996552">
    <ele>12.950000000000001</ele>
   </trkpt>
   <trkpt lat="18.29716" lon="109.37972">
    <ele>13.430000000000001</ele>
   </trkpt>
   <trkpt lat="18.297220000584254" lon="109.3801999997133">
    <ele>13.600000000000001</ele>
   </trkpt>
   <trkpt lat="18.29728" lon="109.38068000000001">
    <ele>13.88</ele>
   </trkpt>
   <trkpt lat="18.29735" lon="109.38119">
    <ele>14.24</ele>
   </trkpt>
   <trkpt lat="18.29735" lon="109.38118000000001">
    <ele>14.23</ele>
   </trkpt>
   <trkpt lat="18.297435000767127" lon="109.38172999960247">
    <ele>14.690000000000001</ele>
   </trkpt>
   <trkpt lat="18.297520000000002" lon="109.38228000000001">
    <ele>15.01</ele>
   </trkpt>
   <trkpt lat="18.297618005914565" lon="109.3830339982878">
    <ele>15.31</ele>
   </trkpt>
   <trkpt lat="18.297716008871454" lon="109.38378799742856">
    <ele>15.74</ele>
   </trkpt>
   <trkpt lat="18.29781400887065" lon="109.38454199742223">
    <ele>16.41</ele>
   </trkpt>
   <trkpt lat="18.29791200591213" lon="109.3852959982688">
    <ele>16.450000000000003</ele>
   </trkpt>
   <trkpt lat="18.29801" lon="109.38605000000001">
    <ele>16.57</ele>
   </trkpt>
   <trkpt lat="18.298077504274456" lon="109.3867899991467">
    <ele>16.34</ele>
   </trkpt>
   <trkpt lat="18.298145005699986" lon="109.38752999887">
    <ele>16.66</ele>
   </trkpt>
   <trkpt lat="18.298212504276584" lon="109.38826999916986">
    <ele>16.71</ele>
   </trkpt>
   <trkpt lat="18.298280000000002" lon="109.38901000000001">
    <ele>17.01</ele>
   </trkpt>
   <trkpt lat="18.298353336973705" lon="109.3898466659409">
    <ele>16.41</ele>
   </trkpt>
   <trkpt lat="18.29842667030551" lon="109.39068333259002">
    <ele>16.51</ele>
   </trkpt>
   <trkpt lat="18.2985" lon="109.39152000000001">
    <ele>16.439999999999998</ele>
   </trkpt>
   <trkpt lat="18.29858667016606" lon="109.39233999919003">
    <ele>16.330000000000002</ele>
   </trkpt>
   <trkpt lat="18.298673336833826" lon="109.39315999920038">
    <ele>16.68</ele>
   </trkpt>
   <trkpt lat="18.29876" lon="109.39398000000001">
    <ele>16.790000000000003</ele>
   </trkpt>
   <trkpt lat="18.2989" lon="109.39491000000001">
    <ele>16.71</ele>
   </trkpt>
   <trkpt lat="18.299006682742576" lon="109.39578888456188">
    <ele>16.810000000000002</ele>
   </trkpt>
   <trkpt lat="18.299113361466304" lon="109.3966677702061">
    <ele>16.650000000000002</ele>
   </trkpt>
   <trkpt lat="18.299220036171153" lon="109.39754665693256">
    <ele>16.52</ele>
   </trkpt>
   <trkpt lat="18.2993267068571" lon="109.39842554474133">
    <ele>16.53</ele>
   </trkpt>
   <trkpt lat="18.299433373524106" lon="109.39930443363231">
    <ele>16.470000000000002</ele>
   </trkpt>
   <trkpt lat="18.299540036172147" lon="109.4001833236055">
    <ele>16.630000000000003</ele>
   </trkpt>
   <trkpt lat="18.299646694801194" lon="109.40106221466084">
    <ele>16.87</ele>
   </trkpt>
   <trkpt lat="18.299753349411212" lon="109.40194110679832">
    <ele>17.03</ele>
   </trkpt>
   <trkpt lat="18.299860000000002" lon="109.40282">
    <ele>17.380000000000003</ele>
   </trkpt>
   <trkpt lat="18.299950004688032" lon="109.40359499879571">
    <ele>17.740000000000002</ele>
   </trkpt>
   <trkpt lat="18.300040006250992" lon="109.40436999839665">
    <ele>18.11</ele>
   </trkpt>
   <trkpt lat="18.30013000468887" lon="109.4051449988028">
    <ele>18.64</ele>
   </trkpt>
   <trkpt lat="18.300220000000003" lon="109.40592000000001">
    <ele>18.82</ele>
   </trkpt>
   <trkpt lat="18.3002600008259" lon="109.40648499980489">
    <ele>18.910000000000004</ele>
   </trkpt>
   <trkpt lat="18.3003" lon="109.40705000000001">
    <ele>19.560000000000002</ele>
   </trkpt>
   <trkpt lat="18.300325000681028" lon="109.40756499974083">
    <ele>19.69</ele>
   </trkpt>
   <trkpt lat="18.30035" lon="109.40808000000001">
    <ele>19.71</ele>
   </trkpt>
   <trkpt lat="18.300365001272564" lon="109.40877999983638">
    <ele>19.880000000000003</ele>
   </trkpt>
   <trkpt lat="18.30038" lon="109.40948">
    <ele>19.48</ele>
   </trkpt>
   <trkpt lat="18.300375002060765" lon="109.41037000001467">
    <ele>19.64</ele>
   </trkpt>
   <trkpt lat="18.30037" lon="109.41126000000001">
    <ele>19.560000000000002</ele>
   </trkpt>
   <trkpt lat="18.30035334478654" lon="109.41219833377225">
    <ele>19.4</ele>
   </trkpt>
   <trkpt lat="18.30033668499187" lon="109.41313666736407">
    <ele>19.15</ele>
   </trkpt>
   <trkpt lat="18.30032002061601" lon="109.41407500077537">
    <ele>19.17</ele>
   </trkpt>
   <trkpt lat="18.300303351658965" lon="109.41501333400613">
    <ele>19.07</ele>
   </trkpt>
   <trkpt lat="18.30028667812073" lon="109.4159516670563">
    <ele>19.000000000000004</ele>
   </trkpt>
   <trkpt lat="18.30027" lon="109.41689000000001">
    <ele>19.590000000000003</ele>
   </trkpt>
   <trkpt lat="18.300263763665214" lon="109.41775625022267">
    <ele>19.28</ele>
   </trkpt>
   <trkpt lat="18.30025752342606" lon="109.41862250038291">
    <ele>19.37</ele>
   </trkpt>
   <trkpt lat="18.30025127928256" lon="109.41948875048074">
    <ele>19.700000000000003</ele>
   </trkpt>
   <trkpt lat="18.3002450312347" lon="109.42035500051611">
    <ele>19.8</ele>
   </trkpt>
   <trkpt lat="18.300238779282495" lon="109.42122125048897">
    <ele>19.76</ele>
   </trkpt>
   <trkpt lat="18.30023252342593" lon="109.4220875003993">
    <ele>19.8</ele>
   </trkpt>
   <trkpt lat="18.300226263665024" lon="109.42295375024703">
    <ele>19.46</ele>
   </trkpt>
   <trkpt lat="18.300220000000003" lon="109.42382">
    <ele>19.48</ele>
   </trkpt>
   <trkpt lat="18.300230001813627" lon="109.42465499993163">
    <ele>19.51</ele>
   </trkpt>
   <trkpt lat="18.300240000000002" lon="109.42549000000001">
    <ele>19.720000000000002</ele>
   </trkpt>
   <trkpt lat="18.300265000733546" lon="109.42601999998229">
    <ele>19.69</ele>
   </trkpt>
   <trkpt lat="18.30029" lon="109.42655">
    <ele>19.8</ele>
   </trkpt>
   <trkpt lat="18.30032500057813" lon="109.42702499978392">
    <ele>19.990000000000002</ele>
   </trkpt>
   <trkpt lat="18.30036" lon="109.42750000000001">
    <ele>20.080000000000002</ele>
   </trkpt>
   <trkpt lat="18.300435001030312" lon="109.42812499984669">
    <ele>20.610000000000003</ele>
   </trkpt>
   <trkpt lat="18.300510000000003" lon="109.42875000000001">
    <ele>20.970000000000002</ele>
   </trkpt>
   <trkpt lat="18.300600000000003" lon="109.42952000000001">
    <ele>21.2</ele>
   </trkpt>
   <trkpt lat="18.300766670762137" lon="109.4304066649861">
    <ele>21.57</ele>
   </trkpt>
   <trkpt lat="18.300933337433612" lon="109.43129333167828">
    <ele>21.95</ele>
   </trkpt>
   <trkpt lat="18.3011" lon="109.43218">
    <ele>22.330000000000002</ele>
   </trkpt>
   <trkpt lat="18.3011" lon="109.43217000000001">
    <ele>22.330000000000002</ele>
   </trkpt>
   <trkpt lat="18.30122500102161" lon="109.43279999949002">
    <ele>22.500000000000004</ele>
   </trkpt>
   <trkpt lat="18.301350000000003" lon="109.43343000000002">
    <ele>22.340000000000003</ele>
   </trkpt>
   <trkpt lat="18.301517504533834" lon="109.43419249776936">
    <ele>21.62</ele>
   </trkpt>
   <trkpt lat="18.301685006042383" lon="109.43495499701329">
    <ele>20.540000000000003</ele>
   </trkpt>
   <trkpt lat="18.301852504525616" lon="109.43571749773179">
    <ele>19.560000000000002</ele>
   </trkpt>
   <trkpt lat="18.302020000000002" lon="109.43648">
    <ele>18.39</ele>
   </trkpt>
   <trkpt lat="18.302120000000002" lon="109.43698">
    <ele>18.060000000000002</ele>
   </trkpt>
   <trkpt lat="18.30216" lon="109.43728000000002">
    <ele>17.42</ele>
   </trkpt>
   <trkpt lat="18.30216" lon="109.43792">
    <ele>16.52</ele>
   </trkpt>
   <trkpt lat="18.30215" lon="109.43815000000001">
    <ele>16.720000000000002</ele>
   </trkpt>
   <trkpt lat="18.30208000471818" lon="109.43892750094457">
    <ele>16.560000000000002</ele>
   </trkpt>
   <trkpt lat="18.302010006290775" lon="109.43970500126079">
    <ele>16.400000000000002</ele>
   </trkpt>
   <trkpt lat="18.301940004717803" lon="109.44048250094863">
    <ele>16.14</ele>
   </trkpt>
   <trkpt lat="18.30187" lon="109.44126000000001">
    <ele>16.020000000000003</ele>
   </trkpt>
   <trkpt lat="18.301820000000003" lon="109.44196000000001">
    <ele>15.530000000000001</ele>
   </trkpt>
   <trkpt lat="18.301740001851968" lon="109.44280500045085">
    <ele>15.240000000000002</ele>
   </trkpt>
   <trkpt lat="18.301660000000002" lon="109.44365">
    <ele>15.240000000000002</ele>
   </trkpt>
   <trkpt lat="18.30156400616951" lon="109.44442000171239">
    <ele>14.870000000000001</ele>
   </trkpt>
   <trkpt lat="18.3014680092539" lon="109.44519000257137">
    <ele>14.41</ele>
   </trkpt>
   <trkpt lat="18.301372009253182" lon="109.44596000257695">
    <ele>14.08</ele>
   </trkpt>
   <trkpt lat="18.301276006167388" lon="109.44673000172912">
    <ele>13.940000000000001</ele>
   </trkpt>
   <trkpt lat="18.301180000000002" lon="109.4475">
    <ele>14.900000000000002</ele>
   </trkpt>
   <trkpt lat="18.301080000000002" lon="109.44802000000001">
    <ele>15.61</ele>
   </trkpt>
   <trkpt lat="18.30094" lon="109.44850000000001">
    <ele>15.860000000000003</ele>
   </trkpt>
   <trkpt lat="18.300710002276226" lon="109.44916000172462">
    <ele>15.540000000000001</ele>
   </trkpt>
   <trkpt lat="18.300480002285926" lon="109.44982000169675">
    <ele>15.19</ele>
   </trkpt>
   <trkpt lat="18.300250000000002" lon="109.45048000000001">
    <ele>15.31</ele>
   </trkpt>
   <trkpt lat="18.29999" lon="109.45110000000001">
    <ele>14.48</ele>
   </trkpt>
   <trkpt lat="18.299545001449907" lon="109.45185000194901">
    <ele>13.840000000000002</ele>
   </trkpt>
   <trkpt lat="18.299100000000003" lon="109.4526">
    <ele>12.950000000000001</ele>
   </trkpt>
   <trkpt lat="18.29878" lon="109.45312000000001">
    <ele>12.24</ele>
   </trkpt>
   <trkpt lat="18.29861" lon="109.45346">
    <ele>12.05</ele>
   </trkpt>
   <trkpt lat="18.2984" lon="109.45386">
    <ele>11.53</ele>
   </trkpt>
   <trkpt lat="18.298060000000003" lon="109.45472000000001">
    <ele>10.010000000000002</ele>
   </trkpt>
   <trkpt lat="18.297980000000003" lon="109.45500000000001">
    <ele>9.760000000000002</ele>
   </trkpt>
   <trkpt lat="18.29792" lon="109.45541000000001">
    <ele>9.690000000000001</ele>
   </trkpt>
   <trkpt lat="18.297900000000002" lon="109.4561">
    <ele>9.05</ele>
   </trkpt>
   <trkpt lat="18.297853337960394" lon="109.45704333389288">
    <ele>8.24</ele>
   </trkpt>
   <trkpt lat="18.297806671291177" lon="109.45798666727767">
    <ele>7.55</ele>
   </trkpt>
   <trkpt lat="18.29776" lon="109.45893000000001">
    <ele>7.08</ele>
   </trkpt>
   <trkpt lat="18.297706669966267" lon="109.45972666719146">
    <ele>6.23</ele>
   </trkpt>
   <trkpt lat="18.297653336630635" lon="109.4605233338925">
    <ele>5.46</ele>
   </trkpt>
   <trkpt lat="18.297600000000003" lon="109.46132000000001">
    <ele>6.4</ele>
   </trkpt>
   <trkpt lat="18.29747" lon="109.46215000000001">
    <ele>7.25</ele>
   </trkpt>
   <trkpt lat="18.2973" lon="109.46292000000001">
    <ele>7.17</ele>
   </trkpt>
   <trkpt lat="18.297060000000002" lon="109.46368000000001">
    <ele>6.74</ele>
   </trkpt>
   <trkpt lat="18.296780000000002" lon="109.46436000000001">
    <ele>6.07</ele>
   </trkpt>
   <trkpt lat="18.296470000000003" lon="109.465">
    <ele>5.69</ele>
   </trkpt>
   <trkpt lat="18.296110000000002" lon="109.46559">
    <ele>5.91</ele>
   </trkpt>
   <trkpt lat="18.295910000000003" lon="109.46587000000001">
    <ele>5.800000000000001</ele>
   </trkpt>
   <trkpt lat="18.29538778816737" lon="109.46657668370304">
    <ele>5.29</ele>
   </trkpt>
   <trkpt lat="18.294865573736903" lon="109.46728336314696">
    <ele>5.3500000000000005</ele>
   </trkpt>
   <trkpt lat="18.294343356708698" lon="109.4679900383319">
    <ele>5.66</ele>
   </trkpt>
   <trkpt lat="18.29382113708286" lon="109.46869670925798">
    <ele>5.99</ele>
   </trkpt>
   <trkpt lat="18.293298914859466" lon="109.46940337592535">
    <ele>6.3500000000000005</ele>
   </trkpt>
   <trkpt lat="18.292776690038625" lon="109.47011003833413">
    <ele>6.750000000000001</ele>
   </trkpt>
   <trkpt lat="18.292254462620434" lon="109.47081669648446">
    <ele>7.2</ele>
   </trkpt>
   <trkpt lat="18.291732232604975" lon="109.47152335037649">
    <ele>7.0600000000000005</ele>
   </trkpt>
   <trkpt lat="18.291210000000003" lon="109.47223000000001">
    <ele>6.540000000000001</ele>
   </trkpt>
   <trkpt lat="18.290740000000003" lon="109.47297">
    <ele>6.5600000000000005</ele>
   </trkpt>
   <trkpt lat="18.290480001756983" lon="109.47354666833554">
    <ele>5.960000000000001</ele>
   </trkpt>
   <trkpt lat="18.290220001784494" lon="109.47412333494115">
    <ele>5.55</ele>
   </trkpt>
   <trkpt lat="18.28996" lon="109.47470000000001">
    <ele>5.65</ele>
   </trkpt>
   <trkpt lat="18.289710000000003" lon="109.47555000000001">
    <ele>5.65</ele>
   </trkpt>
   <trkpt lat="18.289550000000002" lon="109.47634000000001">
    <ele>6.17</ele>
   </trkpt>
   <trkpt lat="18.289460000000002" lon="109.47714">
    <ele>6.620000000000001</ele>
   </trkpt>
   <trkpt lat="18.289440000720337" lon="109.47767000032802">
    <ele>6.53</ele>
   </trkpt>
   <trkpt lat="18.28942" lon="109.47820000000002">
    <ele>6.59</ele>
   </trkpt>
   <trkpt lat="18.2894033420041" lon="109.47901666707189">
    <ele>7.010000000000001</ele>
   </trkpt>
   <trkpt lat="18.289386680539785" lon="109.4798333339868">
    <ele>7.180000000000001</ele>
   </trkpt>
   <trkpt lat="18.289370015607055" lon="109.48065000074472">
    <ele>7.48</ele>
   </trkpt>
   <trkpt lat="18.289353347205918" lon="109.4814666673456">
    <ele>7.4</ele>
   </trkpt>
   <trkpt lat="18.289336675336383" lon="109.48228333378941">
    <ele>8.110000000000001</ele>
   </trkpt>
   <trkpt lat="18.28932" lon="109.48310000000001">
    <ele>7.99</ele>
   </trkpt>
   <trkpt lat="18.28929500138375" lon="109.48383000016092">
    <ele>7.260000000000001</ele>
   </trkpt>
   <trkpt lat="18.289270000000002" lon="109.48456">
    <ele>7.44</ele>
   </trkpt>
   <trkpt lat="18.28925000421258" lon="109.48546000019694">
    <ele>7.46</ele>
   </trkpt>
   <trkpt lat="18.289230004212815" lon="109.48636000018621">
    <ele>7.69</ele>
   </trkpt>
   <trkpt lat="18.28921" lon="109.48726">
    <ele>8.34</ele>
   </trkpt>
   <trkpt lat="18.289215001099596" lon="109.48791000011242">
    <ele>8.73</ele>
   </trkpt>
   <trkpt lat="18.28922" lon="109.48856">
    <ele>9.41</ele>
   </trkpt>
   <trkpt lat="18.289203341447696" lon="109.48935000035878">
    <ele>9.9</ele>
   </trkpt>
   <trkpt lat="18.28918667964982" lon="109.49014000056573">
    <ele>10.46</ele>
   </trkpt>
   <trkpt lat="18.289170014606373" lon="109.4909300006208">
    <ele>11.4</ele>
   </trkpt>
   <trkpt lat="18.289153346317363" lon="109.49172000052397">
    <ele>12.110000000000001</ele>
   </trkpt>
   <trkpt lat="18.289136674782785" lon="109.49251000027523">
    <ele>12.72</ele>
   </trkpt>
   <trkpt lat="18.28912" lon="109.4933">
    <ele>12.990000000000002</ele>
   </trkpt>
   <trkpt lat="18.289116669048077" lon="109.49397666663815">
    <ele>13.06</ele>
   </trkpt>
   <trkpt lat="18.28911333571501" lon="109.49465333325028">
    <ele>13.27</ele>
   </trkpt>
   <trkpt lat="18.28911" lon="109.49533000000001">
    <ele>13.64</ele>
   </trkpt>
   <trkpt lat="18.28910000068952" lon="109.49584500003556">
    <ele>13.540000000000001</ele>
   </trkpt>
   <trkpt lat="18.28909" lon="109.49636000000001">
    <ele>13.760000000000002</ele>
   </trkpt>
   <trkpt lat="18.289050000000003" lon="109.49682000000001">
    <ele>14.090000000000002</ele>
   </trkpt>
   <trkpt lat="18.288990000000002" lon="109.49709000000001">
    <ele>14.15</ele>
   </trkpt>
   <trkpt lat="18.288990000000002" lon="109.4971">
    <ele>14.15</ele>
   </trkpt>
   <trkpt lat="18.28893" lon="109.49742">
    <ele>14.24</ele>
   </trkpt>
   <trkpt lat="18.28884" lon="109.49767000000001">
    <ele>14.22</ele>
   </trkpt>
   <trkpt lat="18.288600000000002" lon="109.49817000000002">
    <ele>14.24</ele>
   </trkpt>
   <trkpt lat="18.288240000000002" lon="109.49866000000002">
    <ele>14.39</ele>
   </trkpt>
   <trkpt lat="18.288030000000003" lon="109.49891000000001">
    <ele>13.580000000000002</ele>
   </trkpt>
   <trkpt lat="18.287750000000003" lon="109.49919000000001">
    <ele>12.950000000000001</ele>
   </trkpt>
   <trkpt lat="18.287300000000002" lon="109.49956">
    <ele>12.15</ele>
   </trkpt>
   <trkpt lat="18.2865925019958" lon="109.50006750622185">
    <ele>11.850000000000001</ele>
   </trkpt>
   <trkpt lat="18.285885002652343" lon="109.5005750083019">
    <ele>12.24</ele>
   </trkpt>
   <trkpt lat="18.285177501969702" lon="109.50108250624032">
    <ele>13.32</ele>
   </trkpt>
   <trkpt lat="18.284470000000002" lon="109.50159000000001">
    <ele>14.730000000000002</ele>
   </trkpt>
   <trkpt lat="18.283925000606352" lon="109.50208500158351">
    <ele>15.150000000000002</ele>
   </trkpt>
   <trkpt lat="18.28338" lon="109.50258000000001">
    <ele>14.16</ele>
   </trkpt>
   <trkpt lat="18.282753009194963" lon="109.50320702040185">
    <ele>11.28</ele>
   </trkpt>
   <trkpt lat="18.282126016346" lon="109.5038340362698">
    <ele>8.990000000000002</ele>
   </trkpt>
   <trkpt lat="18.281499021453204" lon="109.50446104760407">
    <ele>6.750000000000001</ele>
   </trkpt>
   <trkpt lat="18.280872024516654" lon="109.50508805440484">
    <ele>6.7</ele>
   </trkpt>
   <trkpt lat="18.280245025536445" lon="109.50571505667229">
    <ele>6.1000000000000005</ele>
   </trkpt>
   <trkpt lat="18.279618024512672" lon="109.50634205440662">
    <ele>6.1000000000000005</ele>
   </trkpt>
   <trkpt lat="18.278991021445425" lon="109.506969047608">
    <ele>6.410000000000001</ele>
   </trkpt>
   <trkpt lat="18.278364016334784" lon="109.50759603627661">
    <ele>5.890000000000001</ele>
   </trkpt>
   <trkpt lat="18.27773700918085" lon="109.50822302041266">
    <ele>4.3100000000000005</ele>
   </trkpt>
   <trkpt lat="18.27711" lon="109.50885000000001">
    <ele>6.640000000000001</ele>
   </trkpt>
   <trkpt lat="18.27644000308307" lon="109.5094800073094">
    <ele>5.140000000000001</ele>
   </trkpt>
   <trkpt lat="18.275770004103304" lon="109.51011000975268">
    <ele>5.0600000000000005</ele>
   </trkpt>
   <trkpt lat="18.2751000030608" lon="109.51074000733004">
    <ele>4.87</ele>
   </trkpt>
   <trkpt lat="18.274430000000002" lon="109.51137000000001">
    <ele>5.55</ele>
   </trkpt>
   <trkpt lat="18.27392250175256" lon="109.5118425041345">
    <ele>5.04</ele>
   </trkpt>
   <trkpt lat="18.273415002344922" lon="109.51231500550497">
    <ele>4.800000000000001</ele>
   </trkpt>
   <trkpt lat="18.272907501777112" lon="109.5127875041115">
    <ele>4.94</ele>
   </trkpt>
   <trkpt lat="18.2724" lon="109.51326">
    <ele>4.760000000000001</ele>
   </trkpt>
   <trkpt lat="18.272040000274306" lon="109.51354500054117">
    <ele>4.5200000000000005</ele>
   </trkpt>
   <trkpt lat="18.27168" lon="109.51383000000001">
    <ele>4.81</ele>
   </trkpt>
   <trkpt lat="18.271133333924556" lon="109.5141966690487">
    <ele>6.640000000000001</ele>
   </trkpt>
   <trkpt lat="18.27058666715054" lon="109.51456333578734">
    <ele>7.0</ele>
   </trkpt>
   <trkpt lat="18.27004" lon="109.51493">
    <ele>5.66</ele>
   </trkpt>
   <trkpt lat="18.26949" lon="109.51525000000001">
    <ele>4.48</ele>
   </trkpt>
   <trkpt lat="18.26874" lon="109.51561000000001">
    <ele>4.99</ele>
   </trkpt>
   <trkpt lat="18.2682" lon="109.51580000000001">
    <ele>6.57</ele>
   </trkpt>
   <trkpt lat="18.26752" lon="109.51601000000001">
    <ele>7.83</ele>
   </trkpt>
   <trkpt lat="18.26727" lon="109.51607000000001">
    <ele>8.110000000000001</ele>
   </trkpt>
   <trkpt lat="18.2665" lon="109.51621000000002">
    <ele>10.350000000000001</ele>
   </trkpt>
   <trkpt lat="18.26585" lon="109.51627">
    <ele>11.690000000000001</ele>
   </trkpt>
   <trkpt lat="18.265002000038397" lon="109.51632400105457">
    <ele>12.75</ele>
   </trkpt>
   <trkpt lat="18.264154000061648" lon="109.51637800158153">
    <ele>12.4</ele>
   </trkpt>
   <trkpt lat="18.26330600006975" lon="109.51643200158098">
    <ele>12.15</ele>
   </trkpt>
   <trkpt lat="18.262458000062704" lon="109.51648600105295">
    <ele>13.06</ele>
   </trkpt>
   <trkpt lat="18.26161" lon="109.51654">
    <ele>13.44</ele>
   </trkpt>
   <trkpt lat="18.261560000000003" lon="109.51652000000001">
    <ele>13.44</ele>
   </trkpt>
   <trkpt lat="18.260869999967465" lon="109.5165550001409">
    <ele>13.71</ele>
   </trkpt>
   <trkpt lat="18.260180000000002" lon="109.51659000000001">
    <ele>12.85</ele>
   </trkpt>
   <trkpt lat="18.259344999867515" lon="109.51660000004969">
    <ele>11.23</ele>
   </trkpt>
   <trkpt lat="18.25851" lon="109.51661000000001">
    <ele>9.420000000000002</ele>
   </trkpt>
   <trkpt lat="18.2585" lon="109.51661000000001">
    <ele>9.420000000000002</ele>
   </trkpt>
   <trkpt lat="18.25770250001946" lon="109.51662750024069">
    <ele>7.73</ele>
   </trkpt>
   <trkpt lat="18.256905000037328" lon="109.51664500032066">
    <ele>6.73</ele>
   </trkpt>
   <trkpt lat="18.25610750005361" lon="109.51666250023995">
    <ele>6.220000000000001</ele>
   </trkpt>
   <trkpt lat="18.25531" lon="109.51668000000001">
    <ele>6.72</ele>
   </trkpt>
   <trkpt lat="18.254478333376557" lon="109.51673500131629">
    <ele>6.220000000000001</ele>
   </trkpt>
   <trkpt lat="18.2536466667374" lon="109.5167900021059">
    <ele>6.280000000000001</ele>
   </trkpt>
   <trkpt lat="18.252815000082546" lon="109.5168450023689">
    <ele>6.180000000000001</ele>
   </trkpt>
   <trkpt lat="18.251983333411978" lon="109.5169000021053">
    <ele>6.050000000000001</ele>
   </trkpt>
   <trkpt lat="18.251151666725715" lon="109.51695500131513">
    <ele>5.930000000000001</ele>
   </trkpt>
   <trkpt lat="18.250320000000002" lon="109.51701000000001">
    <ele>5.83</ele>
   </trkpt>
   <trkpt lat="18.249864999841463" lon="109.5169949999555">
    <ele>5.83</ele>
   </trkpt>
   <trkpt lat="18.24941" lon="109.51698">
    <ele>5.69</ele>
   </trkpt>
   <trkpt lat="18.24876" lon="109.5169">
    <ele>5.540000000000001</ele>
   </trkpt>
   <trkpt lat="18.248240000000003" lon="109.5168">
    <ele>5.5</ele>
   </trkpt>
   <trkpt lat="18.247760000000003" lon="109.51668000000001">
    <ele>5.42</ele>
   </trkpt>
   <trkpt lat="18.246905000747592" lon="109.51643999409664">
    <ele>5.46</ele>
   </trkpt>
   <trkpt lat="18.246050001196217" lon="109.51619999055484">
    <ele>4.57</ele>
   </trkpt>
   <trkpt lat="18.245195001345902" lon="109.51595998937445">
    <ele>4.12</ele>
   </trkpt>
   <trkpt lat="18.244340001196665" lon="109.51571999055534">
    <ele>4.109999999999999</ele>
   </trkpt>
   <trkpt lat="18.243485000748528" lon="109.51547999409739">
    <ele>4.87</ele>
   </trkpt>
   <trkpt lat="18.242630000000002" lon="109.51524">
    <ele>5.48</ele>
   </trkpt>
   <trkpt lat="18.242050000000003" lon="109.51515">
    <ele>5.72</ele>
   </trkpt>
   <trkpt lat="18.241680000000002" lon="109.51515">
    <ele>5.960000000000001</ele>
   </trkpt>
   <trkpt lat="18.24137" lon="109.51517000000001">
    <ele>5.970000000000001</ele>
   </trkpt>
   <trkpt lat="18.24062" lon="109.51530000000001">
    <ele>5.94</ele>
   </trkpt>
   <trkpt lat="18.24004" lon="109.51548000000001">
    <ele>6.0</ele>
   </trkpt>
   <trkpt lat="18.239479999954625" lon="109.51563000051095">
    <ele>5.960000000000001</ele>
   </trkpt>
   <trkpt lat="18.23892" lon="109.51578">
    <ele>5.960000000000001</ele>
   </trkpt>
   <trkpt lat="18.23883" lon="109.51582">
    <ele>6.04</ele>
   </trkpt>
   <trkpt lat="18.23816000016714" lon="109.51600666810901">
    <ele>5.94</ele>
   </trkpt>
   <trkpt lat="18.237490000153507" lon="109.51619333477947">
    <ele>5.66</ele>
   </trkpt>
   <trkpt lat="18.23682" lon="109.51638000000001">
    <ele>5.410000000000001</ele>
   </trkpt>
   <trkpt lat="18.23646" lon="109.51641000000001">
    <ele>5.44</ele>
   </trkpt>
   <trkpt lat="18.236150000000002" lon="109.5164">
    <ele>5.3100000000000005</ele>
   </trkpt>
   <trkpt lat="18.23589" lon="109.51637000000001">
    <ele>5.16</ele>
   </trkpt>
   <trkpt lat="18.235390000000002" lon="109.51621000000002">
    <ele>5.0200000000000005</ele>
   </trkpt>
   <trkpt lat="18.235190000000003" lon="109.51612000000002">
    <ele>5.03</ele>
   </trkpt>
   <trkpt lat="18.23497" lon="109.51599">
    <ele>4.91</ele>
   </trkpt>
   <trkpt lat="18.234740000000002" lon="109.51581">
    <ele>4.91</ele>
   </trkpt>
   <trkpt lat="18.23458" lon="109.51563000000002">
    <ele>4.9</ele>
   </trkpt>
   <trkpt lat="18.234430000000003" lon="109.51538000000001">
    <ele>4.9</ele>
   </trkpt>
   <trkpt lat="18.234225000773865" lon="109.51482999932311">
    <ele>5.6000000000000005</ele>
   </trkpt>
   <trkpt lat="18.23402" lon="109.51428000000001">
    <ele>6.930000000000001</ele>
   </trkpt>
   <trkpt lat="18.23393" lon="109.51409000000001">
    <ele>7.07</ele>
   </trkpt>
   <trkpt lat="18.233800000000002" lon="109.51389">
    <ele>6.33</ele>
   </trkpt>
   <trkpt lat="18.233710000000002" lon="109.5138">
    <ele>6.33</ele>
   </trkpt>
   <trkpt lat="18.233520000000002" lon="109.51367">
    <ele>6.890000000000001</ele>
   </trkpt>
   <trkpt lat="18.233040000000003" lon="109.51358">
    <ele>6.74</ele>
   </trkpt>
   <trkpt lat="18.232680000000002" lon="109.51358">
    <ele>6.72</ele>
   </trkpt>
   <trkpt lat="18.23225" lon="109.51364000000001">
    <ele>6.69</ele>
   </trkpt>
   <trkpt lat="18.23152" lon="109.5139">
    <ele>5.9799999999999995</ele>
   </trkpt>
   <trkpt lat="18.23122" lon="109.51398">
    <ele>5.91</ele>
   </trkpt>
   <trkpt lat="18.23044" lon="109.51412">
    <ele>6.55</ele>
   </trkpt>
   <trkpt lat="18.22992" lon="109.51417000000001">
    <ele>8.530000000000001</ele>
   </trkpt>
   <trkpt lat="18.22953" lon="109.51416">
    <ele>9.330000000000002</ele>
   </trkpt>
   <trkpt lat="18.22907" lon="109.51404000000001">
    <ele>11.0</ele>
   </trkpt>
   <trkpt lat="18.22898" lon="109.51397000000001">
    <ele>10.780000000000001</ele>
   </trkpt>
   <trkpt lat="18.228830000000002" lon="109.51379000000001">
    <ele>10.26</ele>
   </trkpt>
   <trkpt lat="18.228820000000002" lon="109.51361000000001">
    <ele>9.160000000000002</ele>
   </trkpt>
   <trkpt lat="18.22876" lon="109.51333000000001">
    <ele>8.51</ele>
   </trkpt>
   <trkpt lat="18.2286" lon="109.51302000000001">
    <ele>7.91</ele>
   </trkpt>
   <trkpt lat="18.22848" lon="109.51289000000001">
    <ele>7.680000000000001</ele>
   </trkpt>
   <trkpt lat="18.227915000567968" lon="109.51246999871829">
    <ele>7.800000000000001</ele>
   </trkpt>
   <trkpt lat="18.22735" lon="109.51205">
    <ele>7.640000000000001</ele>
   </trkpt>
   <trkpt lat="18.227030000000003" lon="109.51172000000001">
    <ele>7.53</ele>
   </trkpt>
   <trkpt lat="18.226850000000002" lon="109.51151000000002">
    <ele>7.450000000000001</ele>
   </trkpt>
   <trkpt lat="18.226550000000003" lon="109.51088000000001">
    <ele>7.21</ele>
   </trkpt>
   <trkpt lat="18.226370000000003" lon="109.51">
    <ele>6.5600000000000005</ele>
   </trkpt>
   <trkpt lat="18.22623" lon="109.50915">
    <ele>6.9</ele>
   </trkpt>
   <trkpt lat="18.226100000754847" lon="109.5085999994648">
    <ele>7.1000000000000005</ele>
   </trkpt>
   <trkpt lat="18.22597" lon="109.50805000000001">
    <ele>7.490000000000001</ele>
   </trkpt>
   <trkpt lat="18.22598" lon="109.50782000000001">
    <ele>7.51</ele>
   </trkpt>
   <trkpt lat="18.226020000000002" lon="109.50749">
    <ele>7.12</ele>
   </trkpt>
   <trkpt lat="18.22622" lon="109.50675000000001">
    <ele>6.760000000000001</ele>
   </trkpt>
   <trkpt lat="18.226270000000003" lon="109.50648000000001">
    <ele>6.73</ele>
   </trkpt>
   <trkpt lat="18.22631" lon="109.50592">
    <ele>6.760000000000001</ele>
   </trkpt>
   <trkpt lat="18.22632" lon="109.50502000000002">
    <ele>6.36</ele>
   </trkpt>
   <trkpt lat="18.22635" lon="109.50471">
    <ele>6.34</ele>
   </trkpt>
   <trkpt lat="18.226470000000003" lon="109.50444">
    <ele>6.48</ele>
   </trkpt>
   <trkpt lat="18.226570000000002" lon="109.50431">
    <ele>6.760000000000001</ele>
   </trkpt>
   <trkpt lat="18.227145000282132" lon="109.50391500138947">
    <ele>8.780000000000001</ele>
   </trkpt>
   <trkpt lat="18.22772" lon="109.50352000000001">
    <ele>9.860000000000001</ele>
   </trkpt>
   <trkpt lat="18.22831" lon="109.50308000000001">
    <ele>10.910000000000002</ele>
   </trkpt>
   <trkpt lat="18.229026001705076" lon="109.5026740066867">
    <ele>8.83</ele>
   </trkpt>
   <trkpt lat="18.229742002555394" lon="109.50226801003149">
    <ele>6.0600000000000005</ele>
   </trkpt>
   <trkpt lat="18.230458002550897" lon="109.50186201003423">
    <ele>6.33</ele>
   </trkpt>
   <trkpt lat="18.231174001691553" lon="109.50145600669474">
    <ele>7.180000000000001</ele>
   </trkpt>
   <trkpt lat="18.23189" lon="109.50105">
    <ele>8.26</ele>
   </trkpt>
   <trkpt lat="18.23215" lon="109.50084000000001">
    <ele>8.43</ele>
   </trkpt>
   <trkpt lat="18.232660000000003" lon="109.50011">
    <ele>8.200000000000001</ele>
   </trkpt>
   <trkpt lat="18.232840000000003" lon="109.49971000000001">
    <ele>7.99</ele>
   </trkpt>
   <trkpt lat="18.232930000000003" lon="109.49940000000001">
    <ele>7.59</ele>
   </trkpt>
   <trkpt lat="18.233043335805437" lon="109.4987100008826">
    <ele>7.21</ele>
   </trkpt>
   <trkpt lat="18.23315666914151" lon="109.49802000086595">
    <ele>6.800000000000001</ele>
   </trkpt>
   <trkpt lat="18.23327" lon="109.49733">
    <ele>6.960000000000001</ele>
   </trkpt>
   <trkpt lat="18.23335" lon="109.49674">
    <ele>7.03</ele>
   </trkpt>
   <trkpt lat="18.233310000000003" lon="109.49639">
    <ele>7.08</ele>
   </trkpt>
   <trkpt lat="18.233210000000003" lon="109.49598">
    <ele>6.920000000000001</ele>
   </trkpt>
   <trkpt lat="18.23301" lon="109.49552000000001">
    <ele>6.800000000000001</ele>
   </trkpt>
   <trkpt lat="18.2326900008694" lon="109.4949299988531">
    <ele>6.95</ele>
   </trkpt>
   <trkpt lat="18.232370000000003" lon="109.49434000000001">
    <ele>7.280000000000001</ele>
   </trkpt>
   <trkpt lat="18.23197" lon="109.49365">
    <ele>8.200000000000001</ele>
   </trkpt>
   <trkpt lat="18.231700000613596" lon="109.49320999949883">
    <ele>8.34</ele>
   </trkpt>
   <trkpt lat="18.231430000000003" lon="109.49277000000001">
    <ele>8.21</ele>
   </trkpt>
   <trkpt lat="18.230966667983004" lon="109.49225666387636">
    <ele>7.630000000000001</ele>
   </trkpt>
   <trkpt lat="18.23050333459939" lon="109.49174333048737">
    <ele>7.5200000000000005</ele>
   </trkpt>
   <trkpt lat="18.230040000000002" lon="109.49123000000002">
    <ele>7.490000000000001</ele>
   </trkpt>
   <trkpt lat="18.229740000000003" lon="109.49074">
    <ele>7.490000000000001</ele>
   </trkpt>
   <trkpt lat="18.229390000000002" lon="109.49007">
    <ele>7.840000000000002</ele>
   </trkpt>
   <trkpt lat="18.229280000000003" lon="109.4899">
    <ele>7.8900000000000015</ele>
   </trkpt>
   <trkpt lat="18.22914" lon="109.48978000000001">
    <ele>7.94</ele>
   </trkpt>
   <trkpt lat="18.228830000000002" lon="109.48967">
    <ele>8.06</ele>
   </trkpt>
   <trkpt lat="18.22832" lon="109.48961000000001">
    <ele>7.99</ele>
   </trkpt>
   <trkpt lat="18.22803" lon="109.48964000000001">
    <ele>8.09</ele>
   </trkpt>
   <trkpt lat="18.227580000000003" lon="109.48976">
    <ele>8.120000000000001</ele>
   </trkpt>
   <trkpt lat="18.227110000000003" lon="109.49003">
    <ele>8.38</ele>
   </trkpt>
   <trkpt lat="18.22641" lon="109.49052">
    <ele>8.990000000000002</ele>
   </trkpt>
   <trkpt lat="18.226210000000002" lon="109.49071">
    <ele>9.9</ele>
   </trkpt>
   <trkpt lat="18.22575" lon="109.49139000000001">
    <ele>13.99</ele>
   </trkpt>
   <trkpt lat="18.22559" lon="109.49176000000001">
    <ele>15.330000000000002</ele>
   </trkpt>
   <trkpt lat="18.225343337346878" lon="109.49264000250037">
    <ele>18.85</ele>
   </trkpt>
   <trkpt lat="18.22509667067866" lon="109.49352000250585">
    <ele>19.57</ele>
   </trkpt>
   <trkpt lat="18.22485" lon="109.49440000000001">
    <ele>17.150000000000002</ele>
   </trkpt>
   <trkpt lat="18.224580000000003" lon="109.49489000000001">
    <ele>15.360000000000001</ele>
   </trkpt>
   <trkpt lat="18.22445" lon="109.49508000000002">
    <ele>14.5</ele>
   </trkpt>
   <trkpt lat="18.224220000000003" lon="109.49533000000001">
    <ele>14.040000000000001</ele>
   </trkpt>
   <trkpt lat="18.223940000000002" lon="109.49554">
    <ele>12.97</ele>
   </trkpt>
   <trkpt lat="18.2235" lon="109.49577000000001">
    <ele>11.9</ele>
   </trkpt>
   <trkpt lat="18.222990000000003" lon="109.49588000000001">
    <ele>11.4</ele>
   </trkpt>
   <trkpt lat="18.222170000000002" lon="109.49592000000001">
    <ele>10.71</ele>
   </trkpt>
   <trkpt lat="18.221334999986436" lon="109.49593500007225">
    <ele>10.17</ele>
   </trkpt>
   <trkpt lat="18.2205" lon="109.49595000000001">
    <ele>9.53</ele>
   </trkpt>
   <trkpt lat="18.21991499992962" lon="109.49595000000001">
    <ele>8.76</ele>
   </trkpt>
   <trkpt lat="18.219330000000003" lon="109.49595000000001">
    <ele>8.450000000000001</ele>
   </trkpt>
   <trkpt lat="18.21902" lon="109.4959">
    <ele>8.08</ele>
   </trkpt>
   <trkpt lat="18.21901" lon="109.4959">
    <ele>8.07</ele>
   </trkpt>
   <trkpt lat="18.21865" lon="109.49585">
    <ele>7.660000000000001</ele>
   </trkpt>
   <trkpt lat="18.21809" lon="109.49564000000001">
    <ele>7.6000000000000005</ele>
   </trkpt>
   <trkpt lat="18.21742" lon="109.49528000000001">
    <ele>8.049999999999999</ele>
   </trkpt>
   <trkpt lat="18.21721" lon="109.49579000000001">
    <ele>7.5</ele>
   </trkpt>
   <trkpt lat="18.21716" lon="109.49599">
    <ele>7.53</ele>
   </trkpt>
   <trkpt lat="18.21714" lon="109.49654000000001">
    <ele>7.92</ele>
   </trkpt>
   <trkpt lat="18.217170000000003" lon="109.49681000000001">
    <ele>8.57</ele>
   </trkpt>
   <trkpt lat="18.217170000000003" lon="109.49680000000001">
    <ele>8.540000000000001</ele>
   </trkpt>
   <trkpt lat="18.21724" lon="109.49734000000001">
    <ele>10.730000000000002</ele>
   </trkpt>
   <trkpt lat="18.217270000000003" lon="109.49746">
    <ele>11.09</ele>
   </trkpt>
   <trkpt lat="18.21716" lon="109.49744000000001">
    <ele>10.89</ele>
   </trkpt>
   <trkpt lat="18.216540000000002" lon="109.49746">
    <ele>9.760000000000002</ele>
   </trkpt>
   <trkpt lat="18.215715000133592" lon="109.49757000050761">
    <ele>9.35</ele>
   </trkpt>
   <trkpt lat="18.21489" lon="109.49768">
    <ele>9.05</ele>
   </trkpt>
   <trkpt lat="18.21441999984782" lon="109.49774500019801">
    <ele>8.75</ele>
   </trkpt>
   <trkpt lat="18.21395" lon="109.49781000000002">
    <ele>8.57</ele>
   </trkpt>
   <trkpt lat="18.21376" lon="109.4971">
    <ele>8.540000000000001</ele>
   </trkpt>
  </trkseg>
 </trk>
</gpx>
