<?xml version="1.0" encoding="UTF-8"?>
<gpx creator="StravaGPX" version="1.1" xmlns="http://www.topografix.com/GPX/1/1" xmlns:xsi="http://www.w3.org/2001/XMLSchema-instance" xsi:schemaLocation="http://www.topografix.com/GPX/1/1 http://www.topografix.com/GPX/1/1/gpx.xsd">
 <metadata>
  <name>Hainan: Caofeng</name>
  <author>
   <name>Vladimir Sumarokov 🇰🇿🇷🇺🇹🇭</name>
   <link href="https://www.strava.com/athletes/16069938"/>
  </author>
  <copyright author="OpenStreetMap contributors">
   <year>2020</year>
   <license>https://www.openstreetmap.org/copyright</license>
  </copyright>
  <link href="https://www.strava.com/routes/3292918823305678982"/>
 </metadata>
 <trk>
  <name>Hainan: Caofeng</name>
  <link href="https://www.strava.com/routes/3292918823305678982"/>
  <type>cycling</type>
  <trkseg>
   <trkpt lat="18.213700000000003" lon="109.49690000000001">
    <ele>8.55</ele>
   </trkpt>
   <trkpt lat="18.213825000541945" lon="109.49735499969357">
    <ele>8.530000000000001</ele>
   </trkpt>
   <trkpt lat="18.21395" lon="109.49781000000002">
    <ele>8.57</ele>
   </trkpt>
   <trkpt lat="18.214420000174073" lon="109.49774500015292">
    <ele>8.75</ele>
   </trkpt>
   <trkpt lat="18.21489" lon="109.49768">
    <ele>9.05</ele>
   </trkpt>
   <trkpt lat="18.215714999929112" lon="109.49757000053485">
    <ele>9.35</ele>
   </trkpt>
   <trkpt lat="18.216540000000002" lon="109.49746">
    <ele>9.760000000000002</ele>
   </trkpt>
   <trkpt lat="18.21716" lon="109.49744000000001">
    <ele>10.89</ele>
   </trkpt>
   <trkpt lat="18.21791" lon="109.49758000000001">
    <ele>12.610000000000001</ele>
   </trkpt>
   <trkpt lat="18.21855" lon="109.49783000000001">
    <ele>16.94</ele>
   </trkpt>
   <trkpt lat="18.219130000376722" lon="109.49819499880363">
    <ele>22.78</ele>
   </trkpt>
   <trkpt lat="18.219710000000003" lon="109.49856000000001">
    <ele>28.41</ele>
   </trkpt>
   <trkpt lat="18.220060000201627" lon="109.49888999926044">
    <ele>32.81</ele>
   </trkpt>
   <trkpt lat="18.22041" lon="109.49922000000001">
    <ele>35.93</ele>
   </trkpt>
   <trkpt lat="18.220880001230654" lon="109.49971666393353">
    <ele>40.150000000000006</ele>
   </trkpt>
   <trkpt lat="18.221350001182614" lon="109.5002133305494">
    <ele>45.95</ele>
   </trkpt>
   <trkpt lat="18.22182" lon="109.50071000000001">
    <ele>50.440000000000005</ele>
   </trkpt>
   <trkpt lat="18.22204" lon="109.50112000000001">
    <ele>53.21000000000001</ele>
   </trkpt>
   <trkpt lat="18.222150000000003" lon="109.50144">
    <ele>55.17</ele>
   </trkpt>
   <trkpt lat="18.2222" lon="109.50181">
    <ele>56.120000000000005</ele>
   </trkpt>
   <trkpt lat="18.2222" lon="109.50198">
    <ele>56.39</ele>
   </trkpt>
   <trkpt lat="18.222160000000002" lon="109.50212">
    <ele>56.45</ele>
   </trkpt>
   <trkpt lat="18.221785001270444" lon="109.50282500155252">
    <ele>55.870000000000005</ele>
   </trkpt>
   <trkpt lat="18.221410000000002" lon="109.50353000000001">
    <ele>55.580000000000005</ele>
   </trkpt>
   <trkpt lat="18.221070000721493" lon="109.50406000104557">
    <ele>55.31</ele>
   </trkpt>
   <trkpt lat="18.220730000000003" lon="109.50459000000001">
    <ele>54.64</ele>
   </trkpt>
   <trkpt lat="18.22058" lon="109.50496000000001">
    <ele>54.1</ele>
   </trkpt>
   <trkpt lat="18.22052" lon="109.50535">
    <ele>53.45</ele>
   </trkpt>
   <trkpt lat="18.22052" lon="109.50564000000001">
    <ele>52.61</ele>
   </trkpt>
   <trkpt lat="18.220550000000003" lon="109.50596000000002">
    <ele>52.02</ele>
   </trkpt>
   <trkpt lat="18.220650000000003" lon="109.50623">
    <ele>50.92000000000001</ele>
   </trkpt>
   <trkpt lat="18.2208" lon="109.50649000000001">
    <ele>50.68</ele>
   </trkpt>
   <trkpt lat="18.221210000000003" lon="109.50699000000002">
    <ele>48.43</ele>
   </trkpt>
   <trkpt lat="18.221330000000002" lon="109.50720000000001">
    <ele>47.550000000000004</ele>
   </trkpt>
   <trkpt lat="18.22136" lon="109.5074">
    <ele>46.77</ele>
   </trkpt>
   <trkpt lat="18.22137" lon="109.50803">
    <ele>44.14000000000001</ele>
   </trkpt>
   <trkpt lat="18.221500000000002" lon="109.50839">
    <ele>42.9</ele>
   </trkpt>
   <trkpt lat="18.22192" lon="109.50893">
    <ele>40.63</ele>
   </trkpt>
   <trkpt lat="18.222320000392127" lon="109.50935999891806">
    <ele>39.05</ele>
   </trkpt>
   <trkpt lat="18.222720000000002" lon="109.50979000000001">
    <ele>36.36</ele>
   </trkpt>
   <trkpt lat="18.223200000000002" lon="109.51051000000001">
    <ele>32.910000000000004</ele>
   </trkpt>
   <trkpt lat="18.223705000215794" lon="109.51081999907996">
    <ele>29.7</ele>
   </trkpt>
   <trkpt lat="18.224210000000003" lon="109.51113000000001">
    <ele>26.950000000000003</ele>
   </trkpt>
   <trkpt lat="18.22436" lon="109.51127000000001">
    <ele>26.0</ele>
   </trkpt>
   <trkpt lat="18.22448" lon="109.51143">
    <ele>24.37</ele>
   </trkpt>
   <trkpt lat="18.224783336308494" lon="109.51218999730152">
    <ele>21.16</ele>
   </trkpt>
   <trkpt lat="18.22508666962235" lon="109.51294999725265">
    <ele>17.6</ele>
   </trkpt>
   <trkpt lat="18.22539" lon="109.51371">
    <ele>16.360000000000003</ele>
   </trkpt>
   <trkpt lat="18.22576" lon="109.51427000000001">
    <ele>15.690000000000003</ele>
   </trkpt>
   <trkpt lat="18.226265000620863" lon="109.51473999868077">
    <ele>15.620000000000001</ele>
   </trkpt>
   <trkpt lat="18.226770000000002" lon="109.51521000000001">
    <ele>16.0</ele>
   </trkpt>
   <trkpt lat="18.226940000000003" lon="109.51532">
    <ele>16.23</ele>
   </trkpt>
   <trkpt lat="18.227359999970552" lon="109.51552499943759">
    <ele>16.900000000000002</ele>
   </trkpt>
   <trkpt lat="18.227780000000003" lon="109.51573">
    <ele>17.41</ele>
   </trkpt>
   <trkpt lat="18.227690000000003" lon="109.51589000000001">
    <ele>16.93</ele>
   </trkpt>
   <trkpt lat="18.227386668988718" lon="109.5165566689528">
    <ele>14.83</ele>
   </trkpt>
   <trkpt lat="18.22708333567286" lon="109.51722333558101">
    <ele>13.520000000000001</ele>
   </trkpt>
   <trkpt lat="18.22678" lon="109.51789000000001">
    <ele>13.01</ele>
   </trkpt>
   <trkpt lat="18.226380001825778" lon="109.51871500177027">
    <ele>13.1</ele>
   </trkpt>
   <trkpt lat="18.22598" lon="109.51954">
    <ele>13.500000000000002</ele>
   </trkpt>
   <trkpt lat="18.22594" lon="109.51967">
    <ele>13.64</ele>
   </trkpt>
   <trkpt lat="18.225645001094676" lon="109.52032500114943">
    <ele>13.82</ele>
   </trkpt>
   <trkpt lat="18.225350000000002" lon="109.52098000000001">
    <ele>14.120000000000001</ele>
   </trkpt>
   <trkpt lat="18.22523" lon="109.52136000000002">
    <ele>14.430000000000001</ele>
   </trkpt>
   <trkpt lat="18.22521" lon="109.52168">
    <ele>14.46</ele>
   </trkpt>
   <trkpt lat="18.22521000485369" lon="109.52247000004306">
    <ele>14.88</ele>
   </trkpt>
   <trkpt lat="18.225210006471592" lon="109.52326000008614">
    <ele>14.92</ele>
   </trkpt>
   <trkpt lat="18.22521000485369" lon="109.52405000012924">
    <ele>14.96</ele>
   </trkpt>
   <trkpt lat="18.22521" lon="109.52484000000001">
    <ele>14.51</ele>
   </trkpt>
   <trkpt lat="18.225250000000003" lon="109.52517">
    <ele>13.840000000000002</ele>
   </trkpt>
   <trkpt lat="18.225330000000003" lon="109.52538000000001">
    <ele>13.840000000000002</ele>
   </trkpt>
   <trkpt lat="18.225440000000003" lon="109.52556000000001">
    <ele>13.56</ele>
   </trkpt>
   <trkpt lat="18.22556" lon="109.52571">
    <ele>13.510000000000002</ele>
   </trkpt>
   <trkpt lat="18.22612125708462" lon="109.52633498588213">
    <ele>12.34</ele>
   </trkpt>
   <trkpt lat="18.22668251214394" lon="109.52695997579623">
    <ele>11.64</ele>
   </trkpt>
   <trkpt lat="18.22724376517789" lon="109.52758496974242">
    <ele>10.64</ele>
   </trkpt>
   <trkpt lat="18.22780501618638" lon="109.52820996772088">
    <ele>9.83</ele>
   </trkpt>
   <trkpt lat="18.22836626516933" lon="109.52883496973173">
    <ele>9.170000000000002</ele>
   </trkpt>
   <trkpt lat="18.22892751212667" lon="109.52945997577514">
    <ele>8.860000000000001</ele>
   </trkpt>
   <trkpt lat="18.229488757058316" lon="109.53008498585122">
    <ele>8.56</ele>
   </trkpt>
   <trkpt lat="18.230050000000002" lon="109.53071000000001">
    <ele>8.42</ele>
   </trkpt>
   <trkpt lat="18.230640002349492" lon="109.5313799954794">
    <ele>8.270000000000001</ele>
   </trkpt>
   <trkpt lat="18.231230002370967" lon="109.5320499955037">
    <ele>7.96</ele>
   </trkpt>
   <trkpt lat="18.231820000000003" lon="109.53272000000001">
    <ele>7.99</ele>
   </trkpt>
   <trkpt lat="18.23194" lon="109.53293000000001">
    <ele>7.99</ele>
   </trkpt>
   <trkpt lat="18.23214" lon="109.53341">
    <ele>8.280000000000001</ele>
   </trkpt>
   <trkpt lat="18.23241" lon="109.53410000000001">
    <ele>8.48</ele>
   </trkpt>
   <trkpt lat="18.232670000000002" lon="109.53490000000001">
    <ele>8.74</ele>
   </trkpt>
   <trkpt lat="18.23282" lon="109.53529">
    <ele>8.910000000000002</ele>
   </trkpt>
   <trkpt lat="18.232940000000003" lon="109.53552">
    <ele>9.15</ele>
   </trkpt>
   <trkpt lat="18.23308" lon="109.53572000000001">
    <ele>10.0</ele>
   </trkpt>
   <trkpt lat="18.23335" lon="109.53603000000001">
    <ele>10.84</ele>
   </trkpt>
   <trkpt lat="18.233775000621954" lon="109.53643499919765">
    <ele>12.110000000000001</ele>
   </trkpt>
   <trkpt lat="18.2342" lon="109.53684000000001">
    <ele>12.8</ele>
   </trkpt>
   <trkpt lat="18.234580000436242" lon="109.53716499942868">
    <ele>12.55</ele>
   </trkpt>
   <trkpt lat="18.23496" lon="109.53749">
    <ele>11.45</ele>
   </trkpt>
   <trkpt lat="18.23517" lon="109.53771">
    <ele>11.09</ele>
   </trkpt>
   <trkpt lat="18.23533" lon="109.53794">
    <ele>10.48</ele>
   </trkpt>
   <trkpt lat="18.23546" lon="109.5382">
    <ele>10.370000000000001</ele>
   </trkpt>
   <trkpt lat="18.2357" lon="109.53891000000002">
    <ele>10.110000000000001</ele>
   </trkpt>
   <trkpt lat="18.235947505070623" lon="109.53971749654208">
    <ele>10.85</ele>
   </trkpt>
   <trkpt lat="18.236195006758805" lon="109.54052499538268">
    <ele>11.44</ele>
   </trkpt>
   <trkpt lat="18.236442505064502" lon="109.54133249652189">
    <ele>11.250000000000002</ele>
   </trkpt>
   <trkpt lat="18.236690000000003" lon="109.54214">
    <ele>10.33</ele>
   </trkpt>
   <trkpt lat="18.236810000000002" lon="109.54270000000001">
    <ele>10.200000000000001</ele>
   </trkpt>
   <trkpt lat="18.23686" lon="109.54302000000001">
    <ele>9.82</ele>
   </trkpt>
   <trkpt lat="18.236925001191683" lon="109.54369499985032">
    <ele>9.75</ele>
   </trkpt>
   <trkpt lat="18.236990000000002" lon="109.54437000000001">
    <ele>9.55</ele>
   </trkpt>
   <trkpt lat="18.23704000130725" lon="109.54507999979162">
    <ele>9.510000000000002</ele>
   </trkpt>
   <trkpt lat="18.237090000000002" lon="109.54579000000001">
    <ele>9.89</ele>
   </trkpt>
   <trkpt lat="18.237170000000003" lon="109.54620000000001">
    <ele>9.99</ele>
   </trkpt>
   <trkpt lat="18.237270000000002" lon="109.54653">
    <ele>10.280000000000001</ele>
   </trkpt>
   <trkpt lat="18.23743" lon="109.54689">
    <ele>10.39</ele>
   </trkpt>
   <trkpt lat="18.237630000000003" lon="109.54719000000001">
    <ele>11.240000000000002</ele>
   </trkpt>
   <trkpt lat="18.23806" lon="109.5477">
    <ele>12.950000000000001</ele>
   </trkpt>
   <trkpt lat="18.23863000410179" lon="109.54832799177521">
    <ele>15.18</ele>
   </trkpt>
   <trkpt lat="18.239200006157557" lon="109.54895598766792">
    <ele>16.150000000000002</ele>
   </trkpt>
   <trkpt lat="18.2397700061672" lon="109.54958398767829">
    <ele>15.92</ele>
   </trkpt>
   <trkpt lat="18.24034000413065" lon="109.5502119918065">
    <ele>15.55</ele>
   </trkpt>
   <trkpt lat="18.240910000000003" lon="109.55084000000001">
    <ele>15.150000000000002</ele>
   </trkpt>
   <trkpt lat="18.24114" lon="109.55119">
    <ele>15.320000000000002</ele>
   </trkpt>
   <trkpt lat="18.24154251232596" lon="109.55201373665362">
    <ele>16.009999999999998</ele>
   </trkpt>
   <trkpt lat="18.24194502113112" lon="109.5528374771218">
    <ele>16.560000000000002</ele>
   </trkpt>
   <trkpt lat="18.24234752641539" lon="109.5536612214046">
    <ele>17.18</ele>
   </trkpt>
   <trkpt lat="18.242750028178666" lon="109.55448496950211">
    <ele>16.59</ele>
   </trkpt>
   <trkpt lat="18.243152526420854" lon="109.55530872141439">
    <ele>16.790000000000003</ele>
   </trkpt>
   <trkpt lat="18.24355502114185" lon="109.55613247714153">
    <ele>17.46</ele>
   </trkpt>
   <trkpt lat="18.24395751234156" lon="109.5569562366836">
    <ele>18.37</ele>
   </trkpt>
   <trkpt lat="18.24436" lon="109.55778000000001">
    <ele>17.96</ele>
   </trkpt>
   <trkpt lat="18.244650000830557" lon="109.55833999909818">
    <ele>17.05</ele>
   </trkpt>
   <trkpt lat="18.244940000000003" lon="109.55890000000001">
    <ele>16.73</ele>
   </trkpt>
   <trkpt lat="18.245240000000003" lon="109.55933">
    <ele>15.530000000000001</ele>
   </trkpt>
   <trkpt lat="18.24558" lon="109.55972000000001">
    <ele>14.83</ele>
   </trkpt>
   <trkpt lat="18.24596" lon="109.56005">
    <ele>13.3</ele>
   </trkpt>
   <trkpt lat="18.24641" lon="109.56033000000001">
    <ele>11.950000000000001</ele>
   </trkpt>
   <trkpt lat="18.246930000000003" lon="109.56057000000001">
    <ele>10.51</ele>
   </trkpt>
   <trkpt lat="18.247500000000002" lon="109.56078000000001">
    <ele>9.65</ele>
   </trkpt>
   <trkpt lat="18.248362501610682" lon="109.5610174870312">
    <ele>9.040000000000001</ele>
   </trkpt>
   <trkpt lat="18.249225002928622" lon="109.56125497641987">
    <ele>8.790000000000001</ele>
   </trkpt>
   <trkpt lat="18.2500875039538" lon="109.56149246816624">
    <ele>9.13</ele>
   </trkpt>
   <trkpt lat="18.2509500046862" lon="109.56172996227036">
    <ele>10.06</ele>
   </trkpt>
   <trkpt lat="18.251812505125805" lon="109.56196745873243">
    <ele>10.620000000000001</ele>
   </trkpt>
   <trkpt lat="18.252675005272597" lon="109.56220495755257">
    <ele>10.440000000000001</ele>
   </trkpt>
   <trkpt lat="18.253537505126555" lon="109.5624424587309">
    <ele>11.040000000000001</ele>
   </trkpt>
   <trkpt lat="18.25440000468767" lon="109.56267996226761">
    <ele>12.560000000000002</ele>
   </trkpt>
   <trkpt lat="18.255262503955915" lon="109.56291746816284">
    <ele>14.030000000000001</ele>
   </trkpt>
   <trkpt lat="18.256125002931277" lon="109.5631549764167">
    <ele>14.810000000000002</ele>
   </trkpt>
   <trkpt lat="18.256987501613736" lon="109.56339248702933">
    <ele>14.55</ele>
   </trkpt>
   <trkpt lat="18.25785" lon="109.56363">
    <ele>14.100000000000001</ele>
   </trkpt>
   <trkpt lat="18.25834" lon="109.56380000000001">
    <ele>13.09</ele>
   </trkpt>
   <trkpt lat="18.258849999986413" lon="109.56399999936662">
    <ele>11.770000000000001</ele>
   </trkpt>
   <trkpt lat="18.25936" lon="109.56420000000001">
    <ele>10.3</ele>
   </trkpt>
   <trkpt lat="18.26010750080398" lon="109.56452249583252">
    <ele>9.49</ele>
   </trkpt>
   <trkpt lat="18.26085500106783" lon="109.56484499444146">
    <ele>9.11</ele>
   </trkpt>
   <trkpt lat="18.261602500791536" lon="109.56516749582698">
    <ele>8.950000000000001</ele>
   </trkpt>
   <trkpt lat="18.26235" lon="109.56549000000001">
    <ele>8.4</ele>
   </trkpt>
   <trkpt lat="18.26317571640879" lon="109.56585856091336">
    <ele>8.07</ele>
   </trkpt>
   <trkpt lat="18.264001432112025" lon="109.56622712533236">
    <ele>8.5</ele>
   </trkpt>
   <trkpt lat="18.26482714710967" lon="109.56659569325724">
    <ele>8.790000000000001</ele>
   </trkpt>
   <trkpt lat="18.265652861401684" lon="109.5669642646882">
    <ele>9.1</ele>
   </trkpt>
   <trkpt lat="18.266478574988028" lon="109.56733283962541">
    <ele>9.170000000000002</ele>
   </trkpt>
   <trkpt lat="18.267304287868654" lon="109.56770141806909">
    <ele>9.44</ele>
   </trkpt>
   <trkpt lat="18.268130000000003" lon="109.56807">
    <ele>9.58</ele>
   </trkpt>
   <trkpt lat="18.268918891437032" lon="109.56841998727296">
    <ele>9.540000000000001</ele>
   </trkpt>
   <trkpt lat="18.269707782237663" lon="109.56876997772753">
    <ele>9.22</ele>
   </trkpt>
   <trkpt lat="18.270496672401848" lon="109.56911997136383">
    <ele>8.68</ele>
   </trkpt>
   <trkpt lat="18.271285561929574" lon="109.56946996818212">
    <ele>7.96</ele>
   </trkpt>
   <trkpt lat="18.27207445082079" lon="109.56981996818251">
    <ele>6.99</ele>
   </trkpt>
   <trkpt lat="18.27286333907546" lon="109.57016997136522">
    <ele>7.16</ele>
   </trkpt>
   <trkpt lat="18.273652226693557" lon="109.57051997773038">
    <ele>7.08</ele>
   </trkpt>
   <trkpt lat="18.274441113675042" lon="109.57086998727821">
    <ele>6.69</ele>
   </trkpt>
   <trkpt lat="18.27523" lon="109.57122000000001">
    <ele>6.5</ele>
   </trkpt>
   <trkpt lat="18.2758" lon="109.57152">
    <ele>6.790000000000001</ele>
   </trkpt>
   <trkpt lat="18.27616" lon="109.57182">
    <ele>7.37</ele>
   </trkpt>
   <trkpt lat="18.276320000000002" lon="109.572">
    <ele>7.69</ele>
   </trkpt>
   <trkpt lat="18.27654" lon="109.57231000000002">
    <ele>8.360000000000001</ele>
   </trkpt>
   <trkpt lat="18.276690000000002" lon="109.57263">
    <ele>8.4</ele>
   </trkpt>
   <trkpt lat="18.276970005350975" lon="109.57334799534432">
    <ele>8.75</ele>
   </trkpt>
   <trkpt lat="18.277250008022587" lon="109.57406599300637">
    <ele>9.39</ele>
   </trkpt>
   <trkpt lat="18.277530008014786" lon="109.57478399298621">
    <ele>9.75</ele>
   </trkpt>
   <trkpt lat="18.277810005327513" lon="109.57550199528386">
    <ele>11.240000000000002</ele>
   </trkpt>
   <trkpt lat="18.278090000000002" lon="109.57622">
    <ele>11.959999999999999</ele>
   </trkpt>
   <trkpt lat="18.278270000000003" lon="109.57661">
    <ele>12.600000000000001</ele>
   </trkpt>
   <trkpt lat="18.278450000000003" lon="109.57693">
    <ele>12.870000000000001</ele>
   </trkpt>
   <trkpt lat="18.27867" lon="109.57723000000001">
    <ele>13.31</ele>
   </trkpt>
   <trkpt lat="18.27923667239636" lon="109.5778933225113">
    <ele>14.030000000000001</ele>
   </trkpt>
   <trkpt lat="18.279803342505613" lon="109.57855664935664">
    <ele>14.49</ele>
   </trkpt>
   <trkpt lat="18.280370010327676" lon="109.57921998053621">
    <ele>14.72</ele>
   </trkpt>
   <trkpt lat="18.28093667586245" lon="109.57988331605013">
    <ele>15.110000000000001</ele>
   </trkpt>
   <trkpt lat="18.281503339109854" lon="109.58054665589857">
    <ele>15.47</ele>
   </trkpt>
   <trkpt lat="18.28207" lon="109.58121000000001">
    <ele>15.57</ele>
   </trkpt>
   <trkpt lat="18.28219" lon="109.5814">
    <ele>15.57</ele>
   </trkpt>
   <trkpt lat="18.282610000000002" lon="109.58185">
    <ele>15.520000000000001</ele>
   </trkpt>
   <trkpt lat="18.283050000000003" lon="109.58246000000001">
    <ele>16.37</ele>
   </trkpt>
   <trkpt lat="18.28348" lon="109.58290000000001">
    <ele>16.46</ele>
   </trkpt>
   <trkpt lat="18.28396000339146" lon="109.58347199365383">
    <ele>16.130000000000003</ele>
   </trkpt>
   <trkpt lat="18.28444000508188" lon="109.58404399047424">
    <ele>15.98</ele>
   </trkpt>
   <trkpt lat="18.284920005071193" lon="109.58461599046136">
    <ele>15.65</ele>
   </trkpt>
   <trkpt lat="18.285400003359356" lon="109.58518799361525">
    <ele>15.67</ele>
   </trkpt>
   <trkpt lat="18.285880000000002" lon="109.58576000000001">
    <ele>15.450000000000001</ele>
   </trkpt>
   <trkpt lat="18.286367502403287" lon="109.58631499531941">
    <ele>14.49</ele>
   </trkpt>
   <trkpt lat="18.286855003204945" lon="109.58686999375973">
    <ele>13.63</ele>
   </trkpt>
   <trkpt lat="18.28734250240493" lon="109.58742499532113">
    <ele>13.340000000000002</ele>
   </trkpt>
   <trkpt lat="18.287830000000003" lon="109.58798000000002">
    <ele>12.85</ele>
   </trkpt>
   <trkpt lat="18.288256668003665" lon="109.58847999758221">
    <ele>12.100000000000001</ele>
   </trkpt>
   <trkpt lat="18.288683334707283" lon="109.58897999762546">
    <ele>11.22</ele>
   </trkpt>
   <trkpt lat="18.28911" lon="109.58948000000001">
    <ele>10.450000000000001</ele>
   </trkpt>
   <trkpt lat="18.289622003222078" lon="109.59003599343842">
    <ele>9.45</ele>
   </trkpt>
   <trkpt lat="18.29013400483652" lon="109.59059199016116">
    <ele>9.21</ele>
   </trkpt>
   <trkpt lat="18.29064600484327" lon="109.59114799016832">
    <ele>9.09</ele>
   </trkpt>
   <trkpt lat="18.29115800324227" lon="109.59170399346002">
    <ele>8.950000000000001</ele>
   </trkpt>
   <trkpt lat="18.29167" lon="109.59226000000001">
    <ele>9.35</ele>
   </trkpt>
   <trkpt lat="18.292250001657184" lon="109.59281999627729">
    <ele>10.010000000000002</ele>
   </trkpt>
   <trkpt lat="18.292830001683303" lon="109.59337999630243">
    <ele>10.540000000000001</ele>
   </trkpt>
   <trkpt lat="18.29341" lon="109.59394">
    <ele>11.53</ele>
   </trkpt>
   <trkpt lat="18.293940000000003" lon="109.59442000000001">
    <ele>12.120000000000001</ele>
   </trkpt>
   <trkpt lat="18.294557146892767" lon="109.59492856056099">
    <ele>12.88</ele>
   </trkpt>
   <trkpt lat="18.29517429244019" lon="109.59543712474404">
    <ele>13.750000000000002</ele>
   </trkpt>
   <trkpt lat="18.295791436642205" lon="109.59594569254934">
    <ele>14.730000000000002</ele>
   </trkpt>
   <trkpt lat="18.296408579498756" lon="109.59645426397702">
    <ele>15.64</ele>
   </trkpt>
   <trkpt lat="18.297025721009785" lon="109.59696283902726">
    <ele>16.25</ele>
   </trkpt>
   <trkpt lat="18.29764286117523" lon="109.59747141770016">
    <ele>17.44</ele>
   </trkpt>
   <trkpt lat="18.298260000000003" lon="109.59798">
    <ele>18.28</ele>
   </trkpt>
   <trkpt lat="18.298960004125878" lon="109.59854332195118">
    <ele>19.19</ele>
   </trkpt>
   <trkpt lat="18.299660006600732" lon="109.5991066484543">
    <ele>19.650000000000002</ele>
   </trkpt>
   <trkpt lat="18.300360007424494" lon="109.59966997950959">
    <ele>19.950000000000003</ele>
   </trkpt>
   <trkpt lat="18.30106000659705" lon="109.60023331511726">
    <ele>18.98</ele>
   </trkpt>
   <trkpt lat="18.301760004118353" lon="109.60079665527752">
    <ele>18.230000000000004</ele>
   </trkpt>
   <trkpt lat="18.30246" lon="109.60136000000001">
    <ele>17.61</ele>
   </trkpt>
   <trkpt lat="18.30251" lon="109.60143000000001">
    <ele>17.210000000000004</ele>
   </trkpt>
   <trkpt lat="18.30306333448751" lon="109.60188999710515">
    <ele>16.490000000000002</ele>
   </trkpt>
   <trkpt lat="18.30361666787391" lon="109.60234999714922">
    <ele>16.080000000000002</ele>
   </trkpt>
   <trkpt lat="18.304170000000003" lon="109.60281">
    <ele>15.780000000000003</ele>
   </trkpt>
   <trkpt lat="18.304790000959656" lon="109.60339999793922">
    <ele>16.360000000000003</ele>
   </trkpt>
   <trkpt lat="18.305410000000002" lon="109.60399000000001">
    <ele>17.57</ele>
   </trkpt>
   <trkpt lat="18.305980000976174" lon="109.60458499809901">
    <ele>18.240000000000002</ele>
   </trkpt>
   <trkpt lat="18.30655" lon="109.60518">
    <ele>19.700000000000003</ele>
   </trkpt>
   <trkpt lat="18.307130001118903" lon="109.60583999777279">
    <ele>20.700000000000003</ele>
   </trkpt>
   <trkpt lat="18.30771" lon="109.60650000000001">
    <ele>21.910000000000004</ele>
   </trkpt>
   <trkpt lat="18.30814000065633" lon="109.60700999870915">
    <ele>22.400000000000002</ele>
   </trkpt>
   <trkpt lat="18.308570000000003" lon="109.60752000000001">
    <ele>23.000000000000004</ele>
   </trkpt>
   <trkpt lat="18.309080002686628" lon="109.60823999574201">
    <ele>23.380000000000003</ele>
   </trkpt>
   <trkpt lat="18.309590002674863" lon="109.60895999572531">
    <ele>23.650000000000002</ele>
   </trkpt>
   <trkpt lat="18.310100000000002" lon="109.60968000000001">
    <ele>24.09</ele>
   </trkpt>
   <trkpt lat="18.310540002353896" lon="109.61035332990149">
    <ele>24.51</ele>
   </trkpt>
   <trkpt lat="18.31098000234769" lon="109.61102666322529">
    <ele>24.92</ele>
   </trkpt>
   <trkpt lat="18.311420000000002" lon="109.61170000000001">
    <ele>25.28</ele>
   </trkpt>
   <trkpt lat="18.31138" lon="109.6118">
    <ele>25.28</ele>
   </trkpt>
   <trkpt lat="18.31188834120843" lon="109.61257832189153">
    <ele>25.740000000000002</ele>
   </trkpt>
   <trkpt lat="18.312396679263156" lon="109.61335664835377">
    <ele>26.1</ele>
   </trkpt>
   <trkpt lat="18.31290501416407" lon="109.61413497938685">
    <ele>26.46</ele>
   </trkpt>
   <trkpt lat="18.31341334591105" lon="109.61491331499087">
    <ele>26.64</ele>
   </trkpt>
   <trkpt lat="18.313921674503987" lon="109.615691655166">
    <ele>27.1</ele>
   </trkpt>
   <trkpt lat="18.31443" lon="109.61647">
    <ele>27.080000000000002</ele>
   </trkpt>
   <trkpt lat="18.31488666938513" lon="109.61719666278323">
    <ele>26.87</ele>
   </trkpt>
   <trkpt lat="18.31534333602092" lon="109.61792332940067">
    <ele>26.47</ele>
   </trkpt>
   <trkpt lat="18.315800000000003" lon="109.61865">
    <ele>26.050000000000004</ele>
   </trkpt>
   <trkpt lat="18.31611000035288" lon="109.61903999924726">
    <ele>25.910000000000004</ele>
   </trkpt>
   <trkpt lat="18.31642" lon="109.61943000000001">
    <ele>25.7</ele>
   </trkpt>
   <trkpt lat="18.31688" lon="109.62014">
    <ele>25.36</ele>
   </trkpt>
   <trkpt lat="18.317210000000003" lon="109.62036">
    <ele>25.39</ele>
   </trkpt>
   <trkpt lat="18.317620000033653" lon="109.62060999932906">
    <ele>24.75</ele>
   </trkpt>
   <trkpt lat="18.31803" lon="109.62086000000001">
    <ele>24.21</ele>
   </trkpt>
   <trkpt lat="18.318610000000003" lon="109.62110000000001">
    <ele>23.880000000000003</ele>
   </trkpt>
   <trkpt lat="18.319010000000002" lon="109.62135">
    <ele>22.51</ele>
   </trkpt>
   <trkpt lat="18.31975666704884" lon="109.62164333077604">
    <ele>21.67</ele>
   </trkpt>
   <trkpt lat="18.32050333364957" lon="109.6219366640834">
    <ele>21.1</ele>
   </trkpt>
   <trkpt lat="18.321250000000003" lon="109.62223000000002">
    <ele>21.5</ele>
   </trkpt>
   <trkpt lat="18.322035000183696" lon="109.62249999877292">
    <ele>22.840000000000003</ele>
   </trkpt>
   <trkpt lat="18.32282" lon="109.62277">
    <ele>22.990000000000002</ele>
   </trkpt>
   <trkpt lat="18.323610000000002" lon="109.62306000000001">
    <ele>22.9</ele>
   </trkpt>
   <trkpt lat="18.32425500032147" lon="109.62331499910941">
    <ele>22.140000000000004</ele>
   </trkpt>
   <trkpt lat="18.324900000000003" lon="109.62357000000002">
    <ele>22.430000000000003</ele>
   </trkpt>
   <trkpt lat="18.325560000000003" lon="109.62387000000001">
    <ele>25.28</ele>
   </trkpt>
   <trkpt lat="18.326156667018502" lon="109.62411999828635">
    <ele>26.050000000000004</ele>
   </trkpt>
   <trkpt lat="18.32675333371142" lon="109.62436999829731">
    <ele>27.46</ele>
   </trkpt>
   <trkpt lat="18.327350000000003" lon="109.62462000000001">
    <ele>28.200000000000003</ele>
   </trkpt>
   <trkpt lat="18.32814" lon="109.62488">
    <ele>29.07</ele>
   </trkpt>
   <trkpt lat="18.328700000167835" lon="109.6249699997322">
    <ele>30.2</ele>
   </trkpt>
   <trkpt lat="18.32926" lon="109.62506">
    <ele>31.03</ele>
   </trkpt>
   <trkpt lat="18.329980000115178" lon="109.62518999892244">
    <ele>31.27</ele>
   </trkpt>
   <trkpt lat="18.330700000142308" lon="109.62531999892732">
    <ele>31.51</ele>
   </trkpt>
   <trkpt lat="18.33142" lon="109.62545000000001">
    <ele>30.470000000000002</ele>
   </trkpt>
   <trkpt lat="18.332119999946382" lon="109.62558999941234">
    <ele>28.830000000000002</ele>
   </trkpt>
   <trkpt lat="18.33282" lon="109.62573">
    <ele>28.41</ele>
   </trkpt>
   <trkpt lat="18.333638000244765" lon="109.62588399708518">
    <ele>28.020000000000003</ele>
   </trkpt>
   <trkpt lat="18.33445600036595" lon="109.62603799562746">
    <ele>27.78</ele>
   </trkpt>
   <trkpt lat="18.33527400036354" lon="109.62619199562693">
    <ele>27.78</ele>
   </trkpt>
   <trkpt lat="18.336092000237525" lon="109.62634599708366">
    <ele>33.07</ele>
   </trkpt>
   <trkpt lat="18.336910000000003" lon="109.62650000000001">
    <ele>38.34</ele>
   </trkpt>
   <trkpt lat="18.337370000136247" lon="109.62661999970645">
    <ele>39.13</ele>
   </trkpt>
   <trkpt lat="18.33783" lon="109.62674000000001">
    <ele>38.830000000000005</ele>
   </trkpt>
   <trkpt lat="18.338260000001487" lon="109.62689499959241">
    <ele>38.45</ele>
   </trkpt>
   <trkpt lat="18.338690000000003" lon="109.62705000000001">
    <ele>37.98</ele>
   </trkpt>
   <trkpt lat="18.33945900237367" lon="109.6273679872661">
    <ele>37.09</ele>
   </trkpt>
   <trkpt lat="18.34022800422025" lon="109.62768597736171">
    <ele>35.61</ele>
   </trkpt>
   <trkpt lat="18.34099700553971" lon="109.62800397028693">
    <ele>31.96</ele>
   </trkpt>
   <trkpt lat="18.34176600633202" lon="109.62832196604194">
    <ele>32.660000000000004</ele>
   </trkpt>
   <trkpt lat="18.34253500659716" lon="109.62863996462687">
    <ele>35.08</ele>
   </trkpt>
   <trkpt lat="18.34330400633509" lon="109.6289579660419">
    <ele>34.910000000000004</ele>
   </trkpt>
   <trkpt lat="18.34407300554579" lon="109.62927597028717">
    <ele>33.34</ele>
   </trkpt>
   <trkpt lat="18.34484200422923" lon="109.62959397736283">
    <ele>33.370000000000005</ele>
   </trkpt>
   <trkpt lat="18.345611002385382" lon="109.62991198726901">
    <ele>34.2</ele>
   </trkpt>
   <trkpt lat="18.34638" lon="109.63023000000001">
    <ele>34.620000000000005</ele>
   </trkpt>
   <trkpt lat="18.34637" lon="109.63023000000001">
    <ele>34.60000000000001</ele>
   </trkpt>
   <trkpt lat="18.34702000054732" lon="109.63049499700819">
    <ele>35.190000000000005</ele>
   </trkpt>
   <trkpt lat="18.347670000728453" lon="109.63075999601031">
    <ele>35.4</ele>
   </trkpt>
   <trkpt lat="18.348320000543385" lon="109.63102499700646">
    <ele>35.7</ele>
   </trkpt>
   <trkpt lat="18.34897" lon="109.63129">
    <ele>36.08</ele>
   </trkpt>
   <trkpt lat="18.349663333659603" lon="109.63150333164818">
    <ele>36.800000000000004</ele>
   </trkpt>
   <trkpt lat="18.35035666708186" lon="109.63171666500884">
    <ele>37.42</ele>
   </trkpt>
   <trkpt lat="18.35105" lon="109.63193000000001">
    <ele>38.02</ele>
   </trkpt>
   <trkpt lat="18.351904168547698" lon="109.63218581941521">
    <ele>38.510000000000005</ele>
   </trkpt>
   <trkpt lat="18.35275833675405" lon="109.63244164136069">
    <ele>37.94</ele>
   </trkpt>
   <trkpt lat="18.35361250461904" lon="109.63269746583653">
    <ele>36.86000000000001</ele>
   </trkpt>
   <trkpt lat="18.35446667214266" lon="109.63295329284293">
    <ele>38.160000000000004</ele>
   </trkpt>
   <trkpt lat="18.355320839324875" lon="109.63320912238001">
    <ele>41.53</ele>
   </trkpt>
   <trkpt lat="18.356175006165664" lon="109.63346495444794">
    <ele>43.13</ele>
   </trkpt>
   <trkpt lat="18.35702917266502" lon="109.63372078904689">
    <ele>43.2</ele>
   </trkpt>
   <trkpt lat="18.35788333882291" lon="109.63397662617697">
    <ele>42.910000000000004</ele>
   </trkpt>
   <trkpt lat="18.35873750463932" lon="109.63423246583838">
    <ele>42.75</ele>
   </trkpt>
   <trkpt lat="18.359591670114224" lon="109.63448830803121">
    <ele>42.63</ele>
   </trkpt>
   <trkpt lat="18.360445835247607" lon="109.63474415275564">
    <ele>43.17000000000001</ele>
   </trkpt>
   <trkpt lat="18.3613" lon="109.635">
    <ele>44.13</ele>
   </trkpt>
   <trkpt lat="18.36179000000705" lon="109.63512499963657">
    <ele>43.660000000000004</ele>
   </trkpt>
   <trkpt lat="18.362280000000002" lon="109.63525000000001">
    <ele>42.34</ele>
   </trkpt>
   <trkpt lat="18.362754999914042" lon="109.63530999982287">
    <ele>41.97</ele>
   </trkpt>
   <trkpt lat="18.36323" lon="109.63537000000001">
    <ele>42.04</ele>
   </trkpt>
   <trkpt lat="18.364070000116147" lon="109.63525000057281">
    <ele>42.11</ele>
   </trkpt>
   <trkpt lat="18.364910000000002" lon="109.63513">
    <ele>42.18</ele>
   </trkpt>
   <trkpt lat="18.365674000155643" lon="109.63500400223289">
    <ele>41.92</ele>
   </trkpt>
   <trkpt lat="18.366438000228428" lon="109.63487800335024">
    <ele>41.89</ele>
   </trkpt>
   <trkpt lat="18.367202000218352" lon="109.63475200335196">
    <ele>41.72</ele>
   </trkpt>
   <trkpt lat="18.367966000125417" lon="109.63462600223801">
    <ele>41.85</ele>
   </trkpt>
   <trkpt lat="18.368730000000003" lon="109.6345">
    <ele>42.96</ele>
   </trkpt>
   <trkpt lat="18.369294999991496" lon="109.63438000040274">
    <ele>43.86</ele>
   </trkpt>
   <trkpt lat="18.369860000000003" lon="109.63426000000001">
    <ele>46.19</ele>
   </trkpt>
   <trkpt lat="18.37031999996831" lon="109.63418500020754">
    <ele>47.96</ele>
   </trkpt>
   <trkpt lat="18.37078" lon="109.63411">
    <ele>48.790000000000006</ele>
   </trkpt>
   <trkpt lat="18.37121" lon="109.63396000000002">
    <ele>49.010000000000005</ele>
   </trkpt>
   <trkpt lat="18.371640000000003" lon="109.63374">
    <ele>49.050000000000004</ele>
   </trkpt>
   <trkpt lat="18.37206" lon="109.63343">
    <ele>49.24</ele>
   </trkpt>
   <trkpt lat="18.372510000000002" lon="109.63300000000001">
    <ele>49.260000000000005</ele>
   </trkpt>
   <trkpt lat="18.37300666826736" lon="109.63244333655796">
    <ele>48.95</ele>
   </trkpt>
   <trkpt lat="18.373503334916894" lon="109.63188666991056">
    <ele>48.830000000000005</ele>
   </trkpt>
   <trkpt lat="18.374000000000002" lon="109.63133">
    <ele>48.660000000000004</ele>
   </trkpt>
   <trkpt lat="18.37424" lon="109.63117000000001">
    <ele>48.84</ele>
   </trkpt>
   <trkpt lat="18.37497333398316" lon="109.63083000286963">
    <ele>50.5</ele>
   </trkpt>
   <trkpt lat="18.37570666736274" lon="109.63049000284822">
    <ele>51.7</ele>
   </trkpt>
   <trkpt lat="18.376440000000002" lon="109.63015000000001">
    <ele>51.160000000000004</ele>
   </trkpt>
   <trkpt lat="18.376720000000002" lon="109.63010000000001">
    <ele>50.580000000000005</ele>
   </trkpt>
   <trkpt lat="18.37674" lon="109.62998">
    <ele>50.510000000000005</ele>
   </trkpt>
   <trkpt lat="18.37679" lon="109.62986000000001">
    <ele>50.120000000000005</ele>
   </trkpt>
   <trkpt lat="18.376990000000003" lon="109.62958">
    <ele>49.910000000000004</ele>
   </trkpt>
   <trkpt lat="18.37713" lon="109.62946000000001">
    <ele>50.06000000000001</ele>
   </trkpt>
   <trkpt lat="18.377460000000003" lon="109.62932">
    <ele>50.72</ele>
   </trkpt>
   <trkpt lat="18.377560000000003" lon="109.62924000000001">
    <ele>51.36</ele>
   </trkpt>
   <trkpt lat="18.37762" lon="109.62916000000001">
    <ele>51.36</ele>
   </trkpt>
   <trkpt lat="18.377830000000003" lon="109.62871000000001">
    <ele>51.88</ele>
   </trkpt>
   <trkpt lat="18.37788" lon="109.62846">
    <ele>51.78000000000001</ele>
   </trkpt>
   <trkpt lat="18.3779" lon="109.62821000000001">
    <ele>51.75</ele>
   </trkpt>
   <trkpt lat="18.37788" lon="109.62792">
    <ele>51.79</ele>
   </trkpt>
   <trkpt lat="18.37782" lon="109.62772000000001">
    <ele>51.93</ele>
   </trkpt>
   <trkpt lat="18.377740000000003" lon="109.62754000000001">
    <ele>51.93</ele>
   </trkpt>
   <trkpt lat="18.37744" lon="109.62702000000002">
    <ele>52.660000000000004</ele>
   </trkpt>
   <trkpt lat="18.3774" lon="109.62688000000001">
    <ele>52.45</ele>
   </trkpt>
   <trkpt lat="18.377360000000003" lon="109.62617">
    <ele>51.49</ele>
   </trkpt>
   <trkpt lat="18.3773" lon="109.62580000000001">
    <ele>51.27</ele>
   </trkpt>
   <trkpt lat="18.377290000000002" lon="109.62500000000001">
    <ele>51.43</ele>
   </trkpt>
   <trkpt lat="18.377290000000002" lon="109.62498000000001">
    <ele>51.42000000000001</ele>
   </trkpt>
   <trkpt lat="18.377290000000002" lon="109.62468000000001">
    <ele>51.42000000000001</ele>
   </trkpt>
   <trkpt lat="18.377175000917802" lon="109.62408499956942">
    <ele>51.260000000000005</ele>
   </trkpt>
   <trkpt lat="18.37706" lon="109.62349">
    <ele>52.53000000000001</ele>
   </trkpt>
   <trkpt lat="18.376945000635406" lon="109.62299999970959">
    <ele>53.160000000000004</ele>
   </trkpt>
   <trkpt lat="18.37683" lon="109.62251">
    <ele>54.86000000000001</ele>
   </trkpt>
   <trkpt lat="18.3766" lon="109.6217">
    <ele>58.470000000000006</ele>
   </trkpt>
   <trkpt lat="18.37658" lon="109.62156">
    <ele>59.18</ele>
   </trkpt>
   <trkpt lat="18.37668" lon="109.62135">
    <ele>60.54</ele>
   </trkpt>
   <trkpt lat="18.37693" lon="109.62114000000001">
    <ele>61.01</ele>
   </trkpt>
   <trkpt lat="18.37705" lon="109.62102000000002">
    <ele>60.49</ele>
   </trkpt>
   <trkpt lat="18.37715" lon="109.62089">
    <ele>60.03000000000001</ele>
   </trkpt>
   <trkpt lat="18.377200000000002" lon="109.62077000000001">
    <ele>58.580000000000005</ele>
   </trkpt>
   <trkpt lat="18.377200000000002" lon="109.62062">
    <ele>58.160000000000004</ele>
   </trkpt>
   <trkpt lat="18.377080000000003" lon="109.62038000000001">
    <ele>57.46</ele>
   </trkpt>
   <trkpt lat="18.37696" lon="109.62025000000001">
    <ele>57.46</ele>
   </trkpt>
   <trkpt lat="18.376620000000003" lon="109.62003000000001">
    <ele>57.720000000000006</ele>
   </trkpt>
   <trkpt lat="18.3765" lon="109.61991">
    <ele>57.870000000000005</ele>
   </trkpt>
   <trkpt lat="18.376430000000003" lon="109.61979000000001">
    <ele>58.21</ele>
   </trkpt>
   <trkpt lat="18.3764" lon="109.61964">
    <ele>58.300000000000004</ele>
   </trkpt>
   <trkpt lat="18.37638" lon="109.61889000000001">
    <ele>59.190000000000005</ele>
   </trkpt>
   <trkpt lat="18.376410000817554" lon="109.61833000012005">
    <ele>60.940000000000005</ele>
   </trkpt>
   <trkpt lat="18.376440000000002" lon="109.61777000000001">
    <ele>62.75</ele>
   </trkpt>
   <trkpt lat="18.37638" lon="109.61743000000001">
    <ele>62.78</ele>
   </trkpt>
   <trkpt lat="18.37638" lon="109.61717000000002">
    <ele>62.050000000000004</ele>
   </trkpt>
   <trkpt lat="18.376405000605242" lon="109.61668999999861">
    <ele>61.08</ele>
   </trkpt>
   <trkpt lat="18.376430000000003" lon="109.61621000000001">
    <ele>61.120000000000005</ele>
   </trkpt>
   <trkpt lat="18.3764" lon="109.61594000000001">
    <ele>61.410000000000004</ele>
   </trkpt>
   <trkpt lat="18.376350000000002" lon="109.61573000000001">
    <ele>61.75000000000001</ele>
   </trkpt>
   <trkpt lat="18.37628" lon="109.61556">
    <ele>62.63</ele>
   </trkpt>
   <trkpt lat="18.37622" lon="109.61544">
    <ele>63.54</ele>
   </trkpt>
   <trkpt lat="18.37603" lon="109.61517">
    <ele>65.80000000000001</ele>
   </trkpt>
   <trkpt lat="18.37584" lon="109.6148">
    <ele>67.85000000000001</ele>
   </trkpt>
   <trkpt lat="18.37571" lon="109.6145">
    <ele>69.77000000000001</ele>
   </trkpt>
   <trkpt lat="18.375670000000003" lon="109.61435000000002">
    <ele>70.60000000000001</ele>
   </trkpt>
   <trkpt lat="18.375670000000003" lon="109.61422">
    <ele>71.26</ele>
   </trkpt>
   <trkpt lat="18.375780000000002" lon="109.61372000000001">
    <ele>72.63</ele>
   </trkpt>
   <trkpt lat="18.375780000000002" lon="109.61364">
    <ele>72.94</ele>
   </trkpt>
   <trkpt lat="18.37564" lon="109.61337">
    <ele>74.27</ele>
   </trkpt>
   <trkpt lat="18.375510000000002" lon="109.61319">
    <ele>76.02</ele>
   </trkpt>
   <trkpt lat="18.375290000000003" lon="109.61298000000001">
    <ele>78.14</ele>
   </trkpt>
   <trkpt lat="18.375300000000003" lon="109.61237000000001">
    <ele>80.92</ele>
   </trkpt>
   <trkpt lat="18.37525" lon="109.61223000000001">
    <ele>81.58</ele>
   </trkpt>
   <trkpt lat="18.375030000000002" lon="109.61189">
    <ele>85.98</ele>
   </trkpt>
   <trkpt lat="18.37498" lon="109.61176">
    <ele>85.98</ele>
   </trkpt>
   <trkpt lat="18.374940000000002" lon="109.61148000000001">
    <ele>89.54</ele>
   </trkpt>
   <trkpt lat="18.37509" lon="109.61118">
    <ele>93.09</ele>
   </trkpt>
   <trkpt lat="18.375270000626916" lon="109.61071000035936">
    <ele>96.11</ele>
   </trkpt>
   <trkpt lat="18.37545" lon="109.61024">
    <ele>99.73</ele>
   </trkpt>
   <trkpt lat="18.37546" lon="109.61011">
    <ele>100.21000000000001</ele>
   </trkpt>
   <trkpt lat="18.375420000000002" lon="109.60990000000001">
    <ele>100.62000000000002</ele>
   </trkpt>
   <trkpt lat="18.37543" lon="109.60969000000001">
    <ele>101.15</ele>
   </trkpt>
   <trkpt lat="18.37547" lon="109.60946000000001">
    <ele>102.27000000000001</ele>
   </trkpt>
   <trkpt lat="18.37554" lon="109.60922000000001">
    <ele>104.22</ele>
   </trkpt>
   <trkpt lat="18.375590000000003" lon="109.60897000000001">
    <ele>106.11000000000001</ele>
   </trkpt>
   <trkpt lat="18.37557" lon="109.60870000000001">
    <ele>107.15</ele>
   </trkpt>
   <trkpt lat="18.37537500100438" lon="109.60807499924393">
    <ele>109.03000000000002</ele>
   </trkpt>
   <trkpt lat="18.37518" lon="109.60745000000001">
    <ele>109.75000000000001</ele>
   </trkpt>
   <trkpt lat="18.375120000000003" lon="109.60696000000002">
    <ele>110.78</ele>
   </trkpt>
   <trkpt lat="18.3751" lon="109.60641000000001">
    <ele>108.08000000000001</ele>
   </trkpt>
   <trkpt lat="18.37516" lon="109.60624000000001">
    <ele>105.62</ele>
   </trkpt>
   <trkpt lat="18.375510000000002" lon="109.60577">
    <ele>99.67</ele>
   </trkpt>
   <trkpt lat="18.37553" lon="109.60563">
    <ele>98.72</ele>
   </trkpt>
   <trkpt lat="18.375480000000003" lon="109.60528000000001">
    <ele>94.79</ele>
   </trkpt>
   <trkpt lat="18.375490000000003" lon="109.60508000000002">
    <ele>93.34</ele>
   </trkpt>
   <trkpt lat="18.37553" lon="109.60492">
    <ele>92.4</ele>
   </trkpt>
   <trkpt lat="18.37564" lon="109.60464">
    <ele>87.48</ele>
   </trkpt>
   <trkpt lat="18.375870000000003" lon="109.60417000000001">
    <ele>84.2</ele>
   </trkpt>
   <trkpt lat="18.37603000066789" lon="109.60366000050878">
    <ele>80.71000000000001</ele>
   </trkpt>
   <trkpt lat="18.37619" lon="109.60315000000001">
    <ele>78.23</ele>
   </trkpt>
   <trkpt lat="18.37628" lon="109.60301000000001">
    <ele>76.51</ele>
   </trkpt>
   <trkpt lat="18.37684" lon="109.60232">
    <ele>73.45</ele>
   </trkpt>
   <trkpt lat="18.377200000000002" lon="109.60193000000001">
    <ele>71.86</ele>
   </trkpt>
   <trkpt lat="18.377280000000003" lon="109.60178">
    <ele>71.44</ele>
   </trkpt>
   <trkpt lat="18.37732" lon="109.60163000000001">
    <ele>71.22</ele>
   </trkpt>
   <trkpt lat="18.37732" lon="109.60142">
    <ele>70.89</ele>
   </trkpt>
   <trkpt lat="18.377290000000002" lon="109.60126000000001">
    <ele>70.4</ele>
   </trkpt>
   <trkpt lat="18.377100000000002" lon="109.60069000000001">
    <ele>67.54</ele>
   </trkpt>
   <trkpt lat="18.37683" lon="109.60011000000002">
    <ele>62.28</ele>
   </trkpt>
   <trkpt lat="18.37677" lon="109.59994">
    <ele>61.61000000000001</ele>
   </trkpt>
   <trkpt lat="18.376730000000002" lon="109.59949">
    <ele>59.510000000000005</ele>
   </trkpt>
   <trkpt lat="18.37674" lon="109.59927">
    <ele>58.72</ele>
   </trkpt>
   <trkpt lat="18.376935001031768" lon="109.59864500066857">
    <ele>57.330000000000005</ele>
   </trkpt>
   <trkpt lat="18.37713" lon="109.59802">
    <ele>56.470000000000006</ele>
   </trkpt>
   <trkpt lat="18.377170000000003" lon="109.59779">
    <ele>56.480000000000004</ele>
   </trkpt>
   <trkpt lat="18.377110000000002" lon="109.59758000000001">
    <ele>56.480000000000004</ele>
   </trkpt>
   <trkpt lat="18.377000000000002" lon="109.59744">
    <ele>56.940000000000005</ele>
   </trkpt>
   <trkpt lat="18.37683" lon="109.59736000000001">
    <ele>57.050000000000004</ele>
   </trkpt>
   <trkpt lat="18.37641" lon="109.59733000000001">
    <ele>57.0</ele>
   </trkpt>
   <trkpt lat="18.37574" lon="109.59722000000001">
    <ele>54.89</ele>
   </trkpt>
   <trkpt lat="18.37538" lon="109.59725">
    <ele>52.81</ele>
   </trkpt>
   <trkpt lat="18.37524" lon="109.59713">
    <ele>52.15</ele>
   </trkpt>
   <trkpt lat="18.37508" lon="109.59696000000001">
    <ele>51.370000000000005</ele>
   </trkpt>
   <trkpt lat="18.374930000000003" lon="109.59669000000001">
    <ele>50.89</ele>
   </trkpt>
   <trkpt lat="18.37478250431933" lon="109.59594749810296">
    <ele>49.84</ele>
   </trkpt>
   <trkpt lat="18.3746350057601" lon="109.59520499747572">
    <ele>50.24000000000001</ele>
   </trkpt>
   <trkpt lat="18.374487504322353" lon="109.59446249811833">
    <ele>48.470000000000006</ele>
   </trkpt>
   <trkpt lat="18.37434" lon="109.59372">
    <ele>48.32</ele>
   </trkpt>
   <trkpt lat="18.374280000000002" lon="109.59368">
    <ele>48.25</ele>
   </trkpt>
   <trkpt lat="18.373900000000003" lon="109.59381">
    <ele>46.52</ele>
   </trkpt>
   <trkpt lat="18.37339" lon="109.59395">
    <ele>45.74</ele>
   </trkpt>
   <trkpt lat="18.372600000102242" lon="109.59422000126654">
    <ele>44.97</ele>
   </trkpt>
   <trkpt lat="18.37181" lon="109.59449000000001">
    <ele>44.160000000000004</ele>
   </trkpt>
   <trkpt lat="18.37161" lon="109.59453">
    <ele>43.89000000000001</ele>
   </trkpt>
   <trkpt lat="18.37075999996799" lon="109.59451999995036">
    <ele>42.78</ele>
   </trkpt>
   <trkpt lat="18.36991" lon="109.59451000000001">
    <ele>42.300000000000004</ele>
   </trkpt>
   <trkpt lat="18.3697" lon="109.59452">
    <ele>42.260000000000005</ele>
   </trkpt>
   <trkpt lat="18.369210000000002" lon="109.59460000000001">
    <ele>41.49</ele>
   </trkpt>
   <trkpt lat="18.368740000000003" lon="109.59471">
    <ele>40.800000000000004</ele>
   </trkpt>
   <trkpt lat="18.36849" lon="109.59479">
    <ele>40.620000000000005</ele>
   </trkpt>
   <trkpt lat="18.3683" lon="109.59487000000001">
    <ele>40.28</ele>
   </trkpt>
   <trkpt lat="18.36806" lon="109.59503000000001">
    <ele>39.28</ele>
   </trkpt>
   <trkpt lat="18.367880000000003" lon="109.59512000000001">
    <ele>39.03</ele>
   </trkpt>
   <trkpt lat="18.36757" lon="109.59519">
    <ele>38.68000000000001</ele>
   </trkpt>
   <trkpt lat="18.36746" lon="109.59524">
    <ele>38.68000000000001</ele>
   </trkpt>
   <trkpt lat="18.367340000000002" lon="109.59536000000001">
    <ele>38.34</ele>
   </trkpt>
   <trkpt lat="18.36711" lon="109.59568000000002">
    <ele>38.14</ele>
   </trkpt>
   <trkpt lat="18.366870000000002" lon="109.59596">
    <ele>38.11000000000001</ele>
   </trkpt>
   <trkpt lat="18.366760000000003" lon="109.59607000000001">
    <ele>38.19</ele>
   </trkpt>
   <trkpt lat="18.36664" lon="109.59614">
    <ele>38.19</ele>
   </trkpt>
   <trkpt lat="18.36656" lon="109.59623">
    <ele>38.84</ele>
   </trkpt>
   <trkpt lat="18.36608" lon="109.59689">
    <ele>39.16</ele>
   </trkpt>
   <trkpt lat="18.365910000000003" lon="109.59705000000001">
    <ele>39.440000000000005</ele>
   </trkpt>
   <trkpt lat="18.36568" lon="109.59714000000001">
    <ele>40.06</ele>
   </trkpt>
   <trkpt lat="18.36552" lon="109.59712">
    <ele>40.150000000000006</ele>
   </trkpt>
   <trkpt lat="18.365115000205485" lon="109.5968449993602">
    <ele>40.35</ele>
   </trkpt>
   <trkpt lat="18.364710000000002" lon="109.59657000000001">
    <ele>40.120000000000005</ele>
   </trkpt>
   <trkpt lat="18.36405666728746" lon="109.59621999734046">
    <ele>39.540000000000006</ele>
   </trkpt>
   <trkpt lat="18.363403333935626" lon="109.59586999733058">
    <ele>38.760000000000005</ele>
   </trkpt>
   <trkpt lat="18.362750000000002" lon="109.59552000000001">
    <ele>37.69</ele>
   </trkpt>
   <trkpt lat="18.36205" lon="109.59522000000001">
    <ele>37.900000000000006</ele>
   </trkpt>
   <trkpt lat="18.36204" lon="109.59521000000001">
    <ele>37.92</ele>
   </trkpt>
   <trkpt lat="18.361375000281175" lon="109.59487999872731">
    <ele>38.13</ele>
   </trkpt>
   <trkpt lat="18.36071" lon="109.59455000000001">
    <ele>36.56</ele>
   </trkpt>
   <trkpt lat="18.35996" lon="109.59431000000001">
    <ele>36.19</ele>
   </trkpt>
   <trkpt lat="18.359730000000003" lon="109.59431000000001">
    <ele>36.06</ele>
   </trkpt>
   <trkpt lat="18.3592" lon="109.59438000000002">
    <ele>35.11</ele>
   </trkpt>
   <trkpt lat="18.358900000000002" lon="109.59436000000001">
    <ele>35.22</ele>
   </trkpt>
   <trkpt lat="18.358620000000002" lon="109.59425">
    <ele>35.47</ele>
   </trkpt>
   <trkpt lat="18.35835" lon="109.59407">
    <ele>36.01</ele>
   </trkpt>
   <trkpt lat="18.357850000000003" lon="109.59368">
    <ele>38.62</ele>
   </trkpt>
   <trkpt lat="18.3576" lon="109.59356000000001">
    <ele>38.62</ele>
   </trkpt>
   <trkpt lat="18.357390000000002" lon="109.5935">
    <ele>39.02</ele>
   </trkpt>
   <trkpt lat="18.356940000174365" lon="109.5934099997961">
    <ele>39.53</ele>
   </trkpt>
   <trkpt lat="18.35649" lon="109.59332">
    <ele>38.6</ele>
   </trkpt>
   <trkpt lat="18.35629" lon="109.59319">
    <ele>35.99</ele>
   </trkpt>
   <trkpt lat="18.35614" lon="109.59306000000001">
    <ele>35.370000000000005</ele>
   </trkpt>
   <trkpt lat="18.355990000000002" lon="109.59284000000001">
    <ele>33.92</ele>
   </trkpt>
   <trkpt lat="18.35581" lon="109.59246">
    <ele>33.61</ele>
   </trkpt>
   <trkpt lat="18.35572" lon="109.59223000000001">
    <ele>33.580000000000005</ele>
   </trkpt>
   <trkpt lat="18.355620000000002" lon="109.59188">
    <ele>33.59</ele>
   </trkpt>
   <trkpt lat="18.35555" lon="109.59172000000001">
    <ele>33.54</ele>
   </trkpt>
   <trkpt lat="18.35545" lon="109.59158000000001">
    <ele>33.54</ele>
   </trkpt>
   <trkpt lat="18.355220000000003" lon="109.59138000000002">
    <ele>33.63</ele>
   </trkpt>
   <trkpt lat="18.3549" lon="109.59116">
    <ele>33.980000000000004</ele>
   </trkpt>
   <trkpt lat="18.35425" lon="109.59083000000001">
    <ele>34.14</ele>
   </trkpt>
   <trkpt lat="18.3537100003687" lon="109.59053499915504">
    <ele>34.78</ele>
   </trkpt>
   <trkpt lat="18.353170000000002" lon="109.59024000000001">
    <ele>35.04</ele>
   </trkpt>
   <trkpt lat="18.35291" lon="109.59006000000001">
    <ele>34.68</ele>
   </trkpt>
   <trkpt lat="18.352600000000002" lon="109.58979000000001">
    <ele>34.300000000000004</ele>
   </trkpt>
   <trkpt lat="18.35227" lon="109.58956">
    <ele>34.18</ele>
   </trkpt>
   <trkpt lat="18.351765000205095" lon="109.58931999932437">
    <ele>33.760000000000005</ele>
   </trkpt>
   <trkpt lat="18.35126" lon="109.58908000000001">
    <ele>33.47</ele>
   </trkpt>
   <trkpt lat="18.350710000000003" lon="109.58875">
    <ele>32.43</ele>
   </trkpt>
   <trkpt lat="18.349986667800906" lon="109.58827666268027">
    <ele>31.78</ele>
   </trkpt>
   <trkpt lat="18.349263334433346" lon="109.58780332932463">
    <ele>31.62</ele>
   </trkpt>
   <trkpt lat="18.34854" lon="109.58733000000001">
    <ele>31.310000000000002</ele>
   </trkpt>
   <trkpt lat="18.348180000000003" lon="109.58705">
    <ele>32.68</ele>
   </trkpt>
   <trkpt lat="18.348000000000003" lon="109.58685000000001">
    <ele>33.78</ele>
   </trkpt>
   <trkpt lat="18.347920000000002" lon="109.5866">
    <ele>34.550000000000004</ele>
   </trkpt>
   <trkpt lat="18.34796" lon="109.58634">
    <ele>36.21000000000001</ele>
   </trkpt>
   <trkpt lat="18.34824" lon="109.58578000000001">
    <ele>40.74</ele>
   </trkpt>
   <trkpt lat="18.348300000000002" lon="109.58557">
    <ele>42.78</ele>
   </trkpt>
   <trkpt lat="18.348280000000003" lon="109.58537000000001">
    <ele>45.58</ele>
   </trkpt>
   <trkpt lat="18.348200000000002" lon="109.58520000000001">
    <ele>47.09</ele>
   </trkpt>
   <trkpt lat="18.34769000069582" lon="109.58465499830713">
    <ele>50.160000000000004</ele>
   </trkpt>
   <trkpt lat="18.34718" lon="109.58411000000001">
    <ele>50.160000000000004</ele>
   </trkpt>
   <trkpt lat="18.346695001038235" lon="109.5834599980905">
    <ele>46.3</ele>
   </trkpt>
   <trkpt lat="18.346210000000003" lon="109.58281000000001">
    <ele>39.650000000000006</ele>
   </trkpt>
   <trkpt lat="18.345920000719246" lon="109.58226499898164">
    <ele>38.220000000000006</ele>
   </trkpt>
   <trkpt lat="18.34563" lon="109.58172">
    <ele>35.63</ele>
   </trkpt>
   <trkpt lat="18.345235000952115" lon="109.58110499854126">
    <ele>36.46000000000001</ele>
   </trkpt>
   <trkpt lat="18.34484" lon="109.58049000000001">
    <ele>36.38</ele>
   </trkpt>
   <trkpt lat="18.34441" lon="109.57976000000001">
    <ele>32.410000000000004</ele>
   </trkpt>
   <trkpt lat="18.344170000000002" lon="109.57942000000001">
    <ele>30.88</ele>
   </trkpt>
   <trkpt lat="18.343580000000003" lon="109.57886">
    <ele>29.960000000000004</ele>
   </trkpt>
   <trkpt lat="18.343410000000002" lon="109.57863">
    <ele>29.67</ele>
   </trkpt>
   <trkpt lat="18.343290000000003" lon="109.57838000000001">
    <ele>29.290000000000003</ele>
   </trkpt>
   <trkpt lat="18.34317" lon="109.57806000000001">
    <ele>29.02</ele>
   </trkpt>
   <trkpt lat="18.342995000868502" lon="109.57747999938476">
    <ele>28.220000000000002</ele>
   </trkpt>
   <trkpt lat="18.342820000000003" lon="109.57690000000001">
    <ele>28.220000000000002</ele>
   </trkpt>
   <trkpt lat="18.342665001583914" lon="109.57611999929021">
    <ele>28.01</ele>
   </trkpt>
   <trkpt lat="18.34251" lon="109.57534000000001">
    <ele>26.930000000000003</ele>
   </trkpt>
   <trkpt lat="18.34226000036859" lon="109.5749249992663">
    <ele>27.270000000000003</ele>
   </trkpt>
   <trkpt lat="18.342010000000002" lon="109.57451">
    <ele>28.16</ele>
   </trkpt>
   <trkpt lat="18.341920000000002" lon="109.57432000000001">
    <ele>28.41</ele>
   </trkpt>
   <trkpt lat="18.341730000000002" lon="109.57366">
    <ele>27.3</ele>
   </trkpt>
   <trkpt lat="18.341620000000002" lon="109.57298000000002">
    <ele>25.310000000000002</ele>
   </trkpt>
   <trkpt lat="18.3415" lon="109.57271000000001">
    <ele>25.17</ele>
   </trkpt>
   <trkpt lat="18.341320000000003" lon="109.57241">
    <ele>25.900000000000002</ele>
   </trkpt>
   <trkpt lat="18.34099500027144" lon="109.57199999901873">
    <ele>26.97</ele>
   </trkpt>
   <trkpt lat="18.340670000000003" lon="109.57159000000001">
    <ele>28.42</ele>
   </trkpt>
   <trkpt lat="18.34043" lon="109.57126000000001">
    <ele>30.730000000000004</ele>
   </trkpt>
   <trkpt lat="18.34006" lon="109.57067">
    <ele>27.880000000000003</ele>
   </trkpt>
   <trkpt lat="18.33983000075979" lon="109.57012499924072">
    <ele>25.6</ele>
   </trkpt>
   <trkpt lat="18.3396" lon="109.56958">
    <ele>25.34</ele>
   </trkpt>
   <trkpt lat="18.33934" lon="109.56887">
    <ele>26.320000000000004</ele>
   </trkpt>
   <trkpt lat="18.339180000000002" lon="109.56837000000002">
    <ele>26.85</ele>
   </trkpt>
   <trkpt lat="18.33912" lon="109.56806">
    <ele>27.19</ele>
   </trkpt>
   <trkpt lat="18.33905" lon="109.56784">
    <ele>27.3</ele>
   </trkpt>
   <trkpt lat="18.33895" lon="109.5677">
    <ele>27.32</ele>
   </trkpt>
   <trkpt lat="18.33883" lon="109.56761">
    <ele>27.39</ele>
   </trkpt>
   <trkpt lat="18.338260000000002" lon="109.56738000000001">
    <ele>28.080000000000002</ele>
   </trkpt>
   <trkpt lat="18.33811" lon="109.56727000000001">
    <ele>28.64</ele>
   </trkpt>
   <trkpt lat="18.3379" lon="109.56697000000001">
    <ele>30.42</ele>
   </trkpt>
   <trkpt lat="18.33782" lon="109.56681">
    <ele>31.84</ele>
   </trkpt>
   <trkpt lat="18.33762000384103" lon="109.56610999760558">
    <ele>33.35</ele>
   </trkpt>
   <trkpt lat="18.337420005128052" lon="109.56540999683091">
    <ele>32.470000000000006</ele>
   </trkpt>
   <trkpt lat="18.337220003861102" lon="109.56470999767596">
    <ele>31.44</ele>
   </trkpt>
   <trkpt lat="18.337020000000003" lon="109.56401000000001">
    <ele>31.490000000000002</ele>
   </trkpt>
   <trkpt lat="18.337020000000003" lon="109.56399">
    <ele>31.5</ele>
   </trkpt>
   <trkpt lat="18.33696" lon="109.56362000000001">
    <ele>31.830000000000002</ele>
   </trkpt>
   <trkpt lat="18.3368750016371" lon="109.5628249995158">
    <ele>31.68</ele>
   </trkpt>
   <trkpt lat="18.33679" lon="109.56203000000001">
    <ele>31.970000000000006</ele>
   </trkpt>
   <trkpt lat="18.336670001921277" lon="109.56116999935914">
    <ele>30.950000000000003</ele>
   </trkpt>
   <trkpt lat="18.336550000000003" lon="109.56031000000002">
    <ele>29.910000000000004</ele>
   </trkpt>
   <trkpt lat="18.33652" lon="109.56018">
    <ele>29.86</ele>
   </trkpt>
   <trkpt lat="18.336460000000002" lon="109.5601">
    <ele>29.710000000000004</ele>
   </trkpt>
   <trkpt lat="18.33633" lon="109.56005">
    <ele>29.380000000000003</ele>
   </trkpt>
   <trkpt lat="18.335462500097925" lon="109.56017250184668">
    <ele>30.140000000000004</ele>
   </trkpt>
   <trkpt lat="18.334595000117638" lon="109.56029500246403">
    <ele>32.470000000000006</ele>
   </trkpt>
   <trkpt lat="18.333727500059144" lon="109.56041750185209">
    <ele>29.87</ele>
   </trkpt>
   <trkpt lat="18.33286" lon="109.56054">
    <ele>25.640000000000004</ele>
   </trkpt>
   <trkpt lat="18.33217" lon="109.56060000000001">
    <ele>26.070000000000004</ele>
   </trkpt>
   <trkpt lat="18.332060000000002" lon="109.56059">
    <ele>26.070000000000004</ele>
   </trkpt>
   <trkpt lat="18.331950000000003" lon="109.56055">
    <ele>26.680000000000003</ele>
   </trkpt>
   <trkpt lat="18.331340000670636" lon="109.56003499816617">
    <ele>24.67</ele>
   </trkpt>
   <trkpt lat="18.330730000000003" lon="109.55952">
    <ele>24.16</ele>
   </trkpt>
   <trkpt lat="18.33061" lon="109.55936000000001">
    <ele>24.240000000000002</ele>
   </trkpt>
   <trkpt lat="18.330345001554917" lon="109.55858499878363">
    <ele>24.26</ele>
   </trkpt>
   <trkpt lat="18.330080000000002" lon="109.55781">
    <ele>24.450000000000003</ele>
   </trkpt>
   <trkpt lat="18.329970000000003" lon="109.55764">
    <ele>24.07</ele>
   </trkpt>
   <trkpt lat="18.32982" lon="109.55757000000001">
    <ele>23.840000000000003</ele>
   </trkpt>
   <trkpt lat="18.32946" lon="109.55752000000001">
    <ele>22.6</ele>
   </trkpt>
   <trkpt lat="18.328984999826524" lon="109.55752000000001">
    <ele>22.080000000000002</ele>
   </trkpt>
   <trkpt lat="18.32851" lon="109.55752000000001">
    <ele>21.92</ele>
   </trkpt>
   <trkpt lat="18.327830000000002" lon="109.55747000000001">
    <ele>22.990000000000002</ele>
   </trkpt>
   <trkpt lat="18.327901675893806" lon="109.5566283350724">
    <ele>23.000000000000004</ele>
   </trkpt>
   <trkpt lat="18.32797334809694" lon="109.55578666944726">
    <ele>22.950000000000003</ele>
   </trkpt>
   <trkpt lat="18.328045016609387" lon="109.55494500312459">
    <ele>24.690000000000005</ele>
   </trkpt>
   <trkpt lat="18.328116681431123" lon="109.55410333610445">
    <ele>26.13</ele>
   </trkpt>
   <trkpt lat="18.32818834256214" lon="109.55326166838682">
    <ele>27.4</ele>
   </trkpt>
   <trkpt lat="18.32826" lon="109.55242000000001">
    <ele>28.990000000000002</ele>
   </trkpt>
   <trkpt lat="18.328295000928158" lon="109.55182500001962">
    <ele>29.720000000000002</ele>
   </trkpt>
   <trkpt lat="18.32833" lon="109.55123">
    <ele>31.46</ele>
   </trkpt>
   <trkpt lat="18.32834400810578" lon="109.55034800029544">
    <ele>33.96</ele>
   </trkpt>
   <trkpt lat="18.32835801215859" lon="109.54946600044799">
    <ele>33.760000000000005</ele>
   </trkpt>
   <trkpt lat="18.32837201215844" lon="109.54858400045777">
    <ele>33.580000000000005</ele>
   </trkpt>
   <trkpt lat="18.32838600810532" lon="109.54770200032478">
    <ele>34.49</ele>
   </trkpt>
   <trkpt lat="18.328400000000002" lon="109.54682000000001">
    <ele>35.550000000000004</ele>
   </trkpt>
   <trkpt lat="18.328380000925065" lon="109.54622500001554">
    <ele>35.29</ele>
   </trkpt>
   <trkpt lat="18.32836" lon="109.54563">
    <ele>34.9</ele>
   </trkpt>
   <trkpt lat="18.328320000670804" lon="109.54511999979599">
    <ele>34.13</ele>
   </trkpt>
   <trkpt lat="18.328280000000003" lon="109.54461">
    <ele>34.13</ele>
   </trkpt>
   <trkpt lat="18.32815000213977" lon="109.54369999919425">
    <ele>31.73</ele>
   </trkpt>
   <trkpt lat="18.328020000000002" lon="109.54279000000001">
    <ele>29.43</ele>
   </trkpt>
   <trkpt lat="18.32795" lon="109.54246">
    <ele>28.73</ele>
   </trkpt>
   <trkpt lat="18.327830000000002" lon="109.54222000000001">
    <ele>28.17</ele>
   </trkpt>
   <trkpt lat="18.32747" lon="109.54175000000001">
    <ele>27.930000000000003</ele>
   </trkpt>
   <trkpt lat="18.327340000000003" lon="109.54146000000001">
    <ele>27.73</ele>
   </trkpt>
   <trkpt lat="18.327160000000003" lon="109.54093">
    <ele>27.610000000000003</ele>
   </trkpt>
   <trkpt lat="18.32705" lon="109.54086000000001">
    <ele>27.610000000000003</ele>
   </trkpt>
   <trkpt lat="18.32693" lon="109.54085">
    <ele>27.450000000000003</ele>
   </trkpt>
   <trkpt lat="18.326430000000002" lon="109.54109000000001">
    <ele>28.55</ele>
   </trkpt>
   <trkpt lat="18.32609" lon="109.54116">
    <ele>29.450000000000003</ele>
   </trkpt>
   <trkpt lat="18.325474999902752" lon="109.54122500024253">
    <ele>30.230000000000004</ele>
   </trkpt>
   <trkpt lat="18.32486" lon="109.54129">
    <ele>31.32</ele>
   </trkpt>
   <trkpt lat="18.32401" lon="109.54139">
    <ele>31.970000000000006</ele>
   </trkpt>
   <trkpt lat="18.32328" lon="109.54144000000001">
    <ele>32.300000000000004</ele>
   </trkpt>
   <trkpt lat="18.32251" lon="109.54136000000001">
    <ele>31.19</ele>
   </trkpt>
   <trkpt lat="18.322210000000002" lon="109.54136000000001">
    <ele>31.090000000000003</ele>
   </trkpt>
   <trkpt lat="18.32205" lon="109.54134">
    <ele>31.090000000000003</ele>
   </trkpt>
   <trkpt lat="18.321419999939234" lon="109.54140000022515">
    <ele>29.7</ele>
   </trkpt>
   <trkpt lat="18.320790000000002" lon="109.54146000000001">
    <ele>28.67</ele>
   </trkpt>
   <trkpt lat="18.320500000000003" lon="109.54155000000002">
    <ele>28.380000000000003</ele>
   </trkpt>
   <trkpt lat="18.32036" lon="109.54164000000002">
    <ele>28.310000000000002</ele>
   </trkpt>
   <trkpt lat="18.320210000000003" lon="109.54177000000001">
    <ele>28.03</ele>
   </trkpt>
   <trkpt lat="18.320110000000003" lon="109.54192">
    <ele>27.840000000000003</ele>
   </trkpt>
   <trkpt lat="18.320030000000003" lon="109.54214">
    <ele>27.4</ele>
   </trkpt>
   <trkpt lat="18.319930000795885" lon="109.54269500035512">
    <ele>27.020000000000003</ele>
   </trkpt>
   <trkpt lat="18.319830000000003" lon="109.54325000000001">
    <ele>26.390000000000004</ele>
   </trkpt>
   <trkpt lat="18.319850000000002" lon="109.54335">
    <ele>26.310000000000002</ele>
   </trkpt>
   <trkpt lat="18.319760000000002" lon="109.54352000000002">
    <ele>26.310000000000002</ele>
   </trkpt>
   <trkpt lat="18.31962" lon="109.54371">
    <ele>25.67</ele>
   </trkpt>
   <trkpt lat="18.31944" lon="109.54386000000001">
    <ele>25.41</ele>
   </trkpt>
   <trkpt lat="18.31935" lon="109.54385">
    <ele>25.26</ele>
   </trkpt>
   <trkpt lat="18.319270000000003" lon="109.54387000000001">
    <ele>25.07</ele>
   </trkpt>
   <trkpt lat="18.31848" lon="109.54393">
    <ele>22.140000000000004</ele>
   </trkpt>
   <trkpt lat="18.317924999771744" lon="109.54394000003619">
    <ele>19.6</ele>
   </trkpt>
   <trkpt lat="18.31737" lon="109.54395000000001">
    <ele>18.03</ele>
   </trkpt>
   <trkpt lat="18.31697" lon="109.54392000000001">
    <ele>16.3</ele>
   </trkpt>
   <trkpt lat="18.316495000304247" lon="109.54383999982888">
    <ele>14.72</ele>
   </trkpt>
   <trkpt lat="18.31602" lon="109.54376">
    <ele>14.010000000000002</ele>
   </trkpt>
   <trkpt lat="18.31546" lon="109.54358">
    <ele>12.92</ele>
   </trkpt>
   <trkpt lat="18.314940000041698" lon="109.5433649993216">
    <ele>13.09</ele>
   </trkpt>
   <trkpt lat="18.314420000000002" lon="109.54315000000001">
    <ele>13.31</ele>
   </trkpt>
   <trkpt lat="18.313730001538" lon="109.5428066598263">
    <ele>13.49</ele>
   </trkpt>
   <trkpt lat="18.313040002462255" lon="109.54246332238966">
    <ele>13.74</ele>
   </trkpt>
   <trkpt lat="18.31235000277281" lon="109.54211998768997">
    <ele>14.180000000000001</ele>
   </trkpt>
   <trkpt lat="18.31166000246968" lon="109.54177665572709">
    <ele>14.38</ele>
   </trkpt>
   <trkpt lat="18.310970001552903" lon="109.54143332650088">
    <ele>14.450000000000001</ele>
   </trkpt>
   <trkpt lat="18.310280000000002" lon="109.54109000000001">
    <ele>14.950000000000001</ele>
   </trkpt>
   <trkpt lat="18.309660000270018" lon="109.54079999898552">
    <ele>14.950000000000001</ele>
   </trkpt>
   <trkpt lat="18.309040000000003" lon="109.54051000000001">
    <ele>15.160000000000002</ele>
   </trkpt>
   <trkpt lat="18.30844" lon="109.54024000000001">
    <ele>14.96</ele>
   </trkpt>
   <trkpt lat="18.307640000000003" lon="109.53996000000001">
    <ele>14.17</ele>
   </trkpt>
   <trkpt lat="18.306980000000003" lon="109.53976000000002">
    <ele>12.84</ele>
   </trkpt>
   <trkpt lat="18.30617" lon="109.53957000000001">
    <ele>11.950000000000001</ele>
   </trkpt>
   <trkpt lat="18.305296000286052" lon="109.53940799673249">
    <ele>10.6</ele>
   </trkpt>
   <trkpt lat="18.304422000435515" lon="109.5392459951">
    <ele>10.48</ele>
   </trkpt>
   <trkpt lat="18.3035480004484" lon="109.5390839951025">
    <ele>10.270000000000001</ele>
   </trkpt>
   <trkpt lat="18.302674000324718" lon="109.53892199673984">
    <ele>9.950000000000001</ele>
   </trkpt>
   <trkpt lat="18.3018" lon="109.53876000000001">
    <ele>9.940000000000001</ele>
   </trkpt>
   <trkpt lat="18.30099666683914" lon="109.53856999823427">
    <ele>9.9</ele>
   </trkpt>
   <trkpt lat="18.300193333490444" lon="109.53837999823067">
    <ele>10.120000000000001</ele>
   </trkpt>
   <trkpt lat="18.299390000000002" lon="109.53819000000001">
    <ele>10.13</ele>
   </trkpt>
   <trkpt lat="18.2988" lon="109.53809000000001">
    <ele>10.290000000000001</ele>
   </trkpt>
   <trkpt lat="18.298012000223302" lon="109.53794399734441">
    <ele>9.959999999999999</ele>
   </trkpt>
   <trkpt lat="18.2972240003357" lon="109.53779799601683">
    <ele>10.100000000000001</ele>
   </trkpt>
   <trkpt lat="18.296436000337202" lon="109.53765199601719">
    <ele>10.450000000000001</ele>
   </trkpt>
   <trkpt lat="18.29564800022782" lon="109.5375059973454">
    <ele>10.39</ele>
   </trkpt>
   <trkpt lat="18.29486" lon="109.53736">
    <ele>11.11</ele>
   </trkpt>
   <trkpt lat="18.29401" lon="109.5373">
    <ele>11.21</ele>
   </trkpt>
   <trkpt lat="18.294030000000003" lon="109.53676000000002">
    <ele>11.1</ele>
   </trkpt>
   <trkpt lat="18.294010000930395" lon="109.53615999975399">
    <ele>10.67</ele>
   </trkpt>
   <trkpt lat="18.29399" lon="109.53556">
    <ele>10.76</ele>
   </trkpt>
   <trkpt lat="18.29395000057799" lon="109.53508499978574">
    <ele>10.610000000000001</ele>
   </trkpt>
   <trkpt lat="18.29391" lon="109.53461000000001">
    <ele>10.08</ele>
   </trkpt>
   <trkpt lat="18.293845000979733" lon="109.53399999988369">
    <ele>9.590000000000002</ele>
   </trkpt>
   <trkpt lat="18.29378" lon="109.53339000000001">
    <ele>9.690000000000001</ele>
   </trkpt>
   <trkpt lat="18.293630001639198" lon="109.53260499951188">
    <ele>9.02</ele>
   </trkpt>
   <trkpt lat="18.293480000000002" lon="109.53182000000001">
    <ele>8.81</ele>
   </trkpt>
   <trkpt lat="18.29329500097198" lon="109.53119499918446">
    <ele>8.67</ele>
   </trkpt>
   <trkpt lat="18.293110000000002" lon="109.53057000000001">
    <ele>8.370000000000001</ele>
   </trkpt>
   <trkpt lat="18.29288" lon="109.52986000000001">
    <ele>8.59</ele>
   </trkpt>
   <trkpt lat="18.292550000000002" lon="109.52901000000001">
    <ele>8.280000000000001</ele>
   </trkpt>
   <trkpt lat="18.292310000803628" lon="109.52844999919678">
    <ele>7.760000000000001</ele>
   </trkpt>
   <trkpt lat="18.292070000000002" lon="109.52789000000001">
    <ele>7.55</ele>
   </trkpt>
   <trkpt lat="18.29166" lon="109.52705">
    <ele>6.82</ele>
   </trkpt>
   <trkpt lat="18.291310000000003" lon="109.52641000000001">
    <ele>6.44</ele>
   </trkpt>
   <trkpt lat="18.29087" lon="109.52567">
    <ele>6.470000000000001</ele>
   </trkpt>
   <trkpt lat="18.290570000586733" lon="109.52519499917796">
    <ele>6.91</ele>
   </trkpt>
   <trkpt lat="18.290270000000003" lon="109.52472">
    <ele>7.8500000000000005</ele>
   </trkpt>
   <trkpt lat="18.289773335814903" lon="109.524029996054">
    <ele>7.680000000000001</ele>
   </trkpt>
   <trkpt lat="18.289276669153814" lon="109.52333999606182">
    <ele>7.490000000000001</ele>
   </trkpt>
   <trkpt lat="18.288780000000003" lon="109.52265000000001">
    <ele>7.3100000000000005</ele>
   </trkpt>
   <trkpt lat="18.288305000841028" lon="109.52206999836982">
    <ele>7.0200000000000005</ele>
   </trkpt>
   <trkpt lat="18.287830000000003" lon="109.52149000000001">
    <ele>7.010000000000001</ele>
   </trkpt>
   <trkpt lat="18.287403334650094" lon="109.52098666418861">
    <ele>6.72</ele>
   </trkpt>
   <trkpt lat="18.286976667982792" lon="109.52048333085456">
    <ele>6.630000000000001</ele>
   </trkpt>
   <trkpt lat="18.286550000000002" lon="109.51998">
    <ele>6.94</ele>
   </trkpt>
   <trkpt lat="18.28614333448939" lon="109.51950666443601">
    <ele>7.25</ele>
   </trkpt>
   <trkpt lat="18.28573666781382" lon="109.51903333109233">
    <ele>7.5600000000000005</ele>
   </trkpt>
   <trkpt lat="18.285330000000002" lon="109.51856000000001">
    <ele>7.9700000000000015</ele>
   </trkpt>
   <trkpt lat="18.2847450061864" lon="109.51786998835908">
    <ele>7.99</ele>
   </trkpt>
   <trkpt lat="18.284160009897338" lon="109.51717998137384">
    <ele>8.06</ele>
   </trkpt>
   <trkpt lat="18.283575011132918" lon="109.51648997904414">
    <ele>8.32</ele>
   </trkpt>
   <trkpt lat="18.282990009893243" lon="109.5157999813698">
    <ele>8.520000000000001</ele>
   </trkpt>
   <trkpt lat="18.28240500617841" lon="109.51510998835063">
    <ele>8.88</ele>
   </trkpt>
   <trkpt lat="18.28182" lon="109.51442000000002">
    <ele>8.67</ele>
   </trkpt>
   <trkpt lat="18.2819" lon="109.51435000000001">
    <ele>8.67</ele>
   </trkpt>
   <trkpt lat="18.28135000107026" lon="109.51371499801189">
    <ele>7.69</ele>
   </trkpt>
   <trkpt lat="18.280800000000003" lon="109.51308">
    <ele>6.99</ele>
   </trkpt>
   <trkpt lat="18.280400000577618" lon="109.51260499889409">
    <ele>6.83</ele>
   </trkpt>
   <trkpt lat="18.28" lon="109.51213000000001">
    <ele>7.55</ele>
   </trkpt>
   <trkpt lat="18.27993" lon="109.51219">
    <ele>7.59</ele>
   </trkpt>
   <trkpt lat="18.279405000944177" lon="109.5115799981271">
    <ele>7.12</ele>
   </trkpt>
   <trkpt lat="18.27888" lon="109.51097000000001">
    <ele>7.0600000000000005</ele>
   </trkpt>
   <trkpt lat="18.278350003125418" lon="109.5103374942102">
    <ele>6.59</ele>
   </trkpt>
   <trkpt lat="18.27782000417142" lon="109.50970499228542">
    <ele>6.55</ele>
   </trkpt>
   <trkpt lat="18.27729000313808" lon="109.50907249422552">
    <ele>6.970000000000001</ele>
   </trkpt>
   <trkpt lat="18.276760000000003" lon="109.50844000000001">
    <ele>7.010000000000001</ele>
   </trkpt>
   <trkpt lat="18.27616000881881" lon="109.50774373314697">
    <ele>6.760000000000001</ele>
   </trkpt>
   <trkpt lat="18.275560015118092" lon="109.50704747110984">
    <ele>6.8100000000000005</ele>
   </trkpt>
   <trkpt lat="18.274960018897954" lon="109.50635121388848">
    <ele>7.4</ele>
   </trkpt>
   <trkpt lat="18.274360020158497" lon="109.50565496148263">
    <ele>7.9</ele>
   </trkpt>
   <trkpt lat="18.273760018899836" lon="109.5049587138922">
    <ele>8.14</ele>
   </trkpt>
   <trkpt lat="18.273160015122077" lon="109.50426247111692">
    <ele>8.610000000000001</ele>
   </trkpt>
   <trkpt lat="18.272560008825316" lon="109.50356623315666">
    <ele>9.200000000000001</ele>
   </trkpt>
   <trkpt lat="18.27196" lon="109.50287000000002">
    <ele>9.91</ele>
   </trkpt>
   <trkpt lat="18.27141889722513" lon="109.50223665086907">
    <ele>10.42</ele>
   </trkpt>
   <trkpt lat="18.270877792365972" lon="109.5016033056878">
    <ele>10.350000000000001</ele>
   </trkpt>
   <trkpt lat="18.27033668542261" lon="109.50096996445605">
    <ele>10.17</ele>
   </trkpt>
   <trkpt lat="18.269795576395122" lon="109.5003366271737">
    <ele>10.15</ele>
   </trkpt>
   <trkpt lat="18.269254465283588" lon="109.49970329384064">
    <ele>10.280000000000001</ele>
   </trkpt>
   <trkpt lat="18.268713352088078" lon="109.49906996445668">
    <ele>9.780000000000001</ele>
   </trkpt>
   <trkpt lat="18.26817223680868" lon="109.49843663902175">
    <ele>9.13</ele>
   </trkpt>
   <trkpt lat="18.26763111944548" lon="109.49780331753566">
    <ele>8.990000000000002</ele>
   </trkpt>
   <trkpt lat="18.267090000000003" lon="109.49717000000001">
    <ele>8.910000000000002</ele>
   </trkpt>
   <trkpt lat="18.266530005776232" lon="109.49650332258543">
    <ele>9.91</ele>
   </trkpt>
   <trkpt lat="18.26597000924357" lon="109.49583664947225">
    <ele>10.650000000000002</ele>
   </trkpt>
   <trkpt lat="18.265410010402128" lon="109.49516998066036">
    <ele>9.160000000000002</ele>
   </trkpt>
   <trkpt lat="18.264850009251973" lon="109.4945033161496">
    <ele>8.100000000000001</ele>
   </trkpt>
   <trkpt lat="18.264290005793214" lon="109.49383665593982">
    <ele>8.17</ele>
   </trkpt>
   <trkpt lat="18.263730000000002" lon="109.49317">
    <ele>9.32</ele>
   </trkpt>
   <trkpt lat="18.263167503254667" lon="109.49252249369329">
    <ele>8.780000000000001</ele>
   </trkpt>
   <trkpt lat="18.26260500433168" lon="109.49187499158212">
    <ele>8.540000000000001</ele>
   </trkpt>
   <trkpt lat="18.26204250323111" lon="109.49122749366641">
    <ele>7.8100000000000005</ele>
   </trkpt>
   <trkpt lat="18.261480000000002" lon="109.49058000000001">
    <ele>7.260000000000001</ele>
   </trkpt>
   <trkpt lat="18.261200000000002" lon="109.49035">
    <ele>6.72</ele>
   </trkpt>
   <trkpt lat="18.260740000313824" lon="109.49072000101368">
    <ele>6.7700000000000005</ele>
   </trkpt>
   <trkpt lat="18.26028" lon="109.49109000000001">
    <ele>6.760000000000001</ele>
   </trkpt>
   <trkpt lat="18.25957000154905" lon="109.49163667113893">
    <ele>6.85</ele>
   </trkpt>
   <trkpt lat="18.25886000154614" lon="109.49218333780776">
    <ele>6.82</ele>
   </trkpt>
   <trkpt lat="18.25815" lon="109.49273000000001">
    <ele>6.95</ele>
   </trkpt>
   <trkpt lat="18.25748666800609" lon="109.49322667041665">
    <ele>6.880000000000001</ele>
   </trkpt>
   <trkpt lat="18.256823334731266" lon="109.49372333703946">
    <ele>6.890000000000001</ele>
   </trkpt>
   <trkpt lat="18.25616" lon="109.49422000000001">
    <ele>6.930000000000001</ele>
   </trkpt>
   <trkpt lat="18.255610000094446" lon="109.49450000094212">
    <ele>6.95</ele>
   </trkpt>
   <trkpt lat="18.25506" lon="109.49478">
    <ele>6.960000000000001</ele>
   </trkpt>
   <trkpt lat="18.25488" lon="109.49489000000001">
    <ele>6.86</ele>
   </trkpt>
   <trkpt lat="18.254640000000002" lon="109.49502000000001">
    <ele>6.86</ele>
   </trkpt>
   <trkpt lat="18.253985000757055" lon="109.49533000350245">
    <ele>6.72</ele>
   </trkpt>
   <trkpt lat="18.25333000101517" lon="109.49564000466712">
    <ele>6.66</ele>
   </trkpt>
   <trkpt lat="18.25267500077437" lon="109.49595000349414">
    <ele>6.83</ele>
   </trkpt>
   <trkpt lat="18.25202" lon="109.49626">
    <ele>6.78</ele>
   </trkpt>
   <trkpt lat="18.251910000000002" lon="109.4963">
    <ele>6.760000000000001</ele>
   </trkpt>
   <trkpt lat="18.251132000325793" lon="109.496482003264">
    <ele>6.59</ele>
   </trkpt>
   <trkpt lat="18.250354000479632" lon="109.49666400489801">
    <ele>6.410000000000001</ele>
   </trkpt>
   <trkpt lat="18.249576000461527" lon="109.49684600490215">
    <ele>6.49</ele>
   </trkpt>
   <trkpt lat="18.24879800027149" lon="109.49702800327653">
    <ele>6.46</ele>
   </trkpt>
   <trkpt lat="18.24802" lon="109.49721000000001">
    <ele>6.790000000000001</ele>
   </trkpt>
   <trkpt lat="18.24764" lon="109.49726000000001">
    <ele>6.7700000000000005</ele>
   </trkpt>
   <trkpt lat="18.247130000000002" lon="109.49736000000001">
    <ele>6.59</ele>
   </trkpt>
   <trkpt lat="18.246830000000003" lon="109.49747">
    <ele>6.4</ele>
   </trkpt>
   <trkpt lat="18.24659" lon="109.4976">
    <ele>6.260000000000001</ele>
   </trkpt>
   <trkpt lat="18.245880000000003" lon="109.49794000000001">
    <ele>6.34</ele>
   </trkpt>
   <trkpt lat="18.24539000007764" lon="109.49815000060784">
    <ele>6.3500000000000005</ele>
   </trkpt>
   <trkpt lat="18.2449" lon="109.49836">
    <ele>6.390000000000001</ele>
   </trkpt>
   <trkpt lat="18.24456" lon="109.49851000000001">
    <ele>6.540000000000001</ele>
   </trkpt>
   <trkpt lat="18.243810000003" lon="109.49869000079615">
    <ele>6.78</ele>
   </trkpt>
   <trkpt lat="18.24306" lon="109.49887000000001">
    <ele>7.010000000000001</ele>
   </trkpt>
   <trkpt lat="18.24247000005849" lon="109.49897000033391">
    <ele>6.53</ele>
   </trkpt>
   <trkpt lat="18.241880000000002" lon="109.49907">
    <ele>6.840000000000001</ele>
   </trkpt>
   <trkpt lat="18.242055001402562" lon="109.49980499926421">
    <ele>6.710000000000001</ele>
   </trkpt>
   <trkpt lat="18.242230000000003" lon="109.50054000000002">
    <ele>7.83</ele>
   </trkpt>
   <trkpt lat="18.242373335505757" lon="109.50118999883779">
    <ele>7.78</ele>
   </trkpt>
   <trkpt lat="18.24251666881918" lon="109.50183999874751">
    <ele>8.09</ele>
   </trkpt>
   <trkpt lat="18.24266" lon="109.50249000000001">
    <ele>8.64</ele>
   </trkpt>
   <trkpt lat="18.24187250019128" lon="109.50265250221129">
    <ele>8.09</ele>
   </trkpt>
   <trkpt lat="18.241085000245548" lon="109.5028150029503">
    <ele>8.47</ele>
   </trkpt>
   <trkpt lat="18.240297500162793" lon="109.50297750221708">
    <ele>8.26</ele>
   </trkpt>
   <trkpt lat="18.239510000000003" lon="109.50314">
    <ele>8.55</ele>
   </trkpt>
   <trkpt lat="18.238910000183566" lon="109.50327500043521">
    <ele>8.180000000000001</ele>
   </trkpt>
   <trkpt lat="18.238310000000002" lon="109.50341">
    <ele>8.51</ele>
   </trkpt>
   <trkpt lat="18.23815" lon="109.50346">
    <ele>8.280000000000001</ele>
   </trkpt>
   <trkpt lat="18.238100000000003" lon="109.5035">
    <ele>8.280000000000001</ele>
   </trkpt>
   <trkpt lat="18.238020000000002" lon="109.50359">
    <ele>8.06</ele>
   </trkpt>
   <trkpt lat="18.237910000000003" lon="109.50384000000001">
    <ele>7.55</ele>
   </trkpt>
   <trkpt lat="18.237640002363545" lon="109.50451333539567">
    <ele>7.69</ele>
   </trkpt>
   <trkpt lat="18.237370002375062" lon="109.50518666870023">
    <ele>8.26</ele>
   </trkpt>
   <trkpt lat="18.2371" lon="109.50586000000001">
    <ele>8.88</ele>
   </trkpt>
   <trkpt lat="18.236833335930573" lon="109.50656666881636">
    <ele>10.83</ele>
   </trkpt>
   <trkpt lat="18.23656666927057" lon="109.50727333546533">
    <ele>10.860000000000001</ele>
   </trkpt>
   <trkpt lat="18.2363" lon="109.50798">
    <ele>9.15</ele>
   </trkpt>
   <trkpt lat="18.23601750367259" lon="109.50866750336311">
    <ele>8.25</ele>
   </trkpt>
   <trkpt lat="18.235735004893304" lon="109.50935500449249">
    <ele>7.87</ele>
   </trkpt>
   <trkpt lat="18.235452503662213" lon="109.51004250338822">
    <ele>8.040000000000001</ele>
   </trkpt>
   <trkpt lat="18.23517" lon="109.51073000000001">
    <ele>8.34</ele>
   </trkpt>
   <trkpt lat="18.234855001674887" lon="109.5115350014729">
    <ele>10.5</ele>
   </trkpt>
   <trkpt lat="18.234540000000003" lon="109.51234000000001">
    <ele>9.44</ele>
   </trkpt>
   <trkpt lat="18.23432000074787" lon="109.51287500066326">
    <ele>8.4</ele>
   </trkpt>
   <trkpt lat="18.2341" lon="109.51341000000001">
    <ele>8.15</ele>
   </trkpt>
   <trkpt lat="18.23402" lon="109.51356000000001">
    <ele>8.200000000000001</ele>
   </trkpt>
   <trkpt lat="18.23392" lon="109.51364000000001">
    <ele>7.9</ele>
   </trkpt>
   <trkpt lat="18.233520000000002" lon="109.51367">
    <ele>6.890000000000001</ele>
   </trkpt>
   <trkpt lat="18.233040000000003" lon="109.51358">
    <ele>6.74</ele>
   </trkpt>
   <trkpt lat="18.232680000000002" lon="109.51358">
    <ele>6.72</ele>
   </trkpt>
   <trkpt lat="18.23225" lon="109.51364000000001">
    <ele>6.69</ele>
   </trkpt>
   <trkpt lat="18.23152" lon="109.5139">
    <ele>5.9799999999999995</ele>
   </trkpt>
   <trkpt lat="18.23122" lon="109.51398">
    <ele>5.91</ele>
   </trkpt>
   <trkpt lat="18.23044" lon="109.51412">
    <ele>6.55</ele>
   </trkpt>
   <trkpt lat="18.22992" lon="109.51417000000001">
    <ele>8.530000000000001</ele>
   </trkpt>
   <trkpt lat="18.22953" lon="109.51416">
    <ele>9.330000000000002</ele>
   </trkpt>
   <trkpt lat="18.22907" lon="109.51404000000001">
    <ele>11.0</ele>
   </trkpt>
   <trkpt lat="18.22898" lon="109.51397000000001">
    <ele>10.780000000000001</ele>
   </trkpt>
   <trkpt lat="18.228830000000002" lon="109.51379000000001">
    <ele>10.26</ele>
   </trkpt>
   <trkpt lat="18.228820000000002" lon="109.51361000000001">
    <ele>9.160000000000002</ele>
   </trkpt>
   <trkpt lat="18.22876" lon="109.51333000000001">
    <ele>8.51</ele>
   </trkpt>
   <trkpt lat="18.2286" lon="109.51302000000001">
    <ele>7.91</ele>
   </trkpt>
   <trkpt lat="18.22848" lon="109.51289000000001">
    <ele>7.680000000000001</ele>
   </trkpt>
   <trkpt lat="18.227915000567968" lon="109.51246999871829">
    <ele>7.800000000000001</ele>
   </trkpt>
   <trkpt lat="18.22735" lon="109.51205">
    <ele>7.640000000000001</ele>
   </trkpt>
   <trkpt lat="18.227030000000003" lon="109.51172000000001">
    <ele>7.53</ele>
   </trkpt>
   <trkpt lat="18.226850000000002" lon="109.51151000000002">
    <ele>7.450000000000001</ele>
   </trkpt>
   <trkpt lat="18.226550000000003" lon="109.51088000000001">
    <ele>7.21</ele>
   </trkpt>
   <trkpt lat="18.226370000000003" lon="109.51">
    <ele>6.5600000000000005</ele>
   </trkpt>
   <trkpt lat="18.22623" lon="109.50915">
    <ele>6.9</ele>
   </trkpt>
   <trkpt lat="18.226100000754847" lon="109.5085999994648">
    <ele>7.1000000000000005</ele>
   </trkpt>
   <trkpt lat="18.22597" lon="109.50805000000001">
    <ele>7.490000000000001</ele>
   </trkpt>
   <trkpt lat="18.22598" lon="109.50782000000001">
    <ele>7.42</ele>
   </trkpt>
   <trkpt lat="18.226020000000002" lon="109.50749">
    <ele>7.12</ele>
   </trkpt>
   <trkpt lat="18.22622" lon="109.50675000000001">
    <ele>6.760000000000001</ele>
   </trkpt>
   <trkpt lat="18.226270000000003" lon="109.50648000000001">
    <ele>6.73</ele>
   </trkpt>
   <trkpt lat="18.22631" lon="109.50592">
    <ele>6.760000000000001</ele>
   </trkpt>
   <trkpt lat="18.22632" lon="109.50502000000002">
    <ele>6.36</ele>
   </trkpt>
   <trkpt lat="18.22635" lon="109.50471">
    <ele>6.34</ele>
   </trkpt>
   <trkpt lat="18.226460000000003" lon="109.50447000000001">
    <ele>6.540000000000001</ele>
   </trkpt>
   <trkpt lat="18.226570000000002" lon="109.50431">
    <ele>6.760000000000001</ele>
   </trkpt>
   <trkpt lat="18.227145000282132" lon="109.50391500138947">
    <ele>8.780000000000001</ele>
   </trkpt>
   <trkpt lat="18.22772" lon="109.50352000000001">
    <ele>9.860000000000001</ele>
   </trkpt>
   <trkpt lat="18.22831" lon="109.50308000000001">
    <ele>10.85</ele>
   </trkpt>
   <trkpt lat="18.229026001705076" lon="109.5026740066867">
    <ele>8.83</ele>
   </trkpt>
   <trkpt lat="18.229742002555394" lon="109.50226801003149">
    <ele>6.0600000000000005</ele>
   </trkpt>
   <trkpt lat="18.230458002550897" lon="109.50186201003423">
    <ele>6.33</ele>
   </trkpt>
   <trkpt lat="18.231174001691553" lon="109.50145600669474">
    <ele>7.180000000000001</ele>
   </trkpt>
   <trkpt lat="18.23189" lon="109.50105">
    <ele>8.26</ele>
   </trkpt>
   <trkpt lat="18.23215" lon="109.50084000000001">
    <ele>8.43</ele>
   </trkpt>
   <trkpt lat="18.232660000000003" lon="109.50011">
    <ele>8.200000000000001</ele>
   </trkpt>
   <trkpt lat="18.232840000000003" lon="109.49971000000001">
    <ele>7.99</ele>
   </trkpt>
   <trkpt lat="18.232930000000003" lon="109.49940000000001">
    <ele>7.59</ele>
   </trkpt>
   <trkpt lat="18.23302000079226" lon="109.49885500014894">
    <ele>7.21</ele>
   </trkpt>
   <trkpt lat="18.23311" lon="109.49831">
    <ele>6.86</ele>
   </trkpt>
   <trkpt lat="18.23311" lon="109.49830000000001">
    <ele>6.86</ele>
   </trkpt>
   <trkpt lat="18.23319000058447" lon="109.49781500037801">
    <ele>6.83</ele>
   </trkpt>
   <trkpt lat="18.23327" lon="109.49733">
    <ele>6.960000000000001</ele>
   </trkpt>
   <trkpt lat="18.23335" lon="109.49674">
    <ele>7.03</ele>
   </trkpt>
   <trkpt lat="18.233310000000003" lon="109.49639">
    <ele>7.08</ele>
   </trkpt>
   <trkpt lat="18.233210000000003" lon="109.49598">
    <ele>6.920000000000001</ele>
   </trkpt>
   <trkpt lat="18.23301" lon="109.49552000000001">
    <ele>6.800000000000001</ele>
   </trkpt>
   <trkpt lat="18.2326900008694" lon="109.4949299988531">
    <ele>6.95</ele>
   </trkpt>
   <trkpt lat="18.232370000000003" lon="109.49434000000001">
    <ele>7.280000000000001</ele>
   </trkpt>
   <trkpt lat="18.23197" lon="109.49365">
    <ele>8.200000000000001</ele>
   </trkpt>
   <trkpt lat="18.231700000613596" lon="109.49320999949883">
    <ele>8.34</ele>
   </trkpt>
   <trkpt lat="18.231430000000003" lon="109.49277000000001">
    <ele>8.21</ele>
   </trkpt>
   <trkpt lat="18.230966667983004" lon="109.49225666387636">
    <ele>7.630000000000001</ele>
   </trkpt>
   <trkpt lat="18.23050333459939" lon="109.49174333048737">
    <ele>7.5200000000000005</ele>
   </trkpt>
   <trkpt lat="18.230040000000002" lon="109.49123000000002">
    <ele>7.490000000000001</ele>
   </trkpt>
   <trkpt lat="18.229740000000003" lon="109.49074">
    <ele>7.490000000000001</ele>
   </trkpt>
   <trkpt lat="18.229390000000002" lon="109.49007">
    <ele>7.840000000000002</ele>
   </trkpt>
   <trkpt lat="18.229280000000003" lon="109.4899">
    <ele>7.840000000000002</ele>
   </trkpt>
   <trkpt lat="18.22914" lon="109.48978000000001">
    <ele>7.8900000000000015</ele>
   </trkpt>
   <trkpt lat="18.229000000000003" lon="109.48972">
    <ele>7.94</ele>
   </trkpt>
   <trkpt lat="18.228830000000002" lon="109.48967">
    <ele>8.06</ele>
   </trkpt>
   <trkpt lat="18.22832" lon="109.48961000000001">
    <ele>7.99</ele>
   </trkpt>
   <trkpt lat="18.22803" lon="109.48964000000001">
    <ele>8.09</ele>
   </trkpt>
   <trkpt lat="18.227580000000003" lon="109.48976">
    <ele>8.120000000000001</ele>
   </trkpt>
   <trkpt lat="18.227110000000003" lon="109.49003">
    <ele>8.38</ele>
   </trkpt>
   <trkpt lat="18.22641" lon="109.49052">
    <ele>8.780000000000001</ele>
   </trkpt>
   <trkpt lat="18.226210000000002" lon="109.49071">
    <ele>9.56</ele>
   </trkpt>
   <trkpt lat="18.22575" lon="109.49139000000001">
    <ele>13.99</ele>
   </trkpt>
   <trkpt lat="18.22559" lon="109.49176000000001">
    <ele>15.330000000000002</ele>
   </trkpt>
   <trkpt lat="18.225343337346878" lon="109.49264000250037">
    <ele>18.85</ele>
   </trkpt>
   <trkpt lat="18.22509667067866" lon="109.49352000250585">
    <ele>19.57</ele>
   </trkpt>
   <trkpt lat="18.22485" lon="109.49440000000001">
    <ele>17.150000000000002</ele>
   </trkpt>
   <trkpt lat="18.224580000000003" lon="109.49489000000001">
    <ele>15.360000000000001</ele>
   </trkpt>
   <trkpt lat="18.22445" lon="109.49508000000002">
    <ele>15.360000000000001</ele>
   </trkpt>
   <trkpt lat="18.224220000000003" lon="109.49533000000001">
    <ele>14.040000000000001</ele>
   </trkpt>
   <trkpt lat="18.223940000000002" lon="109.49554">
    <ele>12.97</ele>
   </trkpt>
   <trkpt lat="18.2235" lon="109.49577000000001">
    <ele>11.9</ele>
   </trkpt>
   <trkpt lat="18.222990000000003" lon="109.49588000000001">
    <ele>11.4</ele>
   </trkpt>
   <trkpt lat="18.222170000000002" lon="109.49592000000001">
    <ele>10.74</ele>
   </trkpt>
   <trkpt lat="18.221334999986436" lon="109.49593500007225">
    <ele>10.17</ele>
   </trkpt>
   <trkpt lat="18.2205" lon="109.49595000000001">
    <ele>9.53</ele>
   </trkpt>
   <trkpt lat="18.21991499992962" lon="109.49595000000001">
    <ele>8.76</ele>
   </trkpt>
   <trkpt lat="18.219330000000003" lon="109.49595000000001">
    <ele>8.450000000000001</ele>
   </trkpt>
   <trkpt lat="18.21865" lon="109.49585">
    <ele>7.660000000000001</ele>
   </trkpt>
   <trkpt lat="18.21809" lon="109.49564000000001">
    <ele>7.6000000000000005</ele>
   </trkpt>
   <trkpt lat="18.21742" lon="109.49528000000001">
    <ele>8.049999999999999</ele>
   </trkpt>
   <trkpt lat="18.21721" lon="109.49579000000001">
    <ele>7.5</ele>
   </trkpt>
   <trkpt lat="18.21716" lon="109.49599">
    <ele>7.53</ele>
   </trkpt>
   <trkpt lat="18.21714" lon="109.49654000000001">
    <ele>8.07</ele>
   </trkpt>
   <trkpt lat="18.21724" lon="109.49734000000001">
    <ele>10.730000000000002</ele>
   </trkpt>
   <trkpt lat="18.217270000000003" lon="109.49746">
    <ele>11.09</ele>
   </trkpt>
   <trkpt lat="18.21716" lon="109.49744000000001">
    <ele>10.89</ele>
   </trkpt>
   <trkpt lat="18.216540000000002" lon="109.49746">
    <ele>9.760000000000002</ele>
   </trkpt>
   <trkpt lat="18.215715000133592" lon="109.49757000050761">
    <ele>9.35</ele>
   </trkpt>
   <trkpt lat="18.21489" lon="109.49768">
    <ele>9.05</ele>
   </trkpt>
   <trkpt lat="18.21441999984782" lon="109.49774500019801">
    <ele>8.75</ele>
   </trkpt>
   <trkpt lat="18.21395" lon="109.49781000000002">
    <ele>8.57</ele>
   </trkpt>
   <trkpt lat="18.213800000743298" lon="109.49727499954518">
    <ele>8.55</ele>
   </trkpt>
   <trkpt lat="18.21365" lon="109.49674">
    <ele>8.67</ele>
   </trkpt>
   <trkpt lat="18.213510000000003" lon="109.49636000000001">
    <ele>8.67</ele>
   </trkpt>
   <trkpt lat="18.2134" lon="109.49615000000001">
    <ele>8.540000000000001</ele>
   </trkpt>
  </trkseg>
 </trk>
</gpx>
