<?xml version="1.0" encoding="UTF-8"?>
<gpx creator="StravaGPX" version="1.1" xmlns="http://www.topografix.com/GPX/1/1" xmlns:xsi="http://www.w3.org/2001/XMLSchema-instance" xsi:schemaLocation="http://www.topografix.com/GPX/1/1 http://www.topografix.com/GPX/1/1/gpx.xsd">
 <metadata>
  <name>Hainan: Haitang bay</name>
  <author>
   <name>Vladimir Sumarokov 🇰🇿🇷🇺🇹🇭</name>
   <link href="https://www.strava.com/athletes/16069938"/>
  </author>
  <copyright author="OpenStreetMap contributors">
   <year>2020</year>
   <license>https://www.openstreetmap.org/copyright</license>
  </copyright>
  <link href="https://www.strava.com/routes/3292917338218159178"/>
 </metadata>
 <trk>
  <name>Hainan: Haitang bay</name>
  <link href="https://www.strava.com/routes/3292917338218159178"/>
  <type>cycling</type>
  <trkseg>
   <trkpt lat="18.21346" lon="109.49626">
    <ele>8.63</ele>
   </trkpt>
   <trkpt lat="18.21365" lon="109.49674">
    <ele>8.67</ele>
   </trkpt>
   <trkpt lat="18.213800000739912" lon="109.49727499953312">
    <ele>8.55</ele>
   </trkpt>
   <trkpt lat="18.21395" lon="109.49781000000002">
    <ele>8.57</ele>
   </trkpt>
   <trkpt lat="18.214420000174073" lon="109.49774500015292">
    <ele>8.75</ele>
   </trkpt>
   <trkpt lat="18.21489" lon="109.49768">
    <ele>9.05</ele>
   </trkpt>
   <trkpt lat="18.215714999929112" lon="109.49757000053485">
    <ele>9.35</ele>
   </trkpt>
   <trkpt lat="18.216540000000002" lon="109.49746">
    <ele>9.760000000000002</ele>
   </trkpt>
   <trkpt lat="18.21716" lon="109.49744000000001">
    <ele>10.89</ele>
   </trkpt>
   <trkpt lat="18.21791" lon="109.49758000000001">
    <ele>12.610000000000001</ele>
   </trkpt>
   <trkpt lat="18.21855" lon="109.49783000000001">
    <ele>16.94</ele>
   </trkpt>
   <trkpt lat="18.219130000376722" lon="109.49819499880363">
    <ele>22.78</ele>
   </trkpt>
   <trkpt lat="18.219710000000003" lon="109.49856000000001">
    <ele>28.41</ele>
   </trkpt>
   <trkpt lat="18.220060000201627" lon="109.49888999926044">
    <ele>32.81</ele>
   </trkpt>
   <trkpt lat="18.22041" lon="109.49922000000001">
    <ele>35.93</ele>
   </trkpt>
   <trkpt lat="18.220880001230654" lon="109.49971666393353">
    <ele>40.150000000000006</ele>
   </trkpt>
   <trkpt lat="18.221350001182614" lon="109.5002133305494">
    <ele>45.95</ele>
   </trkpt>
   <trkpt lat="18.22182" lon="109.50071000000001">
    <ele>50.440000000000005</ele>
   </trkpt>
   <trkpt lat="18.22204" lon="109.50112000000001">
    <ele>53.21000000000001</ele>
   </trkpt>
   <trkpt lat="18.222150000000003" lon="109.50144">
    <ele>55.17</ele>
   </trkpt>
   <trkpt lat="18.2222" lon="109.50181">
    <ele>56.120000000000005</ele>
   </trkpt>
   <trkpt lat="18.2222" lon="109.50198">
    <ele>56.39</ele>
   </trkpt>
   <trkpt lat="18.222160000000002" lon="109.50212">
    <ele>56.45</ele>
   </trkpt>
   <trkpt lat="18.221785001270444" lon="109.50282500155252">
    <ele>55.870000000000005</ele>
   </trkpt>
   <trkpt lat="18.221410000000002" lon="109.50353000000001">
    <ele>55.580000000000005</ele>
   </trkpt>
   <trkpt lat="18.221070000721493" lon="109.50406000104557">
    <ele>55.31</ele>
   </trkpt>
   <trkpt lat="18.220730000000003" lon="109.50459000000001">
    <ele>54.64</ele>
   </trkpt>
   <trkpt lat="18.22058" lon="109.50496000000001">
    <ele>54.1</ele>
   </trkpt>
   <trkpt lat="18.22052" lon="109.50535">
    <ele>53.45</ele>
   </trkpt>
   <trkpt lat="18.22052" lon="109.50564000000001">
    <ele>52.61</ele>
   </trkpt>
   <trkpt lat="18.220550000000003" lon="109.50596000000002">
    <ele>52.02</ele>
   </trkpt>
   <trkpt lat="18.220650000000003" lon="109.50623">
    <ele>50.92000000000001</ele>
   </trkpt>
   <trkpt lat="18.2208" lon="109.50649000000001">
    <ele>50.68</ele>
   </trkpt>
   <trkpt lat="18.221210000000003" lon="109.50699000000002">
    <ele>48.43</ele>
   </trkpt>
   <trkpt lat="18.221330000000002" lon="109.50720000000001">
    <ele>47.550000000000004</ele>
   </trkpt>
   <trkpt lat="18.22136" lon="109.5074">
    <ele>46.77</ele>
   </trkpt>
   <trkpt lat="18.22137" lon="109.50803">
    <ele>44.14000000000001</ele>
   </trkpt>
   <trkpt lat="18.221500000000002" lon="109.50839">
    <ele>42.9</ele>
   </trkpt>
   <trkpt lat="18.22192" lon="109.50893">
    <ele>40.63</ele>
   </trkpt>
   <trkpt lat="18.222320000392127" lon="109.50935999891806">
    <ele>39.05</ele>
   </trkpt>
   <trkpt lat="18.222720000000002" lon="109.50979000000001">
    <ele>36.36</ele>
   </trkpt>
   <trkpt lat="18.223200000000002" lon="109.51051000000001">
    <ele>32.910000000000004</ele>
   </trkpt>
   <trkpt lat="18.223705000215794" lon="109.51081999907996">
    <ele>29.7</ele>
   </trkpt>
   <trkpt lat="18.224210000000003" lon="109.51113000000001">
    <ele>26.950000000000003</ele>
   </trkpt>
   <trkpt lat="18.22436" lon="109.51127000000001">
    <ele>26.0</ele>
   </trkpt>
   <trkpt lat="18.22448" lon="109.51143">
    <ele>24.37</ele>
   </trkpt>
   <trkpt lat="18.224783336308494" lon="109.51218999730152">
    <ele>21.16</ele>
   </trkpt>
   <trkpt lat="18.22508666962235" lon="109.51294999725265">
    <ele>17.6</ele>
   </trkpt>
   <trkpt lat="18.22539" lon="109.51371">
    <ele>16.360000000000003</ele>
   </trkpt>
   <trkpt lat="18.22576" lon="109.51427000000001">
    <ele>15.690000000000003</ele>
   </trkpt>
   <trkpt lat="18.226265000620863" lon="109.51473999868077">
    <ele>15.620000000000001</ele>
   </trkpt>
   <trkpt lat="18.226770000000002" lon="109.51521000000001">
    <ele>16.0</ele>
   </trkpt>
   <trkpt lat="18.226940000000003" lon="109.51532">
    <ele>16.23</ele>
   </trkpt>
   <trkpt lat="18.227359999970552" lon="109.51552499943759">
    <ele>16.900000000000002</ele>
   </trkpt>
   <trkpt lat="18.227780000000003" lon="109.51573">
    <ele>17.41</ele>
   </trkpt>
   <trkpt lat="18.227690000000003" lon="109.51589000000001">
    <ele>16.93</ele>
   </trkpt>
   <trkpt lat="18.227386668988718" lon="109.5165566689528">
    <ele>14.83</ele>
   </trkpt>
   <trkpt lat="18.22708333567286" lon="109.51722333558101">
    <ele>13.520000000000001</ele>
   </trkpt>
   <trkpt lat="18.22678" lon="109.51789000000001">
    <ele>13.030000000000001</ele>
   </trkpt>
   <trkpt lat="18.226380001825778" lon="109.51871500177027">
    <ele>13.1</ele>
   </trkpt>
   <trkpt lat="18.22598" lon="109.51954">
    <ele>13.500000000000002</ele>
   </trkpt>
   <trkpt lat="18.22594" lon="109.51967">
    <ele>13.64</ele>
   </trkpt>
   <trkpt lat="18.225645001094676" lon="109.52032500114943">
    <ele>13.82</ele>
   </trkpt>
   <trkpt lat="18.225350000000002" lon="109.52098000000001">
    <ele>14.120000000000001</ele>
   </trkpt>
   <trkpt lat="18.22523" lon="109.52136000000002">
    <ele>14.430000000000001</ele>
   </trkpt>
   <trkpt lat="18.22521" lon="109.52168">
    <ele>14.46</ele>
   </trkpt>
   <trkpt lat="18.22521000485369" lon="109.52247000004306">
    <ele>14.88</ele>
   </trkpt>
   <trkpt lat="18.225210006471592" lon="109.52326000008614">
    <ele>14.92</ele>
   </trkpt>
   <trkpt lat="18.22521000485369" lon="109.52405000012924">
    <ele>14.96</ele>
   </trkpt>
   <trkpt lat="18.22521" lon="109.52484000000001">
    <ele>14.51</ele>
   </trkpt>
   <trkpt lat="18.225250000000003" lon="109.52517">
    <ele>13.840000000000002</ele>
   </trkpt>
   <trkpt lat="18.225330000000003" lon="109.52538000000001">
    <ele>13.840000000000002</ele>
   </trkpt>
   <trkpt lat="18.225440000000003" lon="109.52556000000001">
    <ele>13.56</ele>
   </trkpt>
   <trkpt lat="18.22556" lon="109.52571">
    <ele>13.510000000000002</ele>
   </trkpt>
   <trkpt lat="18.22612125708462" lon="109.52633498588213">
    <ele>12.34</ele>
   </trkpt>
   <trkpt lat="18.22668251214394" lon="109.52695997579623">
    <ele>11.64</ele>
   </trkpt>
   <trkpt lat="18.22724376517789" lon="109.52758496974242">
    <ele>10.64</ele>
   </trkpt>
   <trkpt lat="18.22780501618638" lon="109.52820996772088">
    <ele>9.83</ele>
   </trkpt>
   <trkpt lat="18.22836626516933" lon="109.52883496973173">
    <ele>9.170000000000002</ele>
   </trkpt>
   <trkpt lat="18.22892751212667" lon="109.52945997577514">
    <ele>8.860000000000001</ele>
   </trkpt>
   <trkpt lat="18.229488757058316" lon="109.53008498585122">
    <ele>8.56</ele>
   </trkpt>
   <trkpt lat="18.230050000000002" lon="109.53071000000001">
    <ele>8.42</ele>
   </trkpt>
   <trkpt lat="18.230640002349492" lon="109.5313799954794">
    <ele>8.270000000000001</ele>
   </trkpt>
   <trkpt lat="18.231230002370967" lon="109.5320499955037">
    <ele>7.96</ele>
   </trkpt>
   <trkpt lat="18.231820000000003" lon="109.53272000000001">
    <ele>7.99</ele>
   </trkpt>
   <trkpt lat="18.23194" lon="109.53293000000001">
    <ele>7.99</ele>
   </trkpt>
   <trkpt lat="18.23214" lon="109.53341">
    <ele>8.280000000000001</ele>
   </trkpt>
   <trkpt lat="18.23241" lon="109.53410000000001">
    <ele>8.48</ele>
   </trkpt>
   <trkpt lat="18.232670000000002" lon="109.53490000000001">
    <ele>8.74</ele>
   </trkpt>
   <trkpt lat="18.23282" lon="109.53529">
    <ele>8.910000000000002</ele>
   </trkpt>
   <trkpt lat="18.232940000000003" lon="109.53552">
    <ele>9.15</ele>
   </trkpt>
   <trkpt lat="18.23308" lon="109.53572000000001">
    <ele>10.0</ele>
   </trkpt>
   <trkpt lat="18.23335" lon="109.53603000000001">
    <ele>10.84</ele>
   </trkpt>
   <trkpt lat="18.233775000621954" lon="109.53643499919765">
    <ele>12.110000000000001</ele>
   </trkpt>
   <trkpt lat="18.2342" lon="109.53684000000001">
    <ele>12.8</ele>
   </trkpt>
   <trkpt lat="18.234580000436242" lon="109.53716499942868">
    <ele>12.55</ele>
   </trkpt>
   <trkpt lat="18.23496" lon="109.53749">
    <ele>11.45</ele>
   </trkpt>
   <trkpt lat="18.23517" lon="109.53771">
    <ele>11.09</ele>
   </trkpt>
   <trkpt lat="18.23533" lon="109.53794">
    <ele>10.48</ele>
   </trkpt>
   <trkpt lat="18.23546" lon="109.5382">
    <ele>10.370000000000001</ele>
   </trkpt>
   <trkpt lat="18.2357" lon="109.53891000000002">
    <ele>10.110000000000001</ele>
   </trkpt>
   <trkpt lat="18.235947505070623" lon="109.53971749654208">
    <ele>10.85</ele>
   </trkpt>
   <trkpt lat="18.236195006758805" lon="109.54052499538268">
    <ele>11.44</ele>
   </trkpt>
   <trkpt lat="18.236442505064502" lon="109.54133249652189">
    <ele>11.250000000000002</ele>
   </trkpt>
   <trkpt lat="18.236690000000003" lon="109.54214">
    <ele>10.33</ele>
   </trkpt>
   <trkpt lat="18.236810000000002" lon="109.54270000000001">
    <ele>10.200000000000001</ele>
   </trkpt>
   <trkpt lat="18.23686" lon="109.54302000000001">
    <ele>9.82</ele>
   </trkpt>
   <trkpt lat="18.236925001191683" lon="109.54369499985032">
    <ele>9.75</ele>
   </trkpt>
   <trkpt lat="18.236990000000002" lon="109.54437000000001">
    <ele>9.55</ele>
   </trkpt>
   <trkpt lat="18.23704000130725" lon="109.54507999979162">
    <ele>9.510000000000002</ele>
   </trkpt>
   <trkpt lat="18.237090000000002" lon="109.54579000000001">
    <ele>9.89</ele>
   </trkpt>
   <trkpt lat="18.237170000000003" lon="109.54620000000001">
    <ele>9.99</ele>
   </trkpt>
   <trkpt lat="18.237270000000002" lon="109.54653">
    <ele>10.280000000000001</ele>
   </trkpt>
   <trkpt lat="18.23743" lon="109.54689">
    <ele>10.39</ele>
   </trkpt>
   <trkpt lat="18.237630000000003" lon="109.54719000000001">
    <ele>11.240000000000002</ele>
   </trkpt>
   <trkpt lat="18.23806" lon="109.5477">
    <ele>12.950000000000001</ele>
   </trkpt>
   <trkpt lat="18.23863000410179" lon="109.54832799177521">
    <ele>15.18</ele>
   </trkpt>
   <trkpt lat="18.239200006157557" lon="109.54895598766792">
    <ele>16.150000000000002</ele>
   </trkpt>
   <trkpt lat="18.2397700061672" lon="109.54958398767829">
    <ele>15.92</ele>
   </trkpt>
   <trkpt lat="18.24034000413065" lon="109.5502119918065">
    <ele>15.55</ele>
   </trkpt>
   <trkpt lat="18.240910000000003" lon="109.55084000000001">
    <ele>15.150000000000002</ele>
   </trkpt>
   <trkpt lat="18.24114" lon="109.55119">
    <ele>15.320000000000002</ele>
   </trkpt>
   <trkpt lat="18.24154251232596" lon="109.55201373665362">
    <ele>16.009999999999998</ele>
   </trkpt>
   <trkpt lat="18.24194502113112" lon="109.5528374771218">
    <ele>16.560000000000002</ele>
   </trkpt>
   <trkpt lat="18.24234752641539" lon="109.5536612214046">
    <ele>17.18</ele>
   </trkpt>
   <trkpt lat="18.242750028178666" lon="109.55448496950211">
    <ele>16.59</ele>
   </trkpt>
   <trkpt lat="18.243152526420854" lon="109.55530872141439">
    <ele>16.790000000000003</ele>
   </trkpt>
   <trkpt lat="18.24355502114185" lon="109.55613247714153">
    <ele>17.46</ele>
   </trkpt>
   <trkpt lat="18.24395751234156" lon="109.5569562366836">
    <ele>18.37</ele>
   </trkpt>
   <trkpt lat="18.24436" lon="109.55778000000001">
    <ele>17.96</ele>
   </trkpt>
   <trkpt lat="18.244650000830557" lon="109.55833999909818">
    <ele>17.05</ele>
   </trkpt>
   <trkpt lat="18.244940000000003" lon="109.55890000000001">
    <ele>16.73</ele>
   </trkpt>
   <trkpt lat="18.245240000000003" lon="109.55933">
    <ele>15.530000000000001</ele>
   </trkpt>
   <trkpt lat="18.24558" lon="109.55972000000001">
    <ele>14.83</ele>
   </trkpt>
   <trkpt lat="18.24596" lon="109.56005">
    <ele>13.3</ele>
   </trkpt>
   <trkpt lat="18.24641" lon="109.56033000000001">
    <ele>11.950000000000001</ele>
   </trkpt>
   <trkpt lat="18.246930000000003" lon="109.56057000000001">
    <ele>10.51</ele>
   </trkpt>
   <trkpt lat="18.247500000000002" lon="109.56078000000001">
    <ele>9.65</ele>
   </trkpt>
   <trkpt lat="18.248362501610682" lon="109.5610174870312">
    <ele>9.040000000000001</ele>
   </trkpt>
   <trkpt lat="18.249225002928622" lon="109.56125497641987">
    <ele>8.790000000000001</ele>
   </trkpt>
   <trkpt lat="18.2500875039538" lon="109.56149246816624">
    <ele>9.13</ele>
   </trkpt>
   <trkpt lat="18.2509500046862" lon="109.56172996227036">
    <ele>10.06</ele>
   </trkpt>
   <trkpt lat="18.251812505125805" lon="109.56196745873243">
    <ele>10.620000000000001</ele>
   </trkpt>
   <trkpt lat="18.252675005272597" lon="109.56220495755257">
    <ele>10.440000000000001</ele>
   </trkpt>
   <trkpt lat="18.253537505126555" lon="109.5624424587309">
    <ele>11.040000000000001</ele>
   </trkpt>
   <trkpt lat="18.25440000468767" lon="109.56267996226761">
    <ele>12.560000000000002</ele>
   </trkpt>
   <trkpt lat="18.255262503955915" lon="109.56291746816284">
    <ele>14.030000000000001</ele>
   </trkpt>
   <trkpt lat="18.256125002931277" lon="109.5631549764167">
    <ele>14.810000000000002</ele>
   </trkpt>
   <trkpt lat="18.256987501613736" lon="109.56339248702933">
    <ele>14.55</ele>
   </trkpt>
   <trkpt lat="18.25785" lon="109.56363">
    <ele>14.100000000000001</ele>
   </trkpt>
   <trkpt lat="18.25834" lon="109.56380000000001">
    <ele>13.09</ele>
   </trkpt>
   <trkpt lat="18.258849999986413" lon="109.56399999936662">
    <ele>11.770000000000001</ele>
   </trkpt>
   <trkpt lat="18.25936" lon="109.56420000000001">
    <ele>10.3</ele>
   </trkpt>
   <trkpt lat="18.26010750080398" lon="109.56452249583252">
    <ele>9.49</ele>
   </trkpt>
   <trkpt lat="18.26085500106783" lon="109.56484499444146">
    <ele>9.11</ele>
   </trkpt>
   <trkpt lat="18.261602500791536" lon="109.56516749582698">
    <ele>8.950000000000001</ele>
   </trkpt>
   <trkpt lat="18.26235" lon="109.56549000000001">
    <ele>8.4</ele>
   </trkpt>
   <trkpt lat="18.26317571640879" lon="109.56585856091336">
    <ele>8.07</ele>
   </trkpt>
   <trkpt lat="18.264001432112025" lon="109.56622712533236">
    <ele>8.5</ele>
   </trkpt>
   <trkpt lat="18.26482714710967" lon="109.56659569325724">
    <ele>8.790000000000001</ele>
   </trkpt>
   <trkpt lat="18.265652861401684" lon="109.5669642646882">
    <ele>9.1</ele>
   </trkpt>
   <trkpt lat="18.266478574988028" lon="109.56733283962541">
    <ele>9.170000000000002</ele>
   </trkpt>
   <trkpt lat="18.267304287868654" lon="109.56770141806909">
    <ele>9.44</ele>
   </trkpt>
   <trkpt lat="18.268130000000003" lon="109.56807">
    <ele>9.58</ele>
   </trkpt>
   <trkpt lat="18.268918891437032" lon="109.56841998727296">
    <ele>9.540000000000001</ele>
   </trkpt>
   <trkpt lat="18.269707782237663" lon="109.56876997772753">
    <ele>9.22</ele>
   </trkpt>
   <trkpt lat="18.270496672401848" lon="109.56911997136383">
    <ele>8.46</ele>
   </trkpt>
   <trkpt lat="18.271285561929574" lon="109.56946996818212">
    <ele>7.96</ele>
   </trkpt>
   <trkpt lat="18.27207445082079" lon="109.56981996818251">
    <ele>6.99</ele>
   </trkpt>
   <trkpt lat="18.27286333907546" lon="109.57016997136522">
    <ele>7.16</ele>
   </trkpt>
   <trkpt lat="18.273652226693557" lon="109.57051997773038">
    <ele>7.08</ele>
   </trkpt>
   <trkpt lat="18.274441113675042" lon="109.57086998727821">
    <ele>6.69</ele>
   </trkpt>
   <trkpt lat="18.27523" lon="109.57122000000001">
    <ele>6.5</ele>
   </trkpt>
   <trkpt lat="18.2758" lon="109.57152">
    <ele>6.790000000000001</ele>
   </trkpt>
   <trkpt lat="18.27616" lon="109.57182">
    <ele>7.37</ele>
   </trkpt>
   <trkpt lat="18.276320000000002" lon="109.572">
    <ele>7.69</ele>
   </trkpt>
   <trkpt lat="18.27654" lon="109.57231000000002">
    <ele>8.360000000000001</ele>
   </trkpt>
   <trkpt lat="18.276690000000002" lon="109.57263">
    <ele>8.4</ele>
   </trkpt>
   <trkpt lat="18.276970005350975" lon="109.57334799534432">
    <ele>8.75</ele>
   </trkpt>
   <trkpt lat="18.277250008022587" lon="109.57406599300637">
    <ele>9.39</ele>
   </trkpt>
   <trkpt lat="18.277530008014786" lon="109.57478399298621">
    <ele>9.75</ele>
   </trkpt>
   <trkpt lat="18.277810005327513" lon="109.57550199528386">
    <ele>11.240000000000002</ele>
   </trkpt>
   <trkpt lat="18.278090000000002" lon="109.57622">
    <ele>11.959999999999999</ele>
   </trkpt>
   <trkpt lat="18.278270000000003" lon="109.57661">
    <ele>12.600000000000001</ele>
   </trkpt>
   <trkpt lat="18.278450000000003" lon="109.57693">
    <ele>12.870000000000001</ele>
   </trkpt>
   <trkpt lat="18.27867" lon="109.57723000000001">
    <ele>13.31</ele>
   </trkpt>
   <trkpt lat="18.27923667239636" lon="109.5778933225113">
    <ele>14.030000000000001</ele>
   </trkpt>
   <trkpt lat="18.279803342505613" lon="109.57855664935664">
    <ele>14.49</ele>
   </trkpt>
   <trkpt lat="18.280370010327676" lon="109.57921998053621">
    <ele>14.72</ele>
   </trkpt>
   <trkpt lat="18.28093667586245" lon="109.57988331605013">
    <ele>15.110000000000001</ele>
   </trkpt>
   <trkpt lat="18.281503339109854" lon="109.58054665589857">
    <ele>15.47</ele>
   </trkpt>
   <trkpt lat="18.28207" lon="109.58121000000001">
    <ele>15.450000000000001</ele>
   </trkpt>
   <trkpt lat="18.28219" lon="109.5814">
    <ele>15.73</ele>
   </trkpt>
   <trkpt lat="18.28243" lon="109.58197000000001">
    <ele>15.790000000000001</ele>
   </trkpt>
   <trkpt lat="18.28275" lon="109.58238000000001">
    <ele>15.72</ele>
   </trkpt>
   <trkpt lat="18.28299" lon="109.58309000000001">
    <ele>15.490000000000002</ele>
   </trkpt>
   <trkpt lat="18.283160000942654" lon="109.58367499960909">
    <ele>15.1</ele>
   </trkpt>
   <trkpt lat="18.283330000000003" lon="109.58426000000001">
    <ele>14.46</ele>
   </trkpt>
   <trkpt lat="18.283420000000003" lon="109.58470000000001">
    <ele>14.190000000000001</ele>
   </trkpt>
   <trkpt lat="18.283510000000003" lon="109.58559000000001">
    <ele>13.780000000000001</ele>
   </trkpt>
   <trkpt lat="18.28351429962185" lon="109.58653428558833">
    <ele>12.63</ele>
   </trkpt>
   <trkpt lat="18.283518594607866" lon="109.58747857122341">
    <ele>11.91</ele>
   </trkpt>
   <trkpt lat="18.28352288495805" lon="109.58842285690527">
    <ele>11.15</ele>
   </trkpt>
   <trkpt lat="18.2835271706724" lon="109.58936714263385">
    <ele>10.55</ele>
   </trkpt>
   <trkpt lat="18.28353145175092" lon="109.59031142840902">
    <ele>10.110000000000001</ele>
   </trkpt>
   <trkpt lat="18.283535728193602" lon="109.59125571423084">
    <ele>9.73</ele>
   </trkpt>
   <trkpt lat="18.283540000000002" lon="109.5922">
    <ele>10.990000000000002</ele>
   </trkpt>
   <trkpt lat="18.283540000702907" lon="109.59272000014181">
    <ele>12.07</ele>
   </trkpt>
   <trkpt lat="18.283540000000002" lon="109.59324000000001">
    <ele>12.280000000000001</ele>
   </trkpt>
   <trkpt lat="18.2835" lon="109.59398">
    <ele>13.83</ele>
   </trkpt>
   <trkpt lat="18.28338" lon="109.59452">
    <ele>15.05</ele>
   </trkpt>
   <trkpt lat="18.28328" lon="109.59484">
    <ele>15.63</ele>
   </trkpt>
   <trkpt lat="18.28304" lon="109.59532000000002">
    <ele>16.69</ele>
   </trkpt>
   <trkpt lat="18.282860000000003" lon="109.59563000000001">
    <ele>17.550000000000004</ele>
   </trkpt>
   <trkpt lat="18.28238000136987" lon="109.59636500208697">
    <ele>19.630000000000003</ele>
   </trkpt>
   <trkpt lat="18.2819" lon="109.59710000000001">
    <ele>20.900000000000002</ele>
   </trkpt>
   <trkpt lat="18.281417504032344" lon="109.59782000602394">
    <ele>24.630000000000003</ele>
   </trkpt>
   <trkpt lat="18.280935005369756" lon="109.59854000804174">
    <ele>26.35</ele>
   </trkpt>
   <trkpt lat="18.28045250401233" lon="109.59926000605354">
    <ele>28.42</ele>
   </trkpt>
   <trkpt lat="18.279970000000002" lon="109.59998">
    <ele>31.22</ele>
   </trkpt>
   <trkpt lat="18.279685000682797" lon="109.60052500106605">
    <ele>33.120000000000005</ele>
   </trkpt>
   <trkpt lat="18.279400000000003" lon="109.60107">
    <ele>35.45</ele>
   </trkpt>
   <trkpt lat="18.279075001430854" lon="109.60180500131645">
    <ele>39.650000000000006</ele>
   </trkpt>
   <trkpt lat="18.278750000000002" lon="109.60254">
    <ele>42.300000000000004</ele>
   </trkpt>
   <trkpt lat="18.278495000769087" lon="109.60308000076998">
    <ele>43.620000000000005</ele>
   </trkpt>
   <trkpt lat="18.27824" lon="109.60362">
    <ele>46.11000000000001</ele>
   </trkpt>
   <trkpt lat="18.27794000093884" lon="109.60422000103111">
    <ele>48.18</ele>
   </trkpt>
   <trkpt lat="18.27764" lon="109.60482">
    <ele>49.45</ele>
   </trkpt>
   <trkpt lat="18.2774" lon="109.60553000000002">
    <ele>50.28</ele>
   </trkpt>
   <trkpt lat="18.27739" lon="109.60565000000001">
    <ele>50.28</ele>
   </trkpt>
   <trkpt lat="18.27729" lon="109.60598">
    <ele>50.96</ele>
   </trkpt>
   <trkpt lat="18.27721" lon="109.60688">
    <ele>51.13</ele>
   </trkpt>
   <trkpt lat="18.277230000000003" lon="109.60746">
    <ele>50.580000000000005</ele>
   </trkpt>
   <trkpt lat="18.27733858151345" lon="109.60826428268221">
    <ele>48.25</ele>
   </trkpt>
   <trkpt lat="18.277447159664792" lon="109.60906856637119">
    <ele>46.040000000000006</ele>
   </trkpt>
   <trkpt lat="18.277555734453994" lon="109.609872851067">
    <ele>45.03</ele>
   </trkpt>
   <trkpt lat="18.27766430588102" lon="109.61067713676955">
    <ele>44.160000000000004</ele>
   </trkpt>
   <trkpt lat="18.277772873945867" lon="109.61148142347885">
    <ele>41.49</ele>
   </trkpt>
   <trkpt lat="18.27788143864849" lon="109.61228571119484">
    <ele>41.02</ele>
   </trkpt>
   <trkpt lat="18.277990000000003" lon="109.61309000000001">
    <ele>42.1</ele>
   </trkpt>
   <trkpt lat="18.278080002003918" lon="109.6139699994591">
    <ele>43.940000000000005</ele>
   </trkpt>
   <trkpt lat="18.278170000000003" lon="109.61485">
    <ele>45.410000000000004</ele>
   </trkpt>
   <trkpt lat="18.278165000649235" lon="109.61535000006275">
    <ele>46.510000000000005</ele>
   </trkpt>
   <trkpt lat="18.27816" lon="109.61585000000001">
    <ele>47.34</ele>
   </trkpt>
   <trkpt lat="18.277975002207718" lon="109.61677000094106">
    <ele>48.190000000000005</ele>
   </trkpt>
   <trkpt lat="18.277790000000003" lon="109.61769000000001">
    <ele>48.470000000000006</ele>
   </trkpt>
   <trkpt lat="18.277484296381413" lon="109.61851715160448">
    <ele>47.63</ele>
   </trkpt>
   <trkpt lat="18.27717858920679" lon="109.61934430029366">
    <ele>46.53</ele>
   </trkpt>
   <trkpt lat="18.27687287847621" lon="109.62017144606762">
    <ele>45.59</ele>
   </trkpt>
   <trkpt lat="18.27656716418974" lon="109.62099858892631">
    <ele>45.53</ele>
   </trkpt>
   <trkpt lat="18.276261446347466" lon="109.62182572886984">
    <ele>46.71</ele>
   </trkpt>
   <trkpt lat="18.275955724949462" lon="109.62265286589817">
    <ele>47.81</ele>
   </trkpt>
   <trkpt lat="18.275650000000002" lon="109.62348000000001">
    <ele>49.06</ele>
   </trkpt>
   <trkpt lat="18.27524500167502" lon="109.62427000174017">
    <ele>48.93</ele>
   </trkpt>
   <trkpt lat="18.27484" lon="109.62506">
    <ele>48.36000000000001</ele>
   </trkpt>
   <trkpt lat="18.274550000897477" lon="109.62566000108137">
    <ele>47.550000000000004</ele>
   </trkpt>
   <trkpt lat="18.27426" lon="109.62626">
    <ele>47.580000000000005</ele>
   </trkpt>
   <trkpt lat="18.273976669394933" lon="109.62698333567187">
    <ele>48.690000000000005</ele>
   </trkpt>
   <trkpt lat="18.2736933360709" lon="109.62770666898142">
    <ele>49.6</ele>
   </trkpt>
   <trkpt lat="18.273410000000002" lon="109.62843000000001">
    <ele>49.690000000000005</ele>
   </trkpt>
   <trkpt lat="18.273173336968167" lon="109.62926666895869">
    <ele>48.96</ele>
   </trkpt>
   <trkpt lat="18.27293667029873" lon="109.63010333563508">
    <ele>47.67</ele>
   </trkpt>
   <trkpt lat="18.2727" lon="109.63094000000001">
    <ele>48.220000000000006</ele>
   </trkpt>
   <trkpt lat="18.272470000000002" lon="109.63152000000001">
    <ele>49.39</ele>
   </trkpt>
   <trkpt lat="18.272215001421806" lon="109.63225500102754">
    <ele>50.120000000000005</ele>
   </trkpt>
   <trkpt lat="18.27196" lon="109.63299">
    <ele>50.97</ele>
   </trkpt>
   <trkpt lat="18.27165800641463" lon="109.63377600548588">
    <ele>51.31</ele>
   </trkpt>
   <trkpt lat="18.271356009619083" lon="109.63456200823605">
    <ele>51.32</ele>
   </trkpt>
   <trkpt lat="18.27105400961344" lon="109.63534800825052">
    <ele>51.60000000000001</ele>
   </trkpt>
   <trkpt lat="18.27075200639776" lon="109.63613400552936">
    <ele>51.59</ele>
   </trkpt>
   <trkpt lat="18.27045" lon="109.63692">
    <ele>52.27</ele>
   </trkpt>
   <trkpt lat="18.270173335162426" lon="109.63751000183748">
    <ele>53.03000000000001</ele>
   </trkpt>
   <trkpt lat="18.269896668516207" lon="109.63810000179386">
    <ele>53.99</ele>
   </trkpt>
   <trkpt lat="18.26962" lon="109.63869000000001">
    <ele>55.09</ele>
   </trkpt>
   <trkpt lat="18.26941" lon="109.63938">
    <ele>55.690000000000005</ele>
   </trkpt>
   <trkpt lat="18.269210002194168" lon="109.64030000108117">
    <ele>55.46</ele>
   </trkpt>
   <trkpt lat="18.26901" lon="109.64122">
    <ele>55.080000000000005</ele>
   </trkpt>
   <trkpt lat="18.26867500187403" lon="109.6420700016477">
    <ele>54.660000000000004</ele>
   </trkpt>
   <trkpt lat="18.268340000000002" lon="109.64292">
    <ele>54.080000000000005</ele>
   </trkpt>
   <trkpt lat="18.268030000893553" lon="109.643500000999">
    <ele>54.080000000000005</ele>
   </trkpt>
   <trkpt lat="18.26772" lon="109.64408">
    <ele>54.580000000000005</ele>
   </trkpt>
   <trkpt lat="18.267407503201614" lon="109.64472000343659">
    <ele>55.18000000000001</ele>
   </trkpt>
   <trkpt lat="18.2670950042753" lon="109.64536000456873">
    <ele>55.92</ele>
   </trkpt>
   <trkpt lat="18.266782503221126" lon="109.64600000339648">
    <ele>56.89</ele>
   </trkpt>
   <trkpt lat="18.26647" lon="109.64664">
    <ele>57.78</ele>
   </trkpt>
   <trkpt lat="18.26601500133523" lon="109.64737000199186">
    <ele>59.46000000000001</ele>
   </trkpt>
   <trkpt lat="18.26556" lon="109.64810000000001">
    <ele>61.190000000000005</ele>
   </trkpt>
   <trkpt lat="18.265310000000003" lon="109.64871000000001">
    <ele>61.92</ele>
   </trkpt>
   <trkpt lat="18.265050000000002" lon="109.64954000000002">
    <ele>62.150000000000006</ele>
   </trkpt>
   <trkpt lat="18.264950000000002" lon="109.65012000000002">
    <ele>63.6</ele>
   </trkpt>
   <trkpt lat="18.264900001083983" lon="109.65076500014105">
    <ele>63.28</ele>
   </trkpt>
   <trkpt lat="18.264850000000003" lon="109.65141000000001">
    <ele>56.75</ele>
   </trkpt>
   <trkpt lat="18.264900000651313" lon="109.65191499974297">
    <ele>55.370000000000005</ele>
   </trkpt>
   <trkpt lat="18.264950000000002" lon="109.65242">
    <ele>50.42000000000001</ele>
   </trkpt>
   <trkpt lat="18.265115001465684" lon="109.65316999930864">
    <ele>49.300000000000004</ele>
   </trkpt>
   <trkpt lat="18.26528" lon="109.65392000000001">
    <ele>57.7</ele>
   </trkpt>
   <trkpt lat="18.26556500069505" lon="109.65444499909971">
    <ele>56.32</ele>
   </trkpt>
   <trkpt lat="18.26585" lon="109.65497">
    <ele>61.46000000000001</ele>
   </trkpt>
   <trkpt lat="18.26613" lon="109.65585000000002">
    <ele>66.41000000000001</ele>
   </trkpt>
   <trkpt lat="18.2662150006273" lon="109.65633999978121">
    <ele>63.13</ele>
   </trkpt>
   <trkpt lat="18.2663" lon="109.65683000000001">
    <ele>59.92000000000001</ele>
   </trkpt>
   <trkpt lat="18.266355000768943" lon="109.657374999802">
    <ele>56.95</ele>
   </trkpt>
   <trkpt lat="18.26641" lon="109.65792">
    <ele>52.03000000000001</ele>
   </trkpt>
   <trkpt lat="18.266465001387008" lon="109.65865499955089">
    <ele>47.49</ele>
   </trkpt>
   <trkpt lat="18.26652" lon="109.65939">
    <ele>41.93</ele>
   </trkpt>
   <trkpt lat="18.26669" lon="109.66017000000001">
    <ele>36.65</ele>
   </trkpt>
   <trkpt lat="18.266900000000003" lon="109.66080000000001">
    <ele>31.720000000000006</ele>
   </trkpt>
   <trkpt lat="18.267175000572195" lon="109.66123999941384">
    <ele>29.44</ele>
   </trkpt>
   <trkpt lat="18.26745" lon="109.66168">
    <ele>26.650000000000002</ele>
   </trkpt>
   <trkpt lat="18.267770000000002" lon="109.66206000000001">
    <ele>24.900000000000002</ele>
   </trkpt>
   <trkpt lat="18.268150000000002" lon="109.66245">
    <ele>22.490000000000002</ele>
   </trkpt>
   <trkpt lat="18.268635000385245" lon="109.66284999885723">
    <ele>20.12</ele>
   </trkpt>
   <trkpt lat="18.26912" lon="109.66325">
    <ele>18.240000000000002</ele>
   </trkpt>
   <trkpt lat="18.26960000048307" lon="109.66357999922495">
    <ele>16.64</ele>
   </trkpt>
   <trkpt lat="18.27008" lon="109.66391000000002">
    <ele>15.580000000000002</ele>
   </trkpt>
   <trkpt lat="18.270510000223048" lon="109.66413999947592">
    <ele>15.690000000000003</ele>
   </trkpt>
   <trkpt lat="18.270940000000003" lon="109.66437">
    <ele>16.3</ele>
   </trkpt>
   <trkpt lat="18.27160250067437" lon="109.66466499661954">
    <ele>17.910000000000004</ele>
   </trkpt>
   <trkpt lat="18.27226500089656" lon="109.66495999549147">
    <ele>18.82</ele>
   </trkpt>
   <trkpt lat="18.272927500666537" lon="109.66525499661593">
    <ele>18.950000000000003</ele>
   </trkpt>
   <trkpt lat="18.273590000000002" lon="109.66555000000001">
    <ele>19.110000000000003</ele>
   </trkpt>
   <trkpt lat="18.274220000600078" lon="109.66587666431802">
    <ele>19.24</ele>
   </trkpt>
   <trkpt lat="18.27485000064561" lon="109.66620333100828">
    <ele>19.17</ele>
   </trkpt>
   <trkpt lat="18.27548" lon="109.66653000000001">
    <ele>19.03</ele>
   </trkpt>
   <trkpt lat="18.27620000118486" lon="109.66691999514373">
    <ele>18.320000000000004</ele>
   </trkpt>
   <trkpt lat="18.276920001579253" lon="109.66730999352453">
    <ele>18.42</ele>
   </trkpt>
   <trkpt lat="18.27764000118311" lon="109.6676999951426">
    <ele>18.230000000000004</ele>
   </trkpt>
   <trkpt lat="18.278360000000003" lon="109.66809">
    <ele>16.41</ele>
   </trkpt>
   <trkpt lat="18.27896" lon="109.66844">
    <ele>15.120000000000001</ele>
   </trkpt>
   <trkpt lat="18.279490000000003" lon="109.66882000000001">
    <ele>13.53</ele>
   </trkpt>
   <trkpt lat="18.279960000000003" lon="109.66918000000001">
    <ele>12.84</ele>
   </trkpt>
   <trkpt lat="18.28059" lon="109.66978">
    <ele>12.260000000000002</ele>
   </trkpt>
   <trkpt lat="18.281168004116875" lon="109.67040799164607">
    <ele>11.65</ele>
   </trkpt>
   <trkpt lat="18.28174600618361" lon="109.67103598747786">
    <ele>11.200000000000001</ele>
   </trkpt>
   <trkpt lat="18.282324006200124" lon="109.67166398749556">
    <ele>10.55</ele>
   </trkpt>
   <trkpt lat="18.282902004166335" lon="109.67229199169932">
    <ele>10.08</ele>
   </trkpt>
   <trkpt lat="18.28348" lon="109.67292">
    <ele>9.57</ele>
   </trkpt>
   <trkpt lat="18.283900000000003" lon="109.67348000000001">
    <ele>9.540000000000001</ele>
   </trkpt>
   <trkpt lat="18.284190000000002" lon="109.67401000000001">
    <ele>9.83</ele>
   </trkpt>
   <trkpt lat="18.2845" lon="109.67469000000001">
    <ele>10.180000000000001</ele>
   </trkpt>
   <trkpt lat="18.28468666905835" lon="109.6753699984905">
    <ele>9.71</ele>
   </trkpt>
   <trkpt lat="18.28487333571255" lon="109.67604999844504">
    <ele>9.290000000000001</ele>
   </trkpt>
   <trkpt lat="18.28506" lon="109.67673">
    <ele>8.990000000000002</ele>
   </trkpt>
   <trkpt lat="18.28524" lon="109.67731">
    <ele>8.77</ele>
   </trkpt>
   <trkpt lat="18.285490000000003" lon="109.67784">
    <ele>8.8</ele>
   </trkpt>
   <trkpt lat="18.28573000036277" lon="109.67826499922259">
    <ele>8.780000000000001</ele>
   </trkpt>
   <trkpt lat="18.285970000000002" lon="109.67869">
    <ele>8.93</ele>
   </trkpt>
   <trkpt lat="18.286415001154715" lon="109.67934499837678">
    <ele>9.05</ele>
   </trkpt>
   <trkpt lat="18.28686" lon="109.68">
    <ele>9.120000000000001</ele>
   </trkpt>
   <trkpt lat="18.28739250432887" lon="109.68074499313485">
    <ele>9.47</ele>
   </trkpt>
   <trkpt lat="18.28792500577167" lon="109.68148999084603">
    <ele>9.75</ele>
   </trkpt>
   <trkpt lat="18.28845750432829" lon="109.68223499313372">
    <ele>9.88</ele>
   </trkpt>
   <trkpt lat="18.288990000000002" lon="109.68298000000001">
    <ele>10.47</ele>
   </trkpt>
   <trkpt lat="18.289440001775674" lon="109.68356999689149">
    <ele>11.7</ele>
   </trkpt>
   <trkpt lat="18.289890001741078" lon="109.68415999684608">
    <ele>12.450000000000001</ele>
   </trkpt>
   <trkpt lat="18.29034" lon="109.68475000000001">
    <ele>13.89</ele>
   </trkpt>
   <trkpt lat="18.290830000000003" lon="109.68515000000001">
    <ele>15.14</ele>
   </trkpt>
   <trkpt lat="18.291534002766248" lon="109.68566599161412">
    <ele>17.51</ele>
   </trkpt>
   <trkpt lat="18.292238004147727" lon="109.68618198741973">
    <ele>18.400000000000002</ele>
   </trkpt>
   <trkpt lat="18.29294200414439" lon="109.68669798741702">
    <ele>16.990000000000002</ele>
   </trkpt>
   <trkpt lat="18.29364600275616" lon="109.68721399160621">
    <ele>14.96</ele>
   </trkpt>
   <trkpt lat="18.29435" lon="109.68773">
    <ele>12.0</ele>
   </trkpt>
   <trkpt lat="18.295060000000003" lon="109.68830000000001">
    <ele>10.820000000000002</ele>
   </trkpt>
   <trkpt lat="18.29540000038351" lon="109.68863999941576">
    <ele>10.780000000000001</ele>
   </trkpt>
   <trkpt lat="18.295740000000002" lon="109.68898000000002">
    <ele>10.83</ele>
   </trkpt>
   <trkpt lat="18.29617500067601" lon="109.68947999877444">
    <ele>10.730000000000002</ele>
   </trkpt>
   <trkpt lat="18.29661" lon="109.68998">
    <ele>10.520000000000001</ele>
   </trkpt>
   <trkpt lat="18.2971160038935" lon="109.6905919928468">
    <ele>10.66</ele>
   </trkpt>
   <trkpt lat="18.29762200583853" lon="109.69120398926792">
    <ele>10.790000000000001</ele>
   </trkpt>
   <trkpt lat="18.298128005835014" lon="109.69181598926347">
    <ele>10.910000000000002</ele>
   </trkpt>
   <trkpt lat="18.298634003882896" lon="109.69242799283357">
    <ele>10.74</ele>
   </trkpt>
   <trkpt lat="18.29914" lon="109.69304000000001">
    <ele>10.690000000000001</ele>
   </trkpt>
   <trkpt lat="18.299490000000002" lon="109.69357000000001">
    <ele>10.650000000000002</ele>
   </trkpt>
   <trkpt lat="18.29951" lon="109.69380000000001">
    <ele>10.76</ele>
   </trkpt>
   <trkpt lat="18.299470000000003" lon="109.69402000000001">
    <ele>10.820000000000002</ele>
   </trkpt>
   <trkpt lat="18.29933" lon="109.69437">
    <ele>10.780000000000001</ele>
   </trkpt>
   <trkpt lat="18.298896669127874" lon="109.69506000347667">
    <ele>10.66</ele>
   </trkpt>
   <trkpt lat="18.29846333577869" lon="109.69575000350183">
    <ele>10.32</ele>
   </trkpt>
   <trkpt lat="18.29803" lon="109.69644000000001">
    <ele>10.24</ele>
   </trkpt>
   <trkpt lat="18.297640001574607" lon="109.6972100016693">
    <ele>10.650000000000002</ele>
   </trkpt>
   <trkpt lat="18.297250000000002" lon="109.69798000000002">
    <ele>10.81</ele>
   </trkpt>
   <trkpt lat="18.296995000896185" lon="109.6985500007247">
    <ele>11.02</ele>
   </trkpt>
   <trkpt lat="18.29674" lon="109.69912000000001">
    <ele>11.13</ele>
   </trkpt>
   <trkpt lat="18.296465001196555" lon="109.69980000109449">
    <ele>11.32</ele>
   </trkpt>
   <trkpt lat="18.296190000000003" lon="109.70048000000001">
    <ele>11.39</ele>
   </trkpt>
   <trkpt lat="18.29593000350113" lon="109.7013000024503">
    <ele>11.370000000000001</ele>
   </trkpt>
   <trkpt lat="18.29567000350439" lon="109.70212000243994">
    <ele>11.260000000000002</ele>
   </trkpt>
   <trkpt lat="18.29541" lon="109.70294000000001">
    <ele>10.49</ele>
   </trkpt>
   <trkpt lat="18.29524000180885" lon="109.70377500084169">
    <ele>9.88</ele>
   </trkpt>
   <trkpt lat="18.295070000000003" lon="109.70461">
    <ele>9.62</ele>
   </trkpt>
   <trkpt lat="18.294950001446857" lon="109.70536000062033">
    <ele>9.520000000000001</ele>
   </trkpt>
   <trkpt lat="18.29483" lon="109.70611000000001">
    <ele>9.27</ele>
   </trkpt>
   <trkpt lat="18.294740008081835" lon="109.70689833537998">
    <ele>9.38</ele>
   </trkpt>
   <trkpt lat="18.294650012930926" lon="109.70768666994118">
    <ele>9.420000000000002</ele>
   </trkpt>
   <trkpt lat="18.29456001454729" lon="109.7084750036836">
    <ele>9.780000000000001</ele>
   </trkpt>
   <trkpt lat="18.29447001293095" lon="109.70926333660724">
    <ele>9.45</ele>
   </trkpt>
   <trkpt lat="18.294380008081923" lon="109.71005166871201">
    <ele>10.17</ele>
   </trkpt>
   <trkpt lat="18.29429" lon="109.71084">
    <ele>10.180000000000001</ele>
   </trkpt>
   <trkpt lat="18.294202506319404" lon="109.71174000136891">
    <ele>10.57</ele>
   </trkpt>
   <trkpt lat="18.294115008425482" lon="109.71264000182906">
    <ele>10.59</ele>
   </trkpt>
   <trkpt lat="18.29402750631827" lon="109.71354000138042">
    <ele>10.89</ele>
   </trkpt>
   <trkpt lat="18.293940000000003" lon="109.71444000000001">
    <ele>11.200000000000001</ele>
   </trkpt>
   <trkpt lat="18.293854006071395" lon="109.7152040015237">
    <ele>11.45</ele>
   </trkpt>
   <trkpt lat="18.293768009106678" lon="109.71596800228919">
    <ele>11.840000000000002</ele>
   </trkpt>
   <trkpt lat="18.293682009105837" lon="109.71673200229647">
    <ele>12.22</ele>
   </trkpt>
   <trkpt lat="18.293596006068913" lon="109.71749600154551">
    <ele>12.66</ele>
   </trkpt>
   <trkpt lat="18.29351" lon="109.71826000000001">
    <ele>13.540000000000001</ele>
   </trkpt>
   <trkpt lat="18.29352" lon="109.71863">
    <ele>13.690000000000001</ele>
   </trkpt>
   <trkpt lat="18.293580000000002" lon="109.71873000000001">
    <ele>13.73</ele>
   </trkpt>
   <trkpt lat="18.29369" lon="109.71879000000001">
    <ele>13.73</ele>
   </trkpt>
   <trkpt lat="18.294313333363117" lon="109.71884333295097">
    <ele>13.840000000000002</ele>
   </trkpt>
   <trkpt lat="18.294936666711433" lon="109.71889666628559">
    <ele>14.24</ele>
   </trkpt>
   <trkpt lat="18.295560000000002" lon="109.71895">
    <ele>14.57</ele>
   </trkpt>
   <trkpt lat="18.296340000077816" lon="109.7190666656174">
    <ele>14.450000000000001</ele>
   </trkpt>
   <trkpt lat="18.297120000084828" lon="109.7191833322851">
    <ele>14.14</ele>
   </trkpt>
   <trkpt lat="18.297900000000002" lon="109.7193">
    <ele>13.71</ele>
   </trkpt>
   <trkpt lat="18.29859" lon="109.71945000000001">
    <ele>13.91</ele>
   </trkpt>
   <trkpt lat="18.29933000024408" lon="109.71964666499802">
    <ele>14.280000000000001</ele>
   </trkpt>
   <trkpt lat="18.300070000286922" lon="109.71984333167605">
    <ele>14.59</ele>
   </trkpt>
   <trkpt lat="18.300810000000002" lon="109.72004000000001">
    <ele>14.870000000000001</ele>
   </trkpt>
   <trkpt lat="18.301560000000002" lon="109.72029">
    <ele>15.120000000000001</ele>
   </trkpt>
   <trkpt lat="18.302163333637264" lon="109.72052999832984">
    <ele>15.250000000000002</ele>
   </trkpt>
   <trkpt lat="18.302766666974804" lon="109.72076999833149">
    <ele>15.160000000000002</ele>
   </trkpt>
   <trkpt lat="18.30337" lon="109.72101">
    <ele>14.67</ele>
   </trkpt>
   <trkpt lat="18.30396333365994" lon="109.72127999812615">
    <ele>14.5</ele>
   </trkpt>
   <trkpt lat="18.30455666694051" lon="109.72154999810212">
    <ele>14.13</ele>
   </trkpt>
   <trkpt lat="18.30515" lon="109.72182000000001">
    <ele>13.99</ele>
   </trkpt>
   <trkpt lat="18.305858334616467" lon="109.72213499355442">
    <ele>13.65</ele>
   </trkpt>
   <trkpt lat="18.306566668716542" lon="109.72244998968547">
    <ele>13.53</ele>
   </trkpt>
   <trkpt lat="18.30727500230019" lon="109.72276498839332">
    <ele>13.8</ele>
   </trkpt>
   <trkpt lat="18.30798333536739" lon="109.72307998967808">
    <ele>14.350000000000001</ele>
   </trkpt>
   <trkpt lat="18.30869166791812" lon="109.72339499353987">
    <ele>14.620000000000001</ele>
   </trkpt>
   <trkpt lat="18.3094" lon="109.72371000000001">
    <ele>14.610000000000001</ele>
   </trkpt>
   <trkpt lat="18.310145000134842" lon="109.72395999891498">
    <ele>14.820000000000002</ele>
   </trkpt>
   <trkpt lat="18.31089" lon="109.72421000000001">
    <ele>15.080000000000002</ele>
   </trkpt>
   <trkpt lat="18.311480000000003" lon="109.72436">
    <ele>15.170000000000002</ele>
   </trkpt>
   <trkpt lat="18.31147" lon="109.72436">
    <ele>15.160000000000002</ele>
   </trkpt>
   <trkpt lat="18.31195500019433" lon="109.72444999978003">
    <ele>15.260000000000002</ele>
   </trkpt>
   <trkpt lat="18.312440000000002" lon="109.72454">
    <ele>15.35</ele>
   </trkpt>
   <trkpt lat="18.31307" lon="109.72473000000001">
    <ele>15.57</ele>
   </trkpt>
   <trkpt lat="18.313920000217614" lon="109.724926664739">
    <ele>15.510000000000002</ele>
   </trkpt>
   <trkpt lat="18.314770000233853" lon="109.72512333140939">
    <ele>15.14</ele>
   </trkpt>
   <trkpt lat="18.315620000000003" lon="109.72532000000001">
    <ele>14.430000000000001</ele>
   </trkpt>
   <trkpt lat="18.316260000039968" lon="109.72548999936203">
    <ele>14.430000000000001</ele>
   </trkpt>
   <trkpt lat="18.3169" lon="109.72566">
    <ele>14.020000000000001</ele>
   </trkpt>
   <trkpt lat="18.31746" lon="109.72584">
    <ele>14.05</ele>
   </trkpt>
   <trkpt lat="18.318330000000003" lon="109.72606">
    <ele>13.89</ele>
   </trkpt>
   <trkpt lat="18.318490000756018" lon="109.72553000040847">
    <ele>13.55</ele>
   </trkpt>
   <trkpt lat="18.31865" lon="109.72500000000001">
    <ele>10.950000000000001</ele>
   </trkpt>
   <trkpt lat="18.31886600686802" lon="109.72418800405147">
    <ele>5.3500000000000005</ele>
   </trkpt>
   <trkpt lat="18.319082010302438" lon="109.72337600607591">
    <ele>1.1900000000000002</ele>
   </trkpt>
   <trkpt lat="18.319298010303186" lon="109.72256400607327">
    <ele>-0.08</ele>
   </trkpt>
   <trkpt lat="18.319514006870214" lon="109.72175200404361">
    <ele>0.7400000000000001</ele>
   </trkpt>
   <trkpt lat="18.31973" lon="109.72094000000001">
    <ele>-1.9400000000000002</ele>
   </trkpt>
   <trkpt lat="18.31988" lon="109.72031000000001">
    <ele>-3.23</ele>
   </trkpt>
   <trkpt lat="18.32009" lon="109.71965000000002">
    <ele>-3.75</ele>
   </trkpt>
   <trkpt lat="18.320363335370743" lon="109.71902000205868">
    <ele>-2.82</ele>
   </trkpt>
   <trkpt lat="18.320636668674428" lon="109.71839000212707">
    <ele>-1.07</ele>
   </trkpt>
   <trkpt lat="18.32091" lon="109.71776000000001">
    <ele>0.36000000000000004</ele>
   </trkpt>
   <trkpt lat="18.321100000615797" lon="109.71727500052425">
    <ele>1.03</ele>
   </trkpt>
   <trkpt lat="18.32129" lon="109.71679">
    <ele>2.2700000000000005</ele>
   </trkpt>
   <trkpt lat="18.321530000000003" lon="109.71594">
    <ele>3.97</ele>
   </trkpt>
   <trkpt lat="18.32169" lon="109.71511000000001">
    <ele>5.6000000000000005</ele>
   </trkpt>
   <trkpt lat="18.321740000945372" lon="109.71451000007903">
    <ele>6.630000000000001</ele>
   </trkpt>
   <trkpt lat="18.32179" lon="109.71391000000001">
    <ele>8.9</ele>
   </trkpt>
   <trkpt lat="18.321835001560295" lon="109.71313500026784">
    <ele>7.490000000000001</ele>
   </trkpt>
   <trkpt lat="18.32188" lon="109.71236">
    <ele>10.780000000000001</ele>
   </trkpt>
   <trkpt lat="18.321922505317975" lon="109.71153500059793">
    <ele>9.79</ele>
   </trkpt>
   <trkpt lat="18.321965007090984" lon="109.71071000079051">
    <ele>9.62</ele>
   </trkpt>
   <trkpt lat="18.322007505319025" lon="109.70988500057781">
    <ele>9.56</ele>
   </trkpt>
   <trkpt lat="18.32205" lon="109.70906000000001">
    <ele>9.860000000000001</ele>
   </trkpt>
   <trkpt lat="18.32215" lon="109.70837">
    <ele>10.010000000000002</ele>
   </trkpt>
   <trkpt lat="18.32226" lon="109.70782000000001">
    <ele>9.97</ele>
   </trkpt>
   <trkpt lat="18.32241" lon="109.70727000000001">
    <ele>9.89</ele>
   </trkpt>
   <trkpt lat="18.322740000000003" lon="109.70647000000001">
    <ele>9.940000000000001</ele>
   </trkpt>
   <trkpt lat="18.323075001139223" lon="109.70581500122545">
    <ele>10.020000000000001</ele>
   </trkpt>
   <trkpt lat="18.323410000000003" lon="109.70516">
    <ele>10.0</ele>
   </trkpt>
   <trkpt lat="18.32373" lon="109.70436000000001">
    <ele>11.080000000000002</ele>
   </trkpt>
   <trkpt lat="18.323916669101106" lon="109.70367333489463">
    <ele>12.63</ele>
   </trkpt>
   <trkpt lat="18.32410333574617" lon="109.7029866683075">
    <ele>14.120000000000001</ele>
   </trkpt>
   <trkpt lat="18.32429" lon="109.70230000000001">
    <ele>14.610000000000001</ele>
   </trkpt>
   <trkpt lat="18.323650000200622" lon="109.70213499942307">
    <ele>14.190000000000001</ele>
   </trkpt>
   <trkpt lat="18.32301" lon="109.70197">
    <ele>14.300000000000002</ele>
   </trkpt>
   <trkpt lat="18.322345000059165" lon="109.70176999921779">
    <ele>15.150000000000002</ele>
   </trkpt>
   <trkpt lat="18.32168" lon="109.70157">
    <ele>15.320000000000002</ele>
   </trkpt>
   <trkpt lat="18.32167" lon="109.70157">
    <ele>15.320000000000002</ele>
   </trkpt>
   <trkpt lat="18.320916666923157" lon="109.70135333145024">
    <ele>14.910000000000002</ele>
   </trkpt>
   <trkpt lat="18.320163333601823" lon="109.70113666478706">
    <ele>13.97</ele>
   </trkpt>
   <trkpt lat="18.31941" lon="109.70092000000001">
    <ele>13.53</ele>
   </trkpt>
   <trkpt lat="18.318700000020144" lon="109.70070999911042">
    <ele>13.110000000000001</ele>
   </trkpt>
   <trkpt lat="18.31799" lon="109.7005">
    <ele>13.620000000000001</ele>
   </trkpt>
   <trkpt lat="18.317455000238503" lon="109.70029999943198">
    <ele>14.06</ele>
   </trkpt>
   <trkpt lat="18.316920000000003" lon="109.7001">
    <ele>14.360000000000001</ele>
   </trkpt>
   <trkpt lat="18.316325000229206" lon="109.69981499902875">
    <ele>14.24</ele>
   </trkpt>
   <trkpt lat="18.315730000000002" lon="109.69953000000001">
    <ele>14.200000000000001</ele>
   </trkpt>
   <trkpt lat="18.315140000000003" lon="109.69932000000001">
    <ele>14.33</ele>
   </trkpt>
   <trkpt lat="18.31450000016713" lon="109.69913999866856">
    <ele>13.99</ele>
   </trkpt>
   <trkpt lat="18.31386000016556" lon="109.69895999866813">
    <ele>14.41</ele>
   </trkpt>
   <trkpt lat="18.31322" lon="109.69878000000001">
    <ele>14.05</ele>
   </trkpt>
   <trkpt lat="18.312363750835267" lon="109.69856624260099">
    <ele>14.06</ele>
   </trkpt>
   <trkpt lat="18.311507501432658" lon="109.69835248731643">
    <ele>14.110000000000001</ele>
   </trkpt>
   <trkpt lat="18.310651251792194" lon="109.6981387341462">
    <ele>14.16</ele>
   </trkpt>
   <trkpt lat="18.30979500191388" lon="109.69792498309019">
    <ele>14.71</ele>
   </trkpt>
   <trkpt lat="18.308938751797736" lon="109.69771123414824">
    <ele>15.02</ele>
   </trkpt>
   <trkpt lat="18.308082501443778" lon="109.69749748732025">
    <ele>14.700000000000001</ele>
   </trkpt>
   <trkpt lat="18.307226250852008" lon="109.69728374260609">
    <ele>14.22</ele>
   </trkpt>
   <trkpt lat="18.30637" lon="109.69707000000001">
    <ele>12.690000000000001</ele>
   </trkpt>
   <trkpt lat="18.305889999982938" lon="109.69689999949615">
    <ele>12.270000000000001</ele>
   </trkpt>
   <trkpt lat="18.305410000000002" lon="109.69673">
    <ele>10.88</ele>
   </trkpt>
   <trkpt lat="18.30471" lon="109.69642">
    <ele>10.100000000000001</ele>
   </trkpt>
   <trkpt lat="18.30402333372519" lon="109.69614999786414">
    <ele>9.92</ele>
   </trkpt>
   <trkpt lat="18.303336667071" lon="109.69587999786906">
    <ele>10.47</ele>
   </trkpt>
   <trkpt lat="18.30265" lon="109.69561">
    <ele>10.74</ele>
   </trkpt>
   <trkpt lat="18.302130000071394" lon="109.69538999931652">
    <ele>10.440000000000001</ele>
   </trkpt>
   <trkpt lat="18.30161" lon="109.69517">
    <ele>10.190000000000001</ele>
   </trkpt>
   <trkpt lat="18.30121" lon="109.69493000000001">
    <ele>10.0</ele>
   </trkpt>
   <trkpt lat="18.300840000171856" lon="109.69461499925376">
    <ele>9.510000000000002</ele>
   </trkpt>
   <trkpt lat="18.30047" lon="109.69430000000001">
    <ele>9.430000000000001</ele>
   </trkpt>
   <trkpt lat="18.299950000000003" lon="109.69379">
    <ele>9.47</ele>
   </trkpt>
   <trkpt lat="18.29941800402645" lon="109.69316799236124">
    <ele>9.05</ele>
   </trkpt>
   <trkpt lat="18.29888600603994" lon="109.69254598854235">
    <ele>9.250000000000002</ele>
   </trkpt>
   <trkpt lat="18.298354006040555" lon="109.6919239885433">
    <ele>9.35</ele>
   </trkpt>
   <trkpt lat="18.297822004028355" lon="109.69130199236389">
    <ele>9.1</ele>
   </trkpt>
   <trkpt lat="18.29729" lon="109.69068000000001">
    <ele>9.0</ele>
   </trkpt>
   <trkpt lat="18.296806668457933" lon="109.69008999668463">
    <ele>8.88</ele>
   </trkpt>
   <trkpt lat="18.296323335104947" lon="109.68949999666071">
    <ele>8.790000000000001</ele>
   </trkpt>
   <trkpt lat="18.295840000000002" lon="109.68891">
    <ele>9.040000000000001</ele>
   </trkpt>
   <trkpt lat="18.29540500034594" lon="109.68847999878719">
    <ele>9.250000000000002</ele>
   </trkpt>
   <trkpt lat="18.294970000000003" lon="109.68805">
    <ele>10.200000000000001</ele>
   </trkpt>
   <trkpt lat="18.294370001105737" lon="109.68758666345003">
    <ele>12.600000000000001</ele>
   </trkpt>
   <trkpt lat="18.29377000109478" lon="109.68712333010828">
    <ele>14.42</ele>
   </trkpt>
   <trkpt lat="18.29317" lon="109.68666">
    <ele>16.82</ele>
   </trkpt>
   <trkpt lat="18.292615000605817" lon="109.68625499883393">
    <ele>17.61</ele>
   </trkpt>
   <trkpt lat="18.292060000000003" lon="109.68585">
    <ele>17.210000000000004</ele>
   </trkpt>
   <trkpt lat="18.291500000000003" lon="109.68546">
    <ele>14.08</ele>
   </trkpt>
   <trkpt lat="18.291005000357696" lon="109.68508999894466">
    <ele>13.4</ele>
   </trkpt>
   <trkpt lat="18.29051" lon="109.68472000000001">
    <ele>11.73</ele>
   </trkpt>
   <trkpt lat="18.290200000000002" lon="109.68442">
    <ele>11.15</ele>
   </trkpt>
   <trkpt lat="18.289830000000002" lon="109.68392000000001">
    <ele>10.08</ele>
   </trkpt>
   <trkpt lat="18.289495000533645" lon="109.68342499889053">
    <ele>9.62</ele>
   </trkpt>
   <trkpt lat="18.289160000000003" lon="109.68293000000001">
    <ele>8.72</ele>
   </trkpt>
   <trkpt lat="18.288701671740338" lon="109.68230499173211">
    <ele>7.78</ele>
   </trkpt>
   <trkpt lat="18.28824334144927" lon="109.68167998676897">
    <ele>7.6000000000000005</ele>
   </trkpt>
   <trkpt lat="18.287785009126857" lon="109.68105498511049">
    <ele>7.29</ele>
   </trkpt>
   <trkpt lat="18.287326674773183" lon="109.68042998675661">
    <ele>6.85</ele>
   </trkpt>
   <trkpt lat="18.2868683383883" lon="109.6798049917072">
    <ele>6.53</ele>
   </trkpt>
   <trkpt lat="18.28641" lon="109.67918">
    <ele>6.15</ele>
   </trkpt>
   <trkpt lat="18.286095000568448" lon="109.6787099991374">
    <ele>5.87</ele>
   </trkpt>
   <trkpt lat="18.285780000000003" lon="109.67824">
    <ele>5.65</ele>
   </trkpt>
   <trkpt lat="18.28552500070132" lon="109.67769999908563">
    <ele>5.540000000000001</ele>
   </trkpt>
   <trkpt lat="18.28527" lon="109.67716000000001">
    <ele>5.64</ele>
   </trkpt>
   <trkpt lat="18.285050003611587" lon="109.67632666455556">
    <ele>6.36</ele>
   </trkpt>
   <trkpt lat="18.284830003612477" lon="109.67549333122565">
    <ele>6.91</ele>
   </trkpt>
   <trkpt lat="18.28461" lon="109.67466">
    <ele>6.5200000000000005</ele>
   </trkpt>
   <trkpt lat="18.28434" lon="109.67405000000001">
    <ele>6.38</ele>
   </trkpt>
   <trkpt lat="18.28407" lon="109.67357000000001">
    <ele>6.140000000000001</ele>
   </trkpt>
   <trkpt lat="18.283630000000002" lon="109.67292">
    <ele>5.9799999999999995</ele>
   </trkpt>
   <trkpt lat="18.283146668134684" lon="109.67238666368189">
    <ele>6.61</ele>
   </trkpt>
   <trkpt lat="18.28266333479055" lon="109.6718533303367">
    <ele>6.960000000000001</ele>
   </trkpt>
   <trkpt lat="18.28218" lon="109.67132000000001">
    <ele>7.5200000000000005</ele>
   </trkpt>
   <trkpt lat="18.281700001387282" lon="109.67080333047299">
    <ele>7.670000000000001</ele>
   </trkpt>
   <trkpt lat="18.281220001386828" lon="109.67028666380587">
    <ele>8.38</ele>
   </trkpt>
   <trkpt lat="18.28074" lon="109.66977000000001">
    <ele>8.530000000000001</ele>
   </trkpt>
   <trkpt lat="18.280395000164162" lon="109.6694399992299">
    <ele>8.950000000000001</ele>
   </trkpt>
   <trkpt lat="18.280050000000003" lon="109.66911">
    <ele>9.500000000000002</ele>
   </trkpt>
   <trkpt lat="18.279580000220495" lon="109.66875999897871">
    <ele>10.68</ele>
   </trkpt>
   <trkpt lat="18.279110000000003" lon="109.66841000000001">
    <ele>11.420000000000002</ele>
   </trkpt>
   <trkpt lat="18.278620000298318" lon="109.66812499924568">
    <ele>12.75</ele>
   </trkpt>
   <trkpt lat="18.27813" lon="109.66784000000001">
    <ele>13.840000000000002</ele>
   </trkpt>
   <trkpt lat="18.27743400151943" lon="109.6674599939119">
    <ele>14.22</ele>
   </trkpt>
   <trkpt lat="18.276738002288322" lon="109.66707999087303">
    <ele>13.74</ele>
   </trkpt>
   <trkpt lat="18.276042002306703" lon="109.66669999088323">
    <ele>13.770000000000001</ele>
   </trkpt>
   <trkpt lat="18.275346001574622" lon="109.66631999394237">
    <ele>14.270000000000001</ele>
   </trkpt>
   <trkpt lat="18.27465" lon="109.66594">
    <ele>14.68</ele>
   </trkpt>
   <trkpt lat="18.27413500032467" lon="109.66569499935308">
    <ele>14.71</ele>
   </trkpt>
   <trkpt lat="18.27362" lon="109.66545">
    <ele>14.48</ele>
   </trkpt>
   <trkpt lat="18.272830000647623" lon="109.66509999681807">
    <ele>14.39</ele>
   </trkpt>
   <trkpt lat="18.27204000065868" lon="109.66474999682303">
    <ele>14.42</ele>
   </trkpt>
   <trkpt lat="18.271250000000002" lon="109.66440000000001">
    <ele>13.790000000000001</ele>
   </trkpt>
   <trkpt lat="18.27061500024109" lon="109.66405499870062">
    <ele>12.22</ele>
   </trkpt>
   <trkpt lat="18.26998" lon="109.66371000000001">
    <ele>12.200000000000001</ele>
   </trkpt>
   <trkpt lat="18.269265000711183" lon="109.66318499783365">
    <ele>14.290000000000001</ele>
   </trkpt>
   <trkpt lat="18.26855" lon="109.66266">
    <ele>16.790000000000003</ele>
   </trkpt>
   <trkpt lat="18.268195000139475" lon="109.66234999926978">
    <ele>19.17</ele>
   </trkpt>
   <trkpt lat="18.267840000000003" lon="109.66204">
    <ele>20.64</ele>
   </trkpt>
   <trkpt lat="18.267560000000003" lon="109.66166000000001">
    <ele>21.6</ele>
   </trkpt>
   <trkpt lat="18.26717" lon="109.66107000000001">
    <ele>24.490000000000002</ele>
   </trkpt>
   <trkpt lat="18.26694" lon="109.66059000000001">
    <ele>26.81</ele>
   </trkpt>
   <trkpt lat="18.26677" lon="109.66004000000001">
    <ele>28.1</ele>
   </trkpt>
   <trkpt lat="18.26669" lon="109.65961000000001">
    <ele>30.55</ele>
   </trkpt>
   <trkpt lat="18.266630000000003" lon="109.65894000000002">
    <ele>32.410000000000004</ele>
   </trkpt>
   <trkpt lat="18.266610000802515" lon="109.65838500000363">
    <ele>34.79</ele>
   </trkpt>
   <trkpt lat="18.26659" lon="109.65783">
    <ele>37.61000000000001</ele>
   </trkpt>
   <trkpt lat="18.26652000129782" lon="109.65712499978451">
    <ele>40.269999999999996</ele>
   </trkpt>
   <trkpt lat="18.266450000000003" lon="109.65642000000001">
    <ele>42.620000000000005</ele>
   </trkpt>
   <trkpt lat="18.266260001452686" lon="109.65567499922797">
    <ele>46.57000000000001</ele>
   </trkpt>
   <trkpt lat="18.266070000000003" lon="109.65493000000001">
    <ele>49.09</ele>
   </trkpt>
   <trkpt lat="18.265765001664466" lon="109.65412999860013">
    <ele>81.39</ele>
   </trkpt>
   <trkpt lat="18.26546" lon="109.65333000000001">
    <ele>112.0</ele>
   </trkpt>
   <trkpt lat="18.26533000194182" lon="109.65246499934211">
    <ele>97.56</ele>
   </trkpt>
   <trkpt lat="18.2652" lon="109.6516">
    <ele>82.97</ele>
   </trkpt>
   <trkpt lat="18.26516" lon="109.65106000000002">
    <ele>74.04</ele>
   </trkpt>
   <trkpt lat="18.26518" lon="109.65016000000001">
    <ele>61.34</ele>
   </trkpt>
   <trkpt lat="18.26537" lon="109.64929000000001">
    <ele>62.24</ele>
   </trkpt>
   <trkpt lat="18.265530000000002" lon="109.64878">
    <ele>61.800000000000004</ele>
   </trkpt>
   <trkpt lat="18.265843336004696" lon="109.6480666691779">
    <ele>60.33</ele>
   </trkpt>
   <trkpt lat="18.266156669366122" lon="109.64735333578069">
    <ele>58.900000000000006</ele>
   </trkpt>
   <trkpt lat="18.26647" lon="109.64664">
    <ele>57.220000000000006</ele>
   </trkpt>
   <trkpt lat="18.266782503181997" lon="109.64600000347662">
    <ele>56.53</ele>
   </trkpt>
   <trkpt lat="18.26709500423618" lon="109.64536000464886">
    <ele>55.540000000000006</ele>
   </trkpt>
   <trkpt lat="18.267407503162485" lon="109.64472000351672">
    <ele>55.18000000000001</ele>
   </trkpt>
   <trkpt lat="18.26772" lon="109.64408">
    <ele>54.36000000000001</ele>
   </trkpt>
   <trkpt lat="18.268030000854132" lon="109.64350000107275">
    <ele>54.06</ele>
   </trkpt>
   <trkpt lat="18.268340000000002" lon="109.64292">
    <ele>54.39000000000001</ele>
   </trkpt>
   <trkpt lat="18.268675001879632" lon="109.64207000163351">
    <ele>54.86000000000001</ele>
   </trkpt>
   <trkpt lat="18.26901" lon="109.64122">
    <ele>55.150000000000006</ele>
   </trkpt>
   <trkpt lat="18.269210002203312" lon="109.64030000103915">
    <ele>55.650000000000006</ele>
   </trkpt>
   <trkpt lat="18.26941" lon="109.63938">
    <ele>55.400000000000006</ele>
   </trkpt>
   <trkpt lat="18.26962" lon="109.63869000000001">
    <ele>55.09</ele>
   </trkpt>
   <trkpt lat="18.26989666845483" lon="109.63810000192473">
    <ele>53.86000000000001</ele>
   </trkpt>
   <trkpt lat="18.27017333510105" lon="109.63751000196838">
    <ele>52.67</ele>
   </trkpt>
   <trkpt lat="18.27045" lon="109.63692">
    <ele>52.050000000000004</ele>
   </trkpt>
   <trkpt lat="18.270752006425646" lon="109.6361340054568">
    <ele>51.67000000000001</ele>
   </trkpt>
   <trkpt lat="18.271054009641322" lon="109.63534800817797">
    <ele>51.54</ele>
   </trkpt>
   <trkpt lat="18.271356009646972" lon="109.63456200816347">
    <ele>51.32</ele>
   </trkpt>
   <trkpt lat="18.27165800644251" lon="109.63377600541331">
    <ele>51.14</ele>
   </trkpt>
   <trkpt lat="18.27196" lon="109.63299">
    <ele>50.620000000000005</ele>
   </trkpt>
   <trkpt lat="18.272215001385344" lon="109.63225500113265">
    <ele>50.120000000000005</ele>
   </trkpt>
   <trkpt lat="18.272470000000002" lon="109.63152000000001">
    <ele>48.78</ele>
   </trkpt>
   <trkpt lat="18.2727" lon="109.63094000000001">
    <ele>47.77</ele>
   </trkpt>
   <trkpt lat="18.272936670306986" lon="109.63010333560588">
    <ele>47.86000000000001</ele>
   </trkpt>
   <trkpt lat="18.273173336976424" lon="109.62926666892949">
    <ele>49.38000000000001</ele>
   </trkpt>
   <trkpt lat="18.273410000000002" lon="109.62843000000001">
    <ele>49.71</ele>
   </trkpt>
   <trkpt lat="18.27369333604295" lon="109.62770666905276">
    <ele>49.24</ele>
   </trkpt>
   <trkpt lat="18.27397666936699" lon="109.62698333574323">
    <ele>47.89</ele>
   </trkpt>
   <trkpt lat="18.27426" lon="109.62626">
    <ele>47.620000000000005</ele>
   </trkpt>
   <trkpt lat="18.274550000973377" lon="109.62566000092434">
    <ele>47.7</ele>
   </trkpt>
   <trkpt lat="18.27484" lon="109.62506">
    <ele>48.36000000000001</ele>
   </trkpt>
   <trkpt lat="18.275245001568422" lon="109.62427000194809">
    <ele>49.150000000000006</ele>
   </trkpt>
   <trkpt lat="18.275650000000002" lon="109.62348000000001">
    <ele>48.95</ele>
   </trkpt>
   <trkpt lat="18.27595572495366" lon="109.6226528658868">
    <ele>47.81</ele>
   </trkpt>
   <trkpt lat="18.27626144635167" lon="109.62182572885845">
    <ele>46.3</ele>
   </trkpt>
   <trkpt lat="18.276567164193946" lon="109.62099858891494">
    <ele>45.4</ele>
   </trkpt>
   <trkpt lat="18.276872878480415" lon="109.62017144605623">
    <ele>45.81</ele>
   </trkpt>
   <trkpt lat="18.277178589210997" lon="109.61934430028228">
    <ele>47.040000000000006</ele>
   </trkpt>
   <trkpt lat="18.27748429638562" lon="109.61851715159311">
    <ele>47.830000000000005</ele>
   </trkpt>
   <trkpt lat="18.277790000000003" lon="109.61769000000001">
    <ele>48.550000000000004</ele>
   </trkpt>
   <trkpt lat="18.277975002191578" lon="109.61677000102128">
    <ele>47.89</ele>
   </trkpt>
   <trkpt lat="18.27816" lon="109.61585000000001">
    <ele>46.510000000000005</ele>
   </trkpt>
   <trkpt lat="18.2781650006502" lon="109.6153499999661">
    <ele>45.410000000000004</ele>
   </trkpt>
   <trkpt lat="18.278170000000003" lon="109.61485">
    <ele>44.53000000000001</ele>
   </trkpt>
   <trkpt lat="18.278080002021174" lon="109.61396999962778">
    <ele>42.77</ele>
   </trkpt>
   <trkpt lat="18.277990000000003" lon="109.61309000000001">
    <ele>41.45</ele>
   </trkpt>
   <trkpt lat="18.277867506564878" lon="109.61217249806978">
    <ele>41.150000000000006</ele>
   </trkpt>
   <trkpt lat="18.277745008754348" lon="109.61125499743535">
    <ele>42.31</ele>
   </trkpt>
   <trkpt lat="18.277622506568438" lon="109.61033749809671">
    <ele>44.77</ele>
   </trkpt>
   <trkpt lat="18.2775" lon="109.60942000000001">
    <ele>46.14</ele>
   </trkpt>
   <trkpt lat="18.2775" lon="109.60901000000001">
    <ele>46.46</ele>
   </trkpt>
   <trkpt lat="18.277420001365492" lon="109.60828499966128">
    <ele>47.970000000000006</ele>
   </trkpt>
   <trkpt lat="18.277340000000002" lon="109.60756">
    <ele>49.71</ele>
   </trkpt>
   <trkpt lat="18.27731" lon="109.60687000000001">
    <ele>51.550000000000004</ele>
   </trkpt>
   <trkpt lat="18.27739" lon="109.60610000000001">
    <ele>50.79</ele>
   </trkpt>
   <trkpt lat="18.277520000000003" lon="109.60549">
    <ele>51.120000000000005</ele>
   </trkpt>
   <trkpt lat="18.277620000000002" lon="109.60519000000001">
    <ele>51.39</ele>
   </trkpt>
   <trkpt lat="18.27776" lon="109.60488000000001">
    <ele>51.52</ele>
   </trkpt>
   <trkpt lat="18.278105001619146" lon="109.60408500163501">
    <ele>49.82</ele>
   </trkpt>
   <trkpt lat="18.278450000000003" lon="109.60329000000002">
    <ele>46.690000000000005</ele>
   </trkpt>
   <trkpt lat="18.278750003210032" lon="109.60265000328559">
    <ele>44.160000000000004</ele>
   </trkpt>
   <trkpt lat="18.279050004291033" lon="109.6020100043574">
    <ele>42.79</ele>
   </trkpt>
   <trkpt lat="18.279350003242968" lon="109.60137000321542">
    <ele>38.43000000000001</ele>
   </trkpt>
   <trkpt lat="18.27965" lon="109.60073000000001">
    <ele>35.410000000000004</ele>
   </trkpt>
   <trkpt lat="18.280040000000003" lon="109.60000000000001">
    <ele>32.53</ele>
   </trkpt>
   <trkpt lat="18.280450000000002" lon="109.59936">
    <ele>30.2</ele>
   </trkpt>
   <trkpt lat="18.28095" lon="109.59864">
    <ele>28.96</ele>
   </trkpt>
   <trkpt lat="18.281442504241877" lon="109.59790000634663">
    <ele>26.150000000000002</ele>
   </trkpt>
   <trkpt lat="18.281935005637084" lon="109.59716000849053">
    <ele>24.68</ele>
   </trkpt>
   <trkpt lat="18.282427504185517" lon="109.5964200064316">
    <ele>22.990000000000002</ele>
   </trkpt>
   <trkpt lat="18.28292" lon="109.59568000000002">
    <ele>21.57</ele>
   </trkpt>
   <trkpt lat="18.283350000000002" lon="109.59485000000001">
    <ele>20.1</ele>
   </trkpt>
   <trkpt lat="18.283430000000003" lon="109.59459000000001">
    <ele>19.250000000000004</ele>
   </trkpt>
   <trkpt lat="18.28355" lon="109.59403">
    <ele>18.250000000000004</ele>
   </trkpt>
   <trkpt lat="18.28359" lon="109.59361000000001">
    <ele>17.69</ele>
   </trkpt>
   <trkpt lat="18.2836" lon="109.59308000000001">
    <ele>15.64</ele>
   </trkpt>
   <trkpt lat="18.283598007798062" lon="109.59221399995046">
    <ele>13.89</ele>
   </trkpt>
   <trkpt lat="18.28359601169709" lon="109.59134799992083">
    <ele>12.85</ele>
   </trkpt>
   <trkpt lat="18.28359401169707" lon="109.59048199991115">
    <ele>13.44</ele>
   </trkpt>
   <trkpt lat="18.283592007798" lon="109.58961599992148">
    <ele>13.65</ele>
   </trkpt>
   <trkpt lat="18.28359" lon="109.58875">
    <ele>13.860000000000001</ele>
   </trkpt>
   <trkpt lat="18.283582505801206" lon="109.58788749986772">
    <ele>14.020000000000001</ele>
   </trkpt>
   <trkpt lat="18.28357500773482" lon="109.58702499981001">
    <ele>14.780000000000001</ele>
   </trkpt>
   <trkpt lat="18.28356750580085" lon="109.58616249982688">
    <ele>16.23</ele>
   </trkpt>
   <trkpt lat="18.28356" lon="109.5853">
    <ele>17.130000000000003</ele>
   </trkpt>
   <trkpt lat="18.283510000000003" lon="109.58487000000001">
    <ele>17.29</ele>
   </trkpt>
   <trkpt lat="18.2834" lon="109.58431">
    <ele>17.210000000000004</ele>
   </trkpt>
   <trkpt lat="18.28322666859135" lon="109.58369999874597">
    <ele>17.150000000000002</ele>
   </trkpt>
   <trkpt lat="18.283053335248173" lon="109.58308999871134">
    <ele>17.67</ele>
   </trkpt>
   <trkpt lat="18.282880000000002" lon="109.58248">
    <ele>17.45</ele>
   </trkpt>
   <trkpt lat="18.28283" lon="109.58214000000001">
    <ele>17.150000000000002</ele>
   </trkpt>
   <trkpt lat="18.282770000000003" lon="109.58184000000001">
    <ele>16.68</ele>
   </trkpt>
   <trkpt lat="18.28253" lon="109.58155000000001">
    <ele>15.520000000000001</ele>
   </trkpt>
   <trkpt lat="18.28196" lon="109.58094000000001">
    <ele>16.25</ele>
   </trkpt>
   <trkpt lat="18.281850000000002" lon="109.58086000000002">
    <ele>16.130000000000003</ele>
   </trkpt>
   <trkpt lat="18.28132833818343" lon="109.58024832412052">
    <ele>16.32</ele>
   </trkpt>
   <trkpt lat="18.28080667442188" lon="109.57963665192065">
    <ele>15.620000000000001</ele>
   </trkpt>
   <trkpt lat="18.280285008715413" lon="109.57902498340025">
    <ele>14.690000000000001</ele>
   </trkpt>
   <trkpt lat="18.279763341064108" lon="109.5784133185592">
    <ele>14.190000000000001</ele>
   </trkpt>
   <trkpt lat="18.279241671468025" lon="109.5778016573974">
    <ele>13.73</ele>
   </trkpt>
   <trkpt lat="18.27872" lon="109.57719000000002">
    <ele>13.080000000000002</ele>
   </trkpt>
   <trkpt lat="18.278540000000003" lon="109.57693">
    <ele>12.92</ele>
   </trkpt>
   <trkpt lat="18.27834" lon="109.57659000000001">
    <ele>12.520000000000001</ele>
   </trkpt>
   <trkpt lat="18.27813" lon="109.57612">
    <ele>11.72</ele>
   </trkpt>
   <trkpt lat="18.277805005702106" lon="109.57526499520182">
    <ele>10.540000000000001</ele>
   </trkpt>
   <trkpt lat="18.277480007604584" lon="109.57440999360728">
    <ele>9.49</ele>
   </trkpt>
   <trkpt lat="18.27715500570754" lon="109.57355499521641">
    <ele>8.77</ele>
   </trkpt>
   <trkpt lat="18.27683" lon="109.57270000000001">
    <ele>8.530000000000001</ele>
   </trkpt>
   <trkpt lat="18.27661" lon="109.57229000000001">
    <ele>7.88</ele>
   </trkpt>
   <trkpt lat="18.276320000000002" lon="109.57187">
    <ele>7.3500000000000005</ele>
   </trkpt>
   <trkpt lat="18.276120000000002" lon="109.57168000000001">
    <ele>7.050000000000001</ele>
   </trkpt>
   <trkpt lat="18.275820000000003" lon="109.57146000000002">
    <ele>6.66</ele>
   </trkpt>
   <trkpt lat="18.275260000000003" lon="109.57115">
    <ele>6.4</ele>
   </trkpt>
   <trkpt lat="18.274580000441656" lon="109.570849997637">
    <ele>6.470000000000001</ele>
   </trkpt>
   <trkpt lat="18.273900000415594" lon="109.57054999762555">
    <ele>6.74</ele>
   </trkpt>
   <trkpt lat="18.273220000000002" lon="109.57025000000002">
    <ele>7.04</ele>
   </trkpt>
   <trkpt lat="18.27305" lon="109.57015000000001">
    <ele>6.880000000000001</ele>
   </trkpt>
   <trkpt lat="18.27237750065611" lon="109.5698599966287">
    <ele>6.95</ele>
   </trkpt>
   <trkpt lat="18.27170500087521" lon="109.56956999550515">
    <ele>7.33</ele>
   </trkpt>
   <trkpt lat="18.271032500657313" lon="109.56927999662932">
    <ele>7.760000000000001</ele>
   </trkpt>
   <trkpt lat="18.27036" lon="109.56899000000001">
    <ele>8.59</ele>
   </trkpt>
   <trkpt lat="18.26959750087428" lon="109.56865249554588">
    <ele>8.780000000000001</ele>
   </trkpt>
   <trkpt lat="18.268835001156738" lon="109.56831499405729">
    <ele>9.31</ele>
   </trkpt>
   <trkpt lat="18.268072500847413" lon="109.56797749553414">
    <ele>9.36</ele>
   </trkpt>
   <trkpt lat="18.267310000000002" lon="109.56764000000001">
    <ele>8.96</ele>
   </trkpt>
   <trkpt lat="18.266544447036733" lon="109.56728665420083">
    <ele>8.200000000000001</ele>
   </trkpt>
   <trkpt lat="18.265778893424876" lon="109.56693331151827">
    <ele>7.86</ele>
   </trkpt>
   <trkpt lat="18.265013339164465" lon="109.56657997195221">
    <ele>7.21</ele>
   </trkpt>
   <trkpt lat="18.264247784255538" lon="109.56622663550246">
    <ele>6.86</ele>
   </trkpt>
   <trkpt lat="18.26348222869812" lon="109.56587330216887">
    <ele>6.73</ele>
   </trkpt>
   <trkpt lat="18.262716672492253" lon="109.56551997195128">
    <ele>6.87</ele>
   </trkpt>
   <trkpt lat="18.261951115637974" lon="109.56516664484948">
    <ele>7.17</ele>
   </trkpt>
   <trkpt lat="18.261185558135313" lon="109.56481332086341">
    <ele>7.490000000000001</ele>
   </trkpt>
   <trkpt lat="18.26042" lon="109.56446000000001">
    <ele>7.8500000000000005</ele>
   </trkpt>
   <trkpt lat="18.259915000110613" lon="109.56423999935366">
    <ele>8.07</ele>
   </trkpt>
   <trkpt lat="18.259410000000003" lon="109.56402000000001">
    <ele>8.83</ele>
   </trkpt>
   <trkpt lat="18.258570000000002" lon="109.56369000000001">
    <ele>10.620000000000001</ele>
   </trkpt>
   <trkpt lat="18.258134999877107" lon="109.56354499957766">
    <ele>11.430000000000001</ele>
   </trkpt>
   <trkpt lat="18.2577" lon="109.56340000000002">
    <ele>11.850000000000001</ele>
   </trkpt>
   <trkpt lat="18.25684500095673" lon="109.56316999207394">
    <ele>12.24</ele>
   </trkpt>
   <trkpt lat="18.255990001638768" lon="109.56293998641237">
    <ele>12.08</ele>
   </trkpt>
   <trkpt lat="18.25513500204612" lon="109.56270998301518">
    <ele>11.19</ele>
   </trkpt>
   <trkpt lat="18.254280002178803" lon="109.56247998188223">
    <ele>9.46</ele>
   </trkpt>
   <trkpt lat="18.25342500203684" lon="109.5622499830134">
    <ele>8.13</ele>
   </trkpt>
   <trkpt lat="18.252570001620242" lon="109.56201998640852">
    <ele>8.97</ele>
   </trkpt>
   <trkpt lat="18.25171500092903" lon="109.56178999206746">
    <ele>9.13</ele>
   </trkpt>
   <trkpt lat="18.250860000000003" lon="109.56156000000001">
    <ele>9.080000000000002</ele>
   </trkpt>
   <trkpt lat="18.250088000493307" lon="109.56133799604947">
    <ele>8.5</ele>
   </trkpt>
   <trkpt lat="18.249316000730776" lon="109.56111599407166">
    <ele>8.75</ele>
   </trkpt>
   <trkpt lat="18.248544000712428" lon="109.5608939940665">
    <ele>8.780000000000001</ele>
   </trkpt>
   <trkpt lat="18.247772000438275" lon="109.56067199603388">
    <ele>9.510000000000002</ele>
   </trkpt>
   <trkpt lat="18.247" lon="109.56045">
    <ele>10.370000000000001</ele>
   </trkpt>
   <trkpt lat="18.246480000000002" lon="109.56022000000002">
    <ele>12.180000000000001</ele>
   </trkpt>
   <trkpt lat="18.24603" lon="109.55994000000001">
    <ele>13.09</ele>
   </trkpt>
   <trkpt lat="18.24564" lon="109.55961">
    <ele>14.370000000000001</ele>
   </trkpt>
   <trkpt lat="18.245320000000003" lon="109.55924">
    <ele>15.150000000000002</ele>
   </trkpt>
   <trkpt lat="18.245040000000003" lon="109.55884">
    <ele>15.67</ele>
   </trkpt>
   <trkpt lat="18.244670001117402" lon="109.55818499861309">
    <ele>16.6</ele>
   </trkpt>
   <trkpt lat="18.244300000000003" lon="109.55753000000001">
    <ele>16.540000000000003</ele>
   </trkpt>
   <trkpt lat="18.2439137616587" lon="109.55672873753414">
    <ele>16.360000000000003</ele>
   </trkpt>
   <trkpt lat="18.243527519985754" lon="109.55592747862924">
    <ele>15.92</ele>
   </trkpt>
   <trkpt lat="18.243141274981262" lon="109.55512622328523">
    <ele>15.240000000000002</ele>
   </trkpt>
   <trkpt lat="18.242755026645305" lon="109.55432497150208">
    <ele>15.74</ele>
   </trkpt>
   <trkpt lat="18.242368774977987" lon="109.55352372327972">
    <ele>16.3</ele>
   </trkpt>
   <trkpt lat="18.241982519979388" lon="109.55272247861805">
    <ele>16.439999999999998</ele>
   </trkpt>
   <trkpt lat="18.2415962616496" lon="109.55192123751704">
    <ele>15.790000000000001</ele>
   </trkpt>
   <trkpt lat="18.241210000000002" lon="109.55112000000001">
    <ele>15.370000000000001</ele>
   </trkpt>
   <trkpt lat="18.24099" lon="109.55078">
    <ele>15.410000000000002</ele>
   </trkpt>
   <trkpt lat="18.240820000000003" lon="109.55058000000001">
    <ele>15.340000000000002</ele>
   </trkpt>
   <trkpt lat="18.240445000262074" lon="109.55019499904384">
    <ele>15.56</ele>
   </trkpt>
   <trkpt lat="18.240070000000003" lon="109.54981000000001">
    <ele>15.35</ele>
   </trkpt>
   <trkpt lat="18.23949000093921" lon="109.54917499776471">
    <ele>15.55</ele>
   </trkpt>
   <trkpt lat="18.23891" lon="109.54854">
    <ele>15.3</ele>
   </trkpt>
   <trkpt lat="18.238585000342713" lon="109.54811999906649">
    <ele>13.97</ele>
   </trkpt>
   <trkpt lat="18.23826" lon="109.5477">
    <ele>12.870000000000001</ele>
   </trkpt>
   <trkpt lat="18.237720000000003" lon="109.54709000000001">
    <ele>10.51</ele>
   </trkpt>
   <trkpt lat="18.237550000000002" lon="109.54678000000001">
    <ele>10.360000000000001</ele>
   </trkpt>
   <trkpt lat="18.23741" lon="109.54648">
    <ele>10.24</ele>
   </trkpt>
   <trkpt lat="18.23729" lon="109.54616000000001">
    <ele>10.41</ele>
   </trkpt>
   <trkpt lat="18.23724" lon="109.5459">
    <ele>10.48</ele>
   </trkpt>
   <trkpt lat="18.23717500411908" lon="109.54517249919178">
    <ele>9.97</ele>
   </trkpt>
   <trkpt lat="18.237110005492546" lon="109.5444449989274">
    <ele>9.13</ele>
   </trkpt>
   <trkpt lat="18.23704500412042" lon="109.54371749920692">
    <ele>9.120000000000001</ele>
   </trkpt>
   <trkpt lat="18.236980000000003" lon="109.54299">
    <ele>9.63</ele>
   </trkpt>
   <trkpt lat="18.23686" lon="109.54239000000001">
    <ele>9.590000000000002</ele>
   </trkpt>
   <trkpt lat="18.236705000663292" lon="109.54185499925008">
    <ele>10.32</ele>
   </trkpt>
   <trkpt lat="18.23655" lon="109.54132000000001">
    <ele>10.93</ele>
   </trkpt>
   <trkpt lat="18.236335001237077" lon="109.54062499908979">
    <ele>11.19</ele>
   </trkpt>
   <trkpt lat="18.236120000000003" lon="109.53993000000001">
    <ele>10.57</ele>
   </trkpt>
   <trkpt lat="18.23596000057506" lon="109.53945999957378">
    <ele>9.92</ele>
   </trkpt>
   <trkpt lat="18.2358" lon="109.53899000000001">
    <ele>9.8</ele>
   </trkpt>
   <trkpt lat="18.235570000000003" lon="109.53826000000001">
    <ele>9.770000000000001</ele>
   </trkpt>
   <trkpt lat="18.23542" lon="109.53797000000002">
    <ele>9.860000000000001</ele>
   </trkpt>
   <trkpt lat="18.23524" lon="109.53770000000002">
    <ele>9.940000000000001</ele>
   </trkpt>
   <trkpt lat="18.23504" lon="109.53747000000001">
    <ele>10.3</ele>
   </trkpt>
   <trkpt lat="18.23452" lon="109.53703000000002">
    <ele>11.200000000000001</ele>
   </trkpt>
   <trkpt lat="18.23404000054953" lon="109.5365849988052">
    <ele>10.900000000000002</ele>
   </trkpt>
   <trkpt lat="18.23356" lon="109.53614">
    <ele>9.64</ele>
   </trkpt>
   <trkpt lat="18.233140000000002" lon="109.53569">
    <ele>7.55</ele>
   </trkpt>
   <trkpt lat="18.23297" lon="109.53544000000001">
    <ele>7.0600000000000005</ele>
   </trkpt>
   <trkpt lat="18.23274" lon="109.53491000000001">
    <ele>6.91</ele>
   </trkpt>
   <trkpt lat="18.2325" lon="109.53418">
    <ele>6.86</ele>
   </trkpt>
   <trkpt lat="18.23226500095081" lon="109.53357499918677">
    <ele>6.880000000000001</ele>
   </trkpt>
   <trkpt lat="18.23203" lon="109.53297">
    <ele>6.78</ele>
   </trkpt>
   <trkpt lat="18.23188" lon="109.5327">
    <ele>6.890000000000001</ele>
   </trkpt>
   <trkpt lat="18.2317" lon="109.53246000000001">
    <ele>7.0</ele>
   </trkpt>
   <trkpt lat="18.231091010825722" lon="109.53177897854762">
    <ele>7.4</ele>
   </trkpt>
   <trkpt lat="18.230482019246164" lon="109.53109796186371">
    <ele>7.760000000000001</ele>
   </trkpt>
   <trkpt lat="18.229873025261426" lon="109.53041694994809">
    <ele>8.13</ele>
   </trkpt>
   <trkpt lat="18.229264028871615" lon="109.5297359428006">
    <ele>8.58</ele>
   </trkpt>
   <trkpt lat="18.228655030076833" lon="109.52905494042105">
    <ele>8.72</ele>
   </trkpt>
   <trkpt lat="18.228046028877174" lon="109.52837394280922">
    <ele>9.24</ele>
   </trkpt>
   <trkpt lat="18.227437025272753" lon="109.52769294996497">
    <ele>10.31</ele>
   </trkpt>
   <trkpt lat="18.22682801926366" lon="109.52701196188808">
    <ele>11.1</ele>
   </trkpt>
   <trkpt lat="18.226219010850016" lon="109.52633097857837">
    <ele>11.73</ele>
   </trkpt>
   <trkpt lat="18.225610000000003" lon="109.52565000000001">
    <ele>12.67</ele>
   </trkpt>
   <trkpt lat="18.22549" lon="109.52549">
    <ele>12.88</ele>
   </trkpt>
   <trkpt lat="18.22541" lon="109.52532000000001">
    <ele>13.0</ele>
   </trkpt>
   <trkpt lat="18.225340000000003" lon="109.52511000000001">
    <ele>13.27</ele>
   </trkpt>
   <trkpt lat="18.2253" lon="109.52493000000001">
    <ele>13.27</ele>
   </trkpt>
   <trkpt lat="18.225300002813654" lon="109.5241933333409">
    <ele>14.040000000000001</ele>
   </trkpt>
   <trkpt lat="18.225300002813654" lon="109.52345666668178">
    <ele>14.31</ele>
   </trkpt>
   <trkpt lat="18.2253" lon="109.52272">
    <ele>14.260000000000002</ele>
   </trkpt>
   <trkpt lat="18.225295000755132" lon="109.52217999989713">
    <ele>14.100000000000001</ele>
   </trkpt>
   <trkpt lat="18.22529" lon="109.52164">
    <ele>13.98</ele>
   </trkpt>
   <trkpt lat="18.225340000000003" lon="109.52133">
    <ele>13.99</ele>
   </trkpt>
   <trkpt lat="18.225680001678423" lon="109.52053000151787">
    <ele>14.16</ele>
   </trkpt>
   <trkpt lat="18.226020000000002" lon="109.51973000000001">
    <ele>13.39</ele>
   </trkpt>
   <trkpt lat="18.226388006436334" lon="109.51894200667299">
    <ele>13.36</ele>
   </trkpt>
   <trkpt lat="18.226756009653098" lon="109.51815401001271">
    <ele>13.74</ele>
   </trkpt>
   <trkpt lat="18.227124009650215" lon="109.51736601001912">
    <ele>14.260000000000002</ele>
   </trkpt>
   <trkpt lat="18.227492006427592" lon="109.51657800669219">
    <ele>15.88</ele>
   </trkpt>
   <trkpt lat="18.22786" lon="109.51579000000001">
    <ele>17.27</ele>
   </trkpt>
   <trkpt lat="18.227780000000003" lon="109.51573">
    <ele>17.27</ele>
   </trkpt>
   <trkpt lat="18.227360000247366" lon="109.51552499957268">
    <ele>16.439999999999998</ele>
   </trkpt>
   <trkpt lat="18.226940000000003" lon="109.51532">
    <ele>15.88</ele>
   </trkpt>
   <trkpt lat="18.226770000000002" lon="109.51521000000001">
    <ele>15.82</ele>
   </trkpt>
   <trkpt lat="18.226265000524503" lon="109.51473999859108">
    <ele>15.61</ele>
   </trkpt>
   <trkpt lat="18.22576" lon="109.51427000000001">
    <ele>16.0</ele>
   </trkpt>
   <trkpt lat="18.22539" lon="109.51371">
    <ele>17.16</ele>
   </trkpt>
   <trkpt lat="18.225086669680838" lon="109.51294999739922">
    <ele>19.180000000000003</ele>
   </trkpt>
   <trkpt lat="18.22478333636698" lon="109.51218999744808">
    <ele>21.75</ele>
   </trkpt>
   <trkpt lat="18.22448" lon="109.51143">
    <ele>26.0</ele>
   </trkpt>
   <trkpt lat="18.22436" lon="109.51127000000001">
    <ele>26.950000000000003</ele>
   </trkpt>
   <trkpt lat="18.224210000000003" lon="109.51113000000001">
    <ele>29.0</ele>
   </trkpt>
   <trkpt lat="18.22370500028243" lon="109.51081999912088">
    <ele>31.46</ele>
   </trkpt>
   <trkpt lat="18.223200000000002" lon="109.51051000000001">
    <ele>34.440000000000005</ele>
   </trkpt>
   <trkpt lat="18.222720000000002" lon="109.50979000000001">
    <ele>37.67</ele>
   </trkpt>
   <trkpt lat="18.222320000566405" lon="109.50935999910537">
    <ele>39.68</ele>
   </trkpt>
   <trkpt lat="18.22192" lon="109.50893">
    <ele>41.220000000000006</ele>
   </trkpt>
   <trkpt lat="18.221500000000002" lon="109.50839">
    <ele>43.58</ele>
   </trkpt>
   <trkpt lat="18.22137" lon="109.50803">
    <ele>45.31</ele>
   </trkpt>
   <trkpt lat="18.22136" lon="109.5074">
    <ele>47.550000000000004</ele>
   </trkpt>
   <trkpt lat="18.221330000000002" lon="109.50720000000001">
    <ele>48.43</ele>
   </trkpt>
   <trkpt lat="18.221210000000003" lon="109.50699000000002">
    <ele>49.34</ele>
   </trkpt>
   <trkpt lat="18.2208" lon="109.50649000000001">
    <ele>50.92000000000001</ele>
   </trkpt>
   <trkpt lat="18.220650000000003" lon="109.50623">
    <ele>52.02</ele>
   </trkpt>
   <trkpt lat="18.220550000000003" lon="109.50596000000002">
    <ele>52.61</ele>
   </trkpt>
   <trkpt lat="18.22052" lon="109.50564000000001">
    <ele>53.45</ele>
   </trkpt>
   <trkpt lat="18.22052" lon="109.50535">
    <ele>54.1</ele>
   </trkpt>
   <trkpt lat="18.22058" lon="109.50496000000001">
    <ele>54.56</ele>
   </trkpt>
   <trkpt lat="18.220730000000003" lon="109.50459000000001">
    <ele>54.8</ele>
   </trkpt>
   <trkpt lat="18.221070000734617" lon="109.50406000102512">
    <ele>55.400000000000006</ele>
   </trkpt>
   <trkpt lat="18.221410000000002" lon="109.50353000000001">
    <ele>55.57</ele>
   </trkpt>
   <trkpt lat="18.221785001306085" lon="109.50282500148553">
    <ele>55.92</ele>
   </trkpt>
   <trkpt lat="18.222160000000002" lon="109.50212">
    <ele>56.120000000000005</ele>
   </trkpt>
   <trkpt lat="18.2222" lon="109.50198">
    <ele>55.17</ele>
   </trkpt>
   <trkpt lat="18.2222" lon="109.50181">
    <ele>55.17</ele>
   </trkpt>
   <trkpt lat="18.222150000000003" lon="109.50144">
    <ele>53.21000000000001</ele>
   </trkpt>
   <trkpt lat="18.22204" lon="109.50112000000001">
    <ele>51.760000000000005</ele>
   </trkpt>
   <trkpt lat="18.22182" lon="109.50071000000001">
    <ele>48.290000000000006</ele>
   </trkpt>
   <trkpt lat="18.221350001326773" lon="109.50021333070174">
    <ele>42.14</ele>
   </trkpt>
   <trkpt lat="18.22088000137481" lon="109.49971666408587">
    <ele>38.080000000000005</ele>
   </trkpt>
   <trkpt lat="18.22041" lon="109.49922000000001">
    <ele>32.81</ele>
   </trkpt>
   <trkpt lat="18.220060000362857" lon="109.49888999941244">
    <ele>29.560000000000002</ele>
   </trkpt>
   <trkpt lat="18.219710000000003" lon="109.49856000000001">
    <ele>25.400000000000002</ele>
   </trkpt>
   <trkpt lat="18.219130000313815" lon="109.49819499876403">
    <ele>20.62</ele>
   </trkpt>
   <trkpt lat="18.21855" lon="109.49783000000001">
    <ele>14.530000000000001</ele>
   </trkpt>
   <trkpt lat="18.21791" lon="109.49758000000001">
    <ele>11.850000000000001</ele>
   </trkpt>
   <trkpt lat="18.21716" lon="109.49744000000001">
    <ele>10.15</ele>
   </trkpt>
   <trkpt lat="18.216540000000002" lon="109.49746">
    <ele>9.55</ele>
   </trkpt>
   <trkpt lat="18.215715000133592" lon="109.49757000050761">
    <ele>9.120000000000001</ele>
   </trkpt>
   <trkpt lat="18.21489" lon="109.49768">
    <ele>8.75</ele>
   </trkpt>
   <trkpt lat="18.21441999984782" lon="109.49774500019801">
    <ele>8.540000000000001</ele>
   </trkpt>
   <trkpt lat="18.21395" lon="109.49781000000002">
    <ele>8.530000000000001</ele>
   </trkpt>
   <trkpt lat="18.213800000743298" lon="109.49727499954518">
    <ele>8.540000000000001</ele>
   </trkpt>
   <trkpt lat="18.21365" lon="109.49674">
    <ele>8.700000000000001</ele>
   </trkpt>
   <trkpt lat="18.213510000000003" lon="109.49636000000001">
    <ele>8.55</ele>
   </trkpt>
   <trkpt lat="18.213340000000002" lon="109.49604000000001">
    <ele>8.440000000000001</ele>
   </trkpt>
   <trkpt lat="18.213140000000003" lon="109.49571">
    <ele>8.440000000000001</ele>
   </trkpt>
  </trkseg>
 </trk>
</gpx>
