<?xml version="1.0" encoding="UTF-8"?>
<gpx creator="StravaGPX" version="1.1" xmlns="http://www.topografix.com/GPX/1/1" xmlns:xsi="http://www.w3.org/2001/XMLSchema-instance" xsi:schemaLocation="http://www.topografix.com/GPX/1/1 http://www.topografix.com/GPX/1/1/gpx.xsd">
 <metadata>
  <name>Hainan: reservoirs</name>
  <author>
   <name>Vladimir Sumarokov 🇰🇿🇷🇺🇹🇭</name>
   <link href="https://www.strava.com/athletes/16069938"/>
  </author>
  <copyright author="OpenStreetMap contributors">
   <year>2020</year>
   <license>https://www.openstreetmap.org/copyright</license>
  </copyright>
  <link href="https://www.strava.com/routes/3292923719941271626"/>
 </metadata>
 <trk>
  <name>Hainan: reservoirs</name>
  <link href="https://www.strava.com/routes/3292923719941271626"/>
  <type>cycling</type>
  <trkseg>
   <trkpt lat="18.213720000000002" lon="109.49699000000001">
    <ele>8.540000000000001</ele>
   </trkpt>
   <trkpt lat="18.21395" lon="109.49781000000002">
    <ele>8.57</ele>
   </trkpt>
   <trkpt lat="18.214420000174073" lon="109.49774500015292">
    <ele>8.75</ele>
   </trkpt>
   <trkpt lat="18.21489" lon="109.49768">
    <ele>9.05</ele>
   </trkpt>
   <trkpt lat="18.215714999929112" lon="109.49757000053485">
    <ele>9.35</ele>
   </trkpt>
   <trkpt lat="18.216540000000002" lon="109.49746">
    <ele>9.760000000000002</ele>
   </trkpt>
   <trkpt lat="18.21716" lon="109.49744000000001">
    <ele>10.89</ele>
   </trkpt>
   <trkpt lat="18.21791" lon="109.49758000000001">
    <ele>12.610000000000001</ele>
   </trkpt>
   <trkpt lat="18.21855" lon="109.49783000000001">
    <ele>16.94</ele>
   </trkpt>
   <trkpt lat="18.219130000376722" lon="109.49819499880363">
    <ele>22.78</ele>
   </trkpt>
   <trkpt lat="18.219710000000003" lon="109.49856000000001">
    <ele>28.41</ele>
   </trkpt>
   <trkpt lat="18.220060000201627" lon="109.49888999926044">
    <ele>32.81</ele>
   </trkpt>
   <trkpt lat="18.22041" lon="109.49922000000001">
    <ele>35.93</ele>
   </trkpt>
   <trkpt lat="18.220880001230654" lon="109.49971666393353">
    <ele>40.150000000000006</ele>
   </trkpt>
   <trkpt lat="18.221350001182614" lon="109.5002133305494">
    <ele>45.95</ele>
   </trkpt>
   <trkpt lat="18.22182" lon="109.50071000000001">
    <ele>50.440000000000005</ele>
   </trkpt>
   <trkpt lat="18.22204" lon="109.50112000000001">
    <ele>53.21000000000001</ele>
   </trkpt>
   <trkpt lat="18.222150000000003" lon="109.50144">
    <ele>55.17</ele>
   </trkpt>
   <trkpt lat="18.2222" lon="109.50181">
    <ele>56.120000000000005</ele>
   </trkpt>
   <trkpt lat="18.2222" lon="109.50198">
    <ele>56.39</ele>
   </trkpt>
   <trkpt lat="18.222160000000002" lon="109.50212">
    <ele>56.45</ele>
   </trkpt>
   <trkpt lat="18.221785001270444" lon="109.50282500155252">
    <ele>55.870000000000005</ele>
   </trkpt>
   <trkpt lat="18.221410000000002" lon="109.50353000000001">
    <ele>55.580000000000005</ele>
   </trkpt>
   <trkpt lat="18.221070000721493" lon="109.50406000104557">
    <ele>55.31</ele>
   </trkpt>
   <trkpt lat="18.220730000000003" lon="109.50459000000001">
    <ele>54.64</ele>
   </trkpt>
   <trkpt lat="18.22058" lon="109.50496000000001">
    <ele>54.1</ele>
   </trkpt>
   <trkpt lat="18.22052" lon="109.50535">
    <ele>53.45</ele>
   </trkpt>
   <trkpt lat="18.22052" lon="109.50564000000001">
    <ele>52.61</ele>
   </trkpt>
   <trkpt lat="18.220550000000003" lon="109.50596000000002">
    <ele>52.02</ele>
   </trkpt>
   <trkpt lat="18.220650000000003" lon="109.50623">
    <ele>50.92000000000001</ele>
   </trkpt>
   <trkpt lat="18.2208" lon="109.50649000000001">
    <ele>50.68</ele>
   </trkpt>
   <trkpt lat="18.221210000000003" lon="109.50699000000002">
    <ele>48.43</ele>
   </trkpt>
   <trkpt lat="18.221330000000002" lon="109.50720000000001">
    <ele>47.550000000000004</ele>
   </trkpt>
   <trkpt lat="18.22136" lon="109.5074">
    <ele>46.77</ele>
   </trkpt>
   <trkpt lat="18.22137" lon="109.50803">
    <ele>44.14000000000001</ele>
   </trkpt>
   <trkpt lat="18.221500000000002" lon="109.50839">
    <ele>42.9</ele>
   </trkpt>
   <trkpt lat="18.22192" lon="109.50893">
    <ele>40.63</ele>
   </trkpt>
   <trkpt lat="18.222320000392127" lon="109.50935999891806">
    <ele>39.05</ele>
   </trkpt>
   <trkpt lat="18.222720000000002" lon="109.50979000000001">
    <ele>36.36</ele>
   </trkpt>
   <trkpt lat="18.223200000000002" lon="109.51051000000001">
    <ele>32.910000000000004</ele>
   </trkpt>
   <trkpt lat="18.223705000215794" lon="109.51081999907996">
    <ele>29.7</ele>
   </trkpt>
   <trkpt lat="18.224210000000003" lon="109.51113000000001">
    <ele>26.950000000000003</ele>
   </trkpt>
   <trkpt lat="18.22436" lon="109.51127000000001">
    <ele>26.0</ele>
   </trkpt>
   <trkpt lat="18.22448" lon="109.51143">
    <ele>24.37</ele>
   </trkpt>
   <trkpt lat="18.224783336308494" lon="109.51218999730152">
    <ele>21.16</ele>
   </trkpt>
   <trkpt lat="18.22508666962235" lon="109.51294999725265">
    <ele>17.6</ele>
   </trkpt>
   <trkpt lat="18.22539" lon="109.51371">
    <ele>16.360000000000003</ele>
   </trkpt>
   <trkpt lat="18.22576" lon="109.51427000000001">
    <ele>15.690000000000003</ele>
   </trkpt>
   <trkpt lat="18.226265000620863" lon="109.51473999868077">
    <ele>15.620000000000001</ele>
   </trkpt>
   <trkpt lat="18.226770000000002" lon="109.51521000000001">
    <ele>16.0</ele>
   </trkpt>
   <trkpt lat="18.226940000000003" lon="109.51532">
    <ele>16.23</ele>
   </trkpt>
   <trkpt lat="18.227359999970552" lon="109.51552499943759">
    <ele>16.900000000000002</ele>
   </trkpt>
   <trkpt lat="18.227780000000003" lon="109.51573">
    <ele>17.41</ele>
   </trkpt>
   <trkpt lat="18.22786" lon="109.51579000000001">
    <ele>17.43</ele>
   </trkpt>
   <trkpt lat="18.228" lon="109.51561000000001">
    <ele>17.69</ele>
   </trkpt>
   <trkpt lat="18.22821" lon="109.51540000000001">
    <ele>17.77</ele>
   </trkpt>
   <trkpt lat="18.22858" lon="109.51515">
    <ele>17.32</ele>
   </trkpt>
   <trkpt lat="18.22887" lon="109.51506">
    <ele>16.240000000000002</ele>
   </trkpt>
   <trkpt lat="18.22943" lon="109.51499000000001">
    <ele>14.85</ele>
   </trkpt>
   <trkpt lat="18.23008" lon="109.51507000000001">
    <ele>12.41</ele>
   </trkpt>
   <trkpt lat="18.230770000094054" lon="109.51518333243872">
    <ele>9.8</ele>
   </trkpt>
   <trkpt lat="18.231460000121498" lon="109.51529666577656">
    <ele>8.72</ele>
   </trkpt>
   <trkpt lat="18.23215" lon="109.51541">
    <ele>8.010000000000002</ele>
   </trkpt>
   <trkpt lat="18.232490000000002" lon="109.51541">
    <ele>7.95</ele>
   </trkpt>
   <trkpt lat="18.232980000077607" lon="109.51538500006657">
    <ele>7.680000000000001</ele>
   </trkpt>
   <trkpt lat="18.23347" lon="109.51536000000002">
    <ele>7.450000000000001</ele>
   </trkpt>
   <trkpt lat="18.233800000000002" lon="109.51551">
    <ele>7.51</ele>
   </trkpt>
   <trkpt lat="18.234340000485883" lon="109.51579666491811">
    <ele>7.74</ele>
   </trkpt>
   <trkpt lat="18.23488000054551" lon="109.51608333161641">
    <ele>8.040000000000001</ele>
   </trkpt>
   <trkpt lat="18.23542" lon="109.51637000000001">
    <ele>8.219999999999999</ele>
   </trkpt>
   <trkpt lat="18.23563" lon="109.51644">
    <ele>8.24</ele>
   </trkpt>
   <trkpt lat="18.23616" lon="109.51655000000001">
    <ele>8.520000000000001</ele>
   </trkpt>
   <trkpt lat="18.23648" lon="109.51655000000001">
    <ele>8.42</ele>
   </trkpt>
   <trkpt lat="18.236810000000002" lon="109.51652000000001">
    <ele>8.41</ele>
   </trkpt>
   <trkpt lat="18.23723" lon="109.51642000000001">
    <ele>8.450000000000001</ele>
   </trkpt>
   <trkpt lat="18.238092500472938" lon="109.5161725036843">
    <ele>8.870000000000001</ele>
   </trkpt>
   <trkpt lat="18.238955000628092" lon="109.51592500491323">
    <ele>9.11</ele>
   </trkpt>
   <trkpt lat="18.239817500465435" lon="109.51567750368662">
    <ele>9.27</ele>
   </trkpt>
   <trkpt lat="18.24068" lon="109.51543000000001">
    <ele>9.72</ele>
   </trkpt>
   <trkpt lat="18.241100000000003" lon="109.51534000000001">
    <ele>9.780000000000001</ele>
   </trkpt>
   <trkpt lat="18.241570000000003" lon="109.51529000000001">
    <ele>9.9</ele>
   </trkpt>
   <trkpt lat="18.242040000000003" lon="109.51530000000001">
    <ele>9.88</ele>
   </trkpt>
   <trkpt lat="18.24248" lon="109.51535000000001">
    <ele>9.8</ele>
   </trkpt>
   <trkpt lat="18.24294" lon="109.51545000000002">
    <ele>9.39</ele>
   </trkpt>
   <trkpt lat="18.243740000671156" lon="109.51567832807703">
    <ele>8.270000000000001</ele>
   </trkpt>
   <trkpt lat="18.244540001071776" lon="109.51590665825582">
    <ele>8.06</ele>
   </trkpt>
   <trkpt lat="18.24534000120183" lon="109.5161349905365">
    <ele>7.92</ele>
   </trkpt>
   <trkpt lat="18.246140001061327" lon="109.51636332491918">
    <ele>8.370000000000001</ele>
   </trkpt>
   <trkpt lat="18.246940000650234" lon="109.516591661404">
    <ele>8.780000000000001</ele>
   </trkpt>
   <trkpt lat="18.24774" lon="109.51682000000001">
    <ele>8.75</ele>
   </trkpt>
   <trkpt lat="18.24828" lon="109.51694">
    <ele>8.66</ele>
   </trkpt>
   <trkpt lat="18.249090000000002" lon="109.51708">
    <ele>8.67</ele>
   </trkpt>
   <trkpt lat="18.24988" lon="109.51713000000001">
    <ele>8.620000000000001</ele>
   </trkpt>
   <trkpt lat="18.250330000081444" lon="109.5171200000241">
    <ele>8.6</ele>
   </trkpt>
   <trkpt lat="18.250780000000002" lon="109.51711">
    <ele>8.6</ele>
   </trkpt>
   <trkpt lat="18.251555000022947" lon="109.51706333437455">
    <ele>8.620000000000001</ele>
   </trkpt>
   <trkpt lat="18.252330000034586" lon="109.51701666833276">
    <ele>8.540000000000001</ele>
   </trkpt>
   <trkpt lat="18.25310500003492" lon="109.51697000187464">
    <ele>8.540000000000001</ele>
   </trkpt>
   <trkpt lat="18.253880000023944" lon="109.51692333500014">
    <ele>8.42</ele>
   </trkpt>
   <trkpt lat="18.25465500000167" lon="109.51687666770925">
    <ele>8.440000000000001</ele>
   </trkpt>
   <trkpt lat="18.25543" lon="109.51683000000001">
    <ele>7.82</ele>
   </trkpt>
   <trkpt lat="18.256221666675486" lon="109.51681333371306">
    <ele>7.7700000000000005</ele>
   </trkpt>
   <trkpt lat="18.257013333349533" lon="109.5167966672742">
    <ele>8.38</ele>
   </trkpt>
   <trkpt lat="18.25780500002215" lon="109.51678000068343">
    <ele>9.520000000000001</ele>
   </trkpt>
   <trkpt lat="18.258596666693307" lon="109.51676333394069">
    <ele>10.900000000000002</ele>
   </trkpt>
   <trkpt lat="18.25938833336303" lon="109.516746667046">
    <ele>12.650000000000002</ele>
   </trkpt>
   <trkpt lat="18.260180000000002" lon="109.51673000000001">
    <ele>13.930000000000001</ele>
   </trkpt>
   <trkpt lat="18.260990000041105" lon="109.51669000037157">
    <ele>15.56</ele>
   </trkpt>
   <trkpt lat="18.261800000073897" lon="109.51665000036995">
    <ele>15.84</ele>
   </trkpt>
   <trkpt lat="18.262610000000002" lon="109.51661000000001">
    <ele>16.290000000000003</ele>
   </trkpt>
   <trkpt lat="18.2633560000285" lon="109.51656200082473">
    <ele>15.530000000000001</ele>
   </trkpt>
   <trkpt lat="18.264102000045032" lon="109.51651400123697">
    <ele>15.01</ele>
   </trkpt>
   <trkpt lat="18.2648480000496" lon="109.5164660012367">
    <ele>14.950000000000001</ele>
   </trkpt>
   <trkpt lat="18.265594000042203" lon="109.5164180008239">
    <ele>14.58</ele>
   </trkpt>
   <trkpt lat="18.266340000000003" lon="109.51637000000001">
    <ele>13.82</ele>
   </trkpt>
   <trkpt lat="18.26699" lon="109.51626">
    <ele>12.030000000000001</ele>
   </trkpt>
   <trkpt lat="18.26764" lon="109.51612000000002">
    <ele>10.77</ele>
   </trkpt>
   <trkpt lat="18.26829" lon="109.51591">
    <ele>8.88</ele>
   </trkpt>
   <trkpt lat="18.26895" lon="109.51567000000001">
    <ele>7.580000000000001</ele>
   </trkpt>
   <trkpt lat="18.26943" lon="109.51543000000001">
    <ele>7.450000000000001</ele>
   </trkpt>
   <trkpt lat="18.27004" lon="109.51506">
    <ele>7.620000000000001</ele>
   </trkpt>
   <trkpt lat="18.27073000109173" lon="109.51459667036701">
    <ele>9.14</ele>
   </trkpt>
   <trkpt lat="18.271420001068037" lon="109.51413333704966">
    <ele>9.200000000000001</ele>
   </trkpt>
   <trkpt lat="18.27211" lon="109.51367">
    <ele>7.8500000000000005</ele>
   </trkpt>
   <trkpt lat="18.27247000033348" lon="109.51336500055498">
    <ele>7.87</ele>
   </trkpt>
   <trkpt lat="18.272830000000003" lon="109.51306000000001">
    <ele>7.94</ele>
   </trkpt>
   <trkpt lat="18.273396668104425" lon="109.51253333677673">
    <ele>7.8500000000000005</ele>
   </trkpt>
   <trkpt lat="18.27396333476746" lon="109.51200667011351">
    <ele>7.57</ele>
   </trkpt>
   <trkpt lat="18.274530000000002" lon="109.51148">
    <ele>8.08</ele>
   </trkpt>
   <trkpt lat="18.275142003543696" lon="109.51089600824153">
    <ele>6.960000000000001</ele>
   </trkpt>
   <trkpt lat="18.275754005314973" lon="109.51031201236307">
    <ele>5.960000000000001</ele>
   </trkpt>
   <trkpt lat="18.276366005313754" lon="109.50972801236448">
    <ele>5.17</ele>
   </trkpt>
   <trkpt lat="18.27697800353997" lon="109.50914400824556">
    <ele>6.620000000000001</ele>
   </trkpt>
   <trkpt lat="18.27759" lon="109.50856">
    <ele>6.85</ele>
   </trkpt>
   <trkpt lat="18.278230003140088" lon="109.50792500703228">
    <ele>7.3100000000000005</ele>
   </trkpt>
   <trkpt lat="18.278870004184352" lon="109.50729000937898">
    <ele>7.9300000000000015</ele>
   </trkpt>
   <trkpt lat="18.279510003132703" lon="109.5066550070399">
    <ele>7.750000000000001</ele>
   </trkpt>
   <trkpt lat="18.280150000000003" lon="109.50602">
    <ele>7.59</ele>
   </trkpt>
   <trkpt lat="18.280755004776186" lon="109.50541334392172">
    <ele>7.72</ele>
   </trkpt>
   <trkpt lat="18.2813600076392" lon="109.50480668361111">
    <ele>7.2</ele>
   </trkpt>
   <trkpt lat="18.281965008588976" lon="109.504200019068">
    <ele>8.190000000000001</ele>
   </trkpt>
   <trkpt lat="18.28257000762542" lon="109.50359335029223">
    <ele>10.59</ele>
   </trkpt>
   <trkpt lat="18.283175004748454" lon="109.50298667728367">
    <ele>13.09</ele>
   </trkpt>
   <trkpt lat="18.28378" lon="109.50238">
    <ele>15.510000000000002</ele>
   </trkpt>
   <trkpt lat="18.28432" lon="109.50191000000001">
    <ele>15.93</ele>
   </trkpt>
   <trkpt lat="18.284840000000003" lon="109.50150000000001">
    <ele>14.55</ele>
   </trkpt>
   <trkpt lat="18.28549000173559" lon="109.50102750531802">
    <ele>13.02</ele>
   </trkpt>
   <trkpt lat="18.286140002310376" lon="109.50055500709355">
    <ele>12.33</ele>
   </trkpt>
   <trkpt lat="18.286790001724302" lon="109.50008250532642">
    <ele>12.620000000000001</ele>
   </trkpt>
   <trkpt lat="18.28744" lon="109.49961">
    <ele>12.530000000000001</ele>
   </trkpt>
   <trkpt lat="18.28798" lon="109.49913000000001">
    <ele>13.15</ele>
   </trkpt>
   <trkpt lat="18.288330000000002" lon="109.49873000000001">
    <ele>13.790000000000001</ele>
   </trkpt>
   <trkpt lat="18.28864" lon="109.49834000000001">
    <ele>14.0</ele>
   </trkpt>
   <trkpt lat="18.28893" lon="109.49787">
    <ele>14.14</ele>
   </trkpt>
   <trkpt lat="18.28904" lon="109.49755">
    <ele>14.08</ele>
   </trkpt>
   <trkpt lat="18.28912" lon="109.49721000000001">
    <ele>13.91</ele>
   </trkpt>
   <trkpt lat="18.28919" lon="109.49677000000001">
    <ele>13.540000000000001</ele>
   </trkpt>
   <trkpt lat="18.28920500134959" lon="109.49604999998346">
    <ele>13.48</ele>
   </trkpt>
   <trkpt lat="18.28922" lon="109.49533000000001">
    <ele>13.690000000000001</ele>
   </trkpt>
   <trkpt lat="18.289223335785227" lon="109.49464333339242">
    <ele>12.47</ele>
   </trkpt>
   <trkpt lat="18.289226669118403" lon="109.49395666675842">
    <ele>11.63</ele>
   </trkpt>
   <trkpt lat="18.28923" lon="109.49327000000001">
    <ele>11.260000000000002</ele>
   </trkpt>
   <trkpt lat="18.289247017027375" lon="109.49241700075599">
    <ele>10.51</ele>
   </trkpt>
   <trkpt lat="18.289264030270886" lon="109.49156400134456">
    <ele>9.64</ele>
   </trkpt>
   <trkpt lat="18.289281039730533" lon="109.49071100176569">
    <ele>8.76</ele>
   </trkpt>
   <trkpt lat="18.289298045406305" lon="109.48985800201945">
    <ele>7.2700000000000005</ele>
   </trkpt>
   <trkpt lat="18.289315047298206" lon="109.48900500210587">
    <ele>6.51</ele>
   </trkpt>
   <trkpt lat="18.28933204540623" lon="109.48815200202502">
    <ele>7.010000000000001</ele>
   </trkpt>
   <trkpt lat="18.289349039730357" lon="109.48729900177689">
    <ele>8.280000000000001</ele>
   </trkpt>
   <trkpt lat="18.28936603027061" lon="109.48644600136153">
    <ele>9.49</ele>
   </trkpt>
   <trkpt lat="18.289383017026957" lon="109.48559300077899">
    <ele>8.450000000000001</ele>
   </trkpt>
   <trkpt lat="18.2894" lon="109.48474">
    <ele>7.260000000000001</ele>
   </trkpt>
   <trkpt lat="18.290072500215093" lon="109.4845775018891">
    <ele>6.46</ele>
   </trkpt>
   <trkpt lat="18.29074500029286" lon="109.48441500251738">
    <ele>6.94</ele>
   </trkpt>
   <trkpt lat="18.29141750023329" lon="109.48425250188477">
    <ele>7.83</ele>
   </trkpt>
   <trkpt lat="18.29209" lon="109.48409000000001">
    <ele>8.190000000000001</ele>
   </trkpt>
   <trkpt lat="18.292914000327542" lon="109.48391200338565">
    <ele>7.9700000000000015</ele>
   </trkpt>
   <trkpt lat="18.2937380004903" lon="109.48373400507879">
    <ele>7.16</ele>
   </trkpt>
   <trkpt lat="18.29456200048825" lon="109.48355600507932">
    <ele>6.880000000000001</ele>
   </trkpt>
   <trkpt lat="18.295386000321386" lon="109.48337800338719">
    <ele>8.08</ele>
   </trkpt>
   <trkpt lat="18.296210000000002" lon="109.48320000000001">
    <ele>9.14</ele>
   </trkpt>
   <trkpt lat="18.296800000000992" lon="109.48308500039809">
    <ele>7.410000000000001</ele>
   </trkpt>
   <trkpt lat="18.29739" lon="109.48297000000001">
    <ele>6.790000000000001</ele>
   </trkpt>
   <trkpt lat="18.29766" lon="109.48294000000001">
    <ele>5.890000000000001</ele>
   </trkpt>
   <trkpt lat="18.298530000000003" lon="109.48292000000001">
    <ele>5.2700000000000005</ele>
   </trkpt>
   <trkpt lat="18.29899" lon="109.48294000000001">
    <ele>4.34</ele>
   </trkpt>
   <trkpt lat="18.299881428740683" lon="109.48304142544083">
    <ele>4.29</ele>
   </trkpt>
   <trkpt lat="18.30077285742784" lon="109.48314285192541">
    <ele>5.33</ele>
   </trkpt>
   <trkpt lat="18.30166428606147" lon="109.48324427945381">
    <ele>6.050000000000001</ele>
   </trkpt>
   <trkpt lat="18.302555714641564" lon="109.48334570802609">
    <ele>6.68</ele>
   </trkpt>
   <trkpt lat="18.303447143168125" lon="109.48344713764232">
    <ele>6.99</ele>
   </trkpt>
   <trkpt lat="18.30433857164115" lon="109.48354856830258">
    <ele>7.36</ele>
   </trkpt>
   <trkpt lat="18.30523" lon="109.48365000000001">
    <ele>8.780000000000001</ele>
   </trkpt>
   <trkpt lat="18.306016000048626" lon="109.4837319985091">
    <ele>7.57</ele>
   </trkpt>
   <trkpt lat="18.30680200006226" lon="109.48381399776247">
    <ele>6.920000000000001</ele>
   </trkpt>
   <trkpt lat="18.307588000040884" lon="109.48389599776021">
    <ele>6.44</ele>
   </trkpt>
   <trkpt lat="18.308373999984518" lon="109.48397799850231">
    <ele>6.3100000000000005</ele>
   </trkpt>
   <trkpt lat="18.309160000000002" lon="109.48406000000001">
    <ele>5.930000000000001</ele>
   </trkpt>
   <trkpt lat="18.30974" lon="109.48416">
    <ele>5.38</ele>
   </trkpt>
   <trkpt lat="18.31042" lon="109.48432000000001">
    <ele>5.220000000000001</ele>
   </trkpt>
   <trkpt lat="18.31105000004565" lon="109.48452999921281">
    <ele>4.880000000000001</ele>
   </trkpt>
   <trkpt lat="18.311680000000003" lon="109.48474">
    <ele>5.13</ele>
   </trkpt>
   <trkpt lat="18.31219" lon="109.48497">
    <ele>5.4</ele>
   </trkpt>
   <trkpt lat="18.312810000000002" lon="109.48530000000001">
    <ele>6.08</ele>
   </trkpt>
   <trkpt lat="18.313225000322305" lon="109.48556499945381">
    <ele>6.91</ele>
   </trkpt>
   <trkpt lat="18.313640000000003" lon="109.48583">
    <ele>6.9</ele>
   </trkpt>
   <trkpt lat="18.314271669101974" lon="109.48626332542044">
    <ele>6.44</ele>
   </trkpt>
   <trkpt lat="18.314903337226305" lon="109.4866966540034">
    <ele>6.17</ele>
   </trkpt>
   <trkpt lat="18.315535004372943" lon="109.48712998574904">
    <ele>6.0200000000000005</ele>
   </trkpt>
   <trkpt lat="18.31616667054186" lon="109.48756332065744">
    <ele>6.86</ele>
   </trkpt>
   <trkpt lat="18.316798335733" lon="109.48799665872878">
    <ele>8.040000000000001</ele>
   </trkpt>
   <trkpt lat="18.31743" lon="109.48843000000001">
    <ele>8.790000000000001</ele>
   </trkpt>
   <trkpt lat="18.317935000292028" lon="109.48872999915886">
    <ele>8.440000000000001</ele>
   </trkpt>
   <trkpt lat="18.318440000000002" lon="109.48903000000001">
    <ele>8.09</ele>
   </trkpt>
   <trkpt lat="18.318939999973455" lon="109.4892299993699">
    <ele>7.710000000000001</ele>
   </trkpt>
   <trkpt lat="18.31944" lon="109.48943000000001">
    <ele>7.010000000000001</ele>
   </trkpt>
   <trkpt lat="18.319770000000002" lon="109.48952000000001">
    <ele>7.24</ele>
   </trkpt>
   <trkpt lat="18.320600000000002" lon="109.48969000000001">
    <ele>8.820000000000002</ele>
   </trkpt>
   <trkpt lat="18.32121" lon="109.48976">
    <ele>9.41</ele>
   </trkpt>
   <trkpt lat="18.321679999854595" lon="109.48977999993946">
    <ele>10.22</ele>
   </trkpt>
   <trkpt lat="18.32215" lon="109.4898">
    <ele>12.13</ele>
   </trkpt>
   <trkpt lat="18.32264999990388" lon="109.48979500001542">
    <ele>15.05</ele>
   </trkpt>
   <trkpt lat="18.323150000000002" lon="109.48979000000001">
    <ele>11.61</ele>
   </trkpt>
   <trkpt lat="18.323739999953748" lon="109.48976500008732">
    <ele>12.34</ele>
   </trkpt>
   <trkpt lat="18.32433" lon="109.48974000000001">
    <ele>12.15</ele>
   </trkpt>
   <trkpt lat="18.324540000000002" lon="109.48974000000001">
    <ele>12.4</ele>
   </trkpt>
   <trkpt lat="18.32468" lon="109.48969000000001">
    <ele>12.520000000000001</ele>
   </trkpt>
   <trkpt lat="18.325440000086417" lon="109.48964000021444">
    <ele>12.05</ele>
   </trkpt>
   <trkpt lat="18.3262" lon="109.48959">
    <ele>12.0</ele>
   </trkpt>
   <trkpt lat="18.3269700000803" lon="109.48947000052753">
    <ele>12.76</ele>
   </trkpt>
   <trkpt lat="18.327740000000002" lon="109.48935000000002">
    <ele>15.44</ele>
   </trkpt>
   <trkpt lat="18.32825" lon="109.48938000000001">
    <ele>16.59</ele>
   </trkpt>
   <trkpt lat="18.3288" lon="109.48945">
    <ele>18.520000000000003</ele>
   </trkpt>
   <trkpt lat="18.329308577381244" lon="109.48883286803272">
    <ele>18.9</ele>
   </trkpt>
   <trkpt lat="18.329817152778155" lon="109.48821573243595">
    <ele>18.72</ele>
   </trkpt>
   <trkpt lat="18.330325726190672" lon="109.48759859320958">
    <ele>18.54</ele>
   </trkpt>
   <trkpt lat="18.33083429761871" lon="109.48698145035348">
    <ele>18.660000000000004</ele>
   </trkpt>
   <trkpt lat="18.33134286706221" lon="109.48636430386755">
    <ele>18.79</ele>
   </trkpt>
   <trkpt lat="18.3318514345211" lon="109.48574715375166">
    <ele>19.35</ele>
   </trkpt>
   <trkpt lat="18.33236" lon="109.48513000000001">
    <ele>15.4</ele>
   </trkpt>
   <trkpt lat="18.3324" lon="109.48516000000001">
    <ele>15.500000000000002</ele>
   </trkpt>
   <trkpt lat="18.33236" lon="109.48489000000001">
    <ele>14.63</ele>
   </trkpt>
   <trkpt lat="18.332590000000003" lon="109.48436000000001">
    <ele>14.75</ele>
   </trkpt>
   <trkpt lat="18.33292" lon="109.48411000000002">
    <ele>19.430000000000003</ele>
   </trkpt>
   <trkpt lat="18.333260000000003" lon="109.48393000000002">
    <ele>24.040000000000003</ele>
   </trkpt>
   <trkpt lat="18.333740000000002" lon="109.48375000000001">
    <ele>26.860000000000003</ele>
   </trkpt>
   <trkpt lat="18.33387" lon="109.48374000000001">
    <ele>26.89</ele>
   </trkpt>
   <trkpt lat="18.33418" lon="109.4834">
    <ele>20.41</ele>
   </trkpt>
   <trkpt lat="18.33432" lon="109.48354">
    <ele>20.41</ele>
   </trkpt>
   <trkpt lat="18.3347" lon="109.48349">
    <ele>21.88</ele>
   </trkpt>
   <trkpt lat="18.33502" lon="109.48351000000001">
    <ele>21.88</ele>
   </trkpt>
   <trkpt lat="18.33537" lon="109.48360000000001">
    <ele>19.860000000000003</ele>
   </trkpt>
   <trkpt lat="18.335600000000003" lon="109.48364000000001">
    <ele>19.860000000000003</ele>
   </trkpt>
   <trkpt lat="18.335800000000003" lon="109.48358">
    <ele>19.860000000000003</ele>
   </trkpt>
   <trkpt lat="18.335992505455025" lon="109.48274500277084">
    <ele>17.05</ele>
   </trkpt>
   <trkpt lat="18.336185007276235" lon="109.48191000368213">
    <ele>16.92</ele>
   </trkpt>
   <trkpt lat="18.336377505463584" lon="109.48107500273389">
    <ele>17.240000000000002</ele>
   </trkpt>
   <trkpt lat="18.336570000000002" lon="109.48024000000001">
    <ele>17.25</ele>
   </trkpt>
   <trkpt lat="18.336740000000002" lon="109.47982">
    <ele>17.26</ele>
   </trkpt>
   <trkpt lat="18.337380000584027" lon="109.47937000162644">
    <ele>17.11</ele>
   </trkpt>
   <trkpt lat="18.33802" lon="109.47892">
    <ele>18.11</ele>
   </trkpt>
   <trkpt lat="18.338340000000002" lon="109.47807">
    <ele>16.009999999999998</ele>
   </trkpt>
   <trkpt lat="18.3384" lon="109.47779000000001">
    <ele>16.46</ele>
   </trkpt>
   <trkpt lat="18.33845" lon="109.47759">
    <ele>16.810000000000002</ele>
   </trkpt>
   <trkpt lat="18.338520000000003" lon="109.47741">
    <ele>16.94</ele>
   </trkpt>
   <trkpt lat="18.33855" lon="109.47743000000001">
    <ele>16.92</ele>
   </trkpt>
   <trkpt lat="18.338720000000002" lon="109.47726000000002">
    <ele>16.51</ele>
   </trkpt>
   <trkpt lat="18.339255000016756" lon="109.47707000061556">
    <ele>18.060000000000002</ele>
   </trkpt>
   <trkpt lat="18.33979" lon="109.47688000000001">
    <ele>17.1</ele>
   </trkpt>
   <trkpt lat="18.34006" lon="109.47685000000001">
    <ele>15.97</ele>
   </trkpt>
   <trkpt lat="18.34045" lon="109.47688000000001">
    <ele>18.55</ele>
   </trkpt>
   <trkpt lat="18.34091000004005" lon="109.47702999959469">
    <ele>25.810000000000002</ele>
   </trkpt>
   <trkpt lat="18.34137" lon="109.47718">
    <ele>29.07</ele>
   </trkpt>
   <trkpt lat="18.341610000000003" lon="109.47720000000001">
    <ele>28.64</ele>
   </trkpt>
   <trkpt lat="18.34184" lon="109.47709">
    <ele>28.12</ele>
   </trkpt>
   <trkpt lat="18.34196" lon="109.47692">
    <ele>25.740000000000002</ele>
   </trkpt>
   <trkpt lat="18.342090000000002" lon="109.47681000000001">
    <ele>23.3</ele>
   </trkpt>
   <trkpt lat="18.342930000000003" lon="109.47671000000001">
    <ele>23.41</ele>
   </trkpt>
   <trkpt lat="18.34308" lon="109.47665">
    <ele>21.52</ele>
   </trkpt>
   <trkpt lat="18.343310000000002" lon="109.47643000000001">
    <ele>19.78</ele>
   </trkpt>
   <trkpt lat="18.34396500128346" lon="109.47602250464344">
    <ele>26.560000000000002</ele>
   </trkpt>
   <trkpt lat="18.344620001701152" lon="109.47561500619767">
    <ele>21.92</ele>
   </trkpt>
   <trkpt lat="18.345275001253036" lon="109.47520750466254">
    <ele>23.69</ele>
   </trkpt>
   <trkpt lat="18.345930000000003" lon="109.4748">
    <ele>24.200000000000003</ele>
   </trkpt>
   <trkpt lat="18.34629" lon="109.47434000000001">
    <ele>18.82</ele>
   </trkpt>
   <trkpt lat="18.346710000173196" lon="109.47410500055493">
    <ele>22.0</ele>
   </trkpt>
   <trkpt lat="18.34713" lon="109.47387">
    <ele>22.39</ele>
   </trkpt>
   <trkpt lat="18.3471" lon="109.47380000000001">
    <ele>21.86</ele>
   </trkpt>
   <trkpt lat="18.34728" lon="109.47379000000001">
    <ele>22.500000000000004</ele>
   </trkpt>
   <trkpt lat="18.347450000000002" lon="109.47389000000001">
    <ele>22.820000000000004</ele>
   </trkpt>
   <trkpt lat="18.347910000514005" lon="109.47427499908164">
    <ele>27.69</ele>
   </trkpt>
   <trkpt lat="18.348370000000003" lon="109.47466000000001">
    <ele>33.22</ele>
   </trkpt>
   <trkpt lat="18.34862" lon="109.47476">
    <ele>35.82000000000001</ele>
   </trkpt>
   <trkpt lat="18.34861" lon="109.47476">
    <ele>35.82000000000001</ele>
   </trkpt>
   <trkpt lat="18.349230000000002" lon="109.47477">
    <ele>38.59</ele>
   </trkpt>
   <trkpt lat="18.34953" lon="109.47471000000002">
    <ele>38.13</ele>
   </trkpt>
   <trkpt lat="18.34973" lon="109.47464000000001">
    <ele>37.05</ele>
   </trkpt>
   <trkpt lat="18.35008000064254" lon="109.47418500078841">
    <ele>33.27</ele>
   </trkpt>
   <trkpt lat="18.350430000000003" lon="109.47373">
    <ele>34.04</ele>
   </trkpt>
   <trkpt lat="18.350710000000003" lon="109.47355">
    <ele>37.32000000000001</ele>
   </trkpt>
   <trkpt lat="18.351100000000002" lon="109.47343000000001">
    <ele>44.06</ele>
   </trkpt>
   <trkpt lat="18.351460000000003" lon="109.47351">
    <ele>47.14</ele>
   </trkpt>
   <trkpt lat="18.35171" lon="109.47346">
    <ele>48.290000000000006</ele>
   </trkpt>
   <trkpt lat="18.35218" lon="109.47367000000001">
    <ele>48.730000000000004</ele>
   </trkpt>
   <trkpt lat="18.352400000000003" lon="109.47366000000001">
    <ele>48.89</ele>
   </trkpt>
   <trkpt lat="18.35274" lon="109.47369">
    <ele>48.28</ele>
   </trkpt>
   <trkpt lat="18.35304" lon="109.47385000000001">
    <ele>47.839999999999996</ele>
   </trkpt>
   <trkpt lat="18.353270000000002" lon="109.47402000000001">
    <ele>47.77</ele>
   </trkpt>
   <trkpt lat="18.353250000000003" lon="109.47405">
    <ele>54.02</ele>
   </trkpt>
   <trkpt lat="18.353540000000002" lon="109.47451000000001">
    <ele>53.77</ele>
   </trkpt>
   <trkpt lat="18.35375" lon="109.47467">
    <ele>54.21</ele>
   </trkpt>
   <trkpt lat="18.354210000000002" lon="109.47478000000001">
    <ele>53.550000000000004</ele>
   </trkpt>
   <trkpt lat="18.354570000000002" lon="109.47520000000002">
    <ele>52.74</ele>
   </trkpt>
   <trkpt lat="18.354770000000002" lon="109.47577000000001">
    <ele>55.370000000000005</ele>
   </trkpt>
   <trkpt lat="18.35491" lon="109.47588">
    <ele>59.14</ele>
   </trkpt>
   <trkpt lat="18.355140000000002" lon="109.47585000000001">
    <ele>60.230000000000004</ele>
   </trkpt>
   <trkpt lat="18.355400000000003" lon="109.47556000000002">
    <ele>55.35</ele>
   </trkpt>
   <trkpt lat="18.35575" lon="109.47545000000001">
    <ele>55.38</ele>
   </trkpt>
   <trkpt lat="18.356160000000003" lon="109.47558000000001">
    <ele>58.88</ele>
   </trkpt>
   <trkpt lat="18.356340000000003" lon="109.47557">
    <ele>58.04</ele>
   </trkpt>
   <trkpt lat="18.356810000000003" lon="109.47512">
    <ele>49.120000000000005</ele>
   </trkpt>
   <trkpt lat="18.35716" lon="109.47508">
    <ele>52.21000000000001</ele>
   </trkpt>
   <trkpt lat="18.357650000000003" lon="109.47488000000001">
    <ele>51.42000000000001</ele>
   </trkpt>
   <trkpt lat="18.35827" lon="109.47493000000001">
    <ele>54.86000000000001</ele>
   </trkpt>
   <trkpt lat="18.35875" lon="109.47466000000001">
    <ele>54.07000000000001</ele>
   </trkpt>
   <trkpt lat="18.359080000000002" lon="109.47491000000001">
    <ele>60.53000000000001</ele>
   </trkpt>
   <trkpt lat="18.359335000461787" lon="109.47534499930318">
    <ele>67.66000000000001</ele>
   </trkpt>
   <trkpt lat="18.35959" lon="109.47578000000001">
    <ele>75.69000000000001</ele>
   </trkpt>
   <trkpt lat="18.360020000000002" lon="109.47613000000001">
    <ele>72.88</ele>
   </trkpt>
   <trkpt lat="18.360195001399692" lon="109.47686499921426">
    <ele>82.55000000000001</ele>
   </trkpt>
   <trkpt lat="18.360370000000003" lon="109.47760000000001">
    <ele>88.81000000000002</ele>
   </trkpt>
   <trkpt lat="18.360650000000003" lon="109.47788000000001">
    <ele>86.11</ele>
   </trkpt>
   <trkpt lat="18.360580000000002" lon="109.47855000000001">
    <ele>87.4</ele>
   </trkpt>
   <trkpt lat="18.360390000000002" lon="109.47882000000001">
    <ele>92.72000000000001</ele>
   </trkpt>
   <trkpt lat="18.360670000000002" lon="109.47935000000001">
    <ele>88.21000000000001</ele>
   </trkpt>
   <trkpt lat="18.360670000000002" lon="109.47988000000001">
    <ele>90.21000000000001</ele>
   </trkpt>
   <trkpt lat="18.361210000340343" lon="109.4802349988971">
    <ele>73.66</ele>
   </trkpt>
   <trkpt lat="18.36175" lon="109.48059">
    <ele>65.66000000000001</ele>
   </trkpt>
   <trkpt lat="18.3623" lon="109.48063">
    <ele>53.75000000000001</ele>
   </trkpt>
   <trkpt lat="18.36299" lon="109.48108">
    <ele>52.63</ele>
   </trkpt>
   <trkpt lat="18.36326" lon="109.48139">
    <ele>53.42</ele>
   </trkpt>
   <trkpt lat="18.36371000035533" lon="109.48169999926381">
    <ele>57.32</ele>
   </trkpt>
   <trkpt lat="18.364160000000002" lon="109.48201">
    <ele>58.190000000000005</ele>
   </trkpt>
   <trkpt lat="18.36458" lon="109.48209000000001">
    <ele>60.79</ele>
   </trkpt>
   <trkpt lat="18.36506000021389" lon="109.48246999881418">
    <ele>54.150000000000006</ele>
   </trkpt>
   <trkpt lat="18.365540000000003" lon="109.48285000000001">
    <ele>52.480000000000004</ele>
   </trkpt>
   <trkpt lat="18.36607" lon="109.48351000000001">
    <ele>57.13</ele>
   </trkpt>
   <trkpt lat="18.36640500063299" lon="109.483969999218">
    <ele>57.120000000000005</ele>
   </trkpt>
   <trkpt lat="18.36674" lon="109.48443">
    <ele>56.2</ele>
   </trkpt>
   <trkpt lat="18.36712" lon="109.48484">
    <ele>55.81</ele>
   </trkpt>
   <trkpt lat="18.367600000000003" lon="109.48511">
    <ele>53.230000000000004</ele>
   </trkpt>
   <trkpt lat="18.36787" lon="109.48593000000001">
    <ele>49.5</ele>
   </trkpt>
   <trkpt lat="18.36823" lon="109.48632">
    <ele>51.64000000000001</ele>
   </trkpt>
   <trkpt lat="18.368260000000003" lon="109.48710000000001">
    <ele>57.660000000000004</ele>
   </trkpt>
   <trkpt lat="18.368675001182947" lon="109.48775499852448">
    <ele>56.800000000000004</ele>
   </trkpt>
   <trkpt lat="18.36909" lon="109.48841000000002">
    <ele>60.27</ele>
   </trkpt>
   <trkpt lat="18.36973" lon="109.48877">
    <ele>54.42</ele>
   </trkpt>
   <trkpt lat="18.37018000004008" lon="109.48881999987331">
    <ele>45.93000000000001</ele>
   </trkpt>
   <trkpt lat="18.370630000000002" lon="109.48887">
    <ele>53.14000000000001</ele>
   </trkpt>
   <trkpt lat="18.371260002254672" lon="109.48833250589495">
    <ele>55.42</ele>
   </trkpt>
   <trkpt lat="18.371890003001138" lon="109.48779500786442">
    <ele>56.940000000000005</ele>
   </trkpt>
   <trkpt lat="18.37252000223934" lon="109.48725750590825">
    <ele>49.6</ele>
   </trkpt>
   <trkpt lat="18.373150000000003" lon="109.48672">
    <ele>50.38</ele>
   </trkpt>
   <trkpt lat="18.373790000000003" lon="109.48659">
    <ele>50.0</ele>
   </trkpt>
   <trkpt lat="18.3743050002724" lon="109.48622500114318">
    <ele>52.730000000000004</ele>
   </trkpt>
   <trkpt lat="18.374820000000003" lon="109.48586">
    <ele>53.87</ele>
   </trkpt>
   <trkpt lat="18.375480000219028" lon="109.4856500007705">
    <ele>57.42</ele>
   </trkpt>
   <trkpt lat="18.376140000000003" lon="109.48544000000001">
    <ele>58.07</ele>
   </trkpt>
   <trkpt lat="18.37696" lon="109.48545000000001">
    <ele>50.370000000000005</ele>
   </trkpt>
   <trkpt lat="18.37754" lon="109.48536000000001">
    <ele>51.11</ele>
   </trkpt>
   <trkpt lat="18.377870000665084" lon="109.48582999922645">
    <ele>54.00000000000001</ele>
   </trkpt>
   <trkpt lat="18.378200000000003" lon="109.48630000000001">
    <ele>54.970000000000006</ele>
   </trkpt>
   <trkpt lat="18.378586668259473" lon="109.48685333084323">
    <ele>58.46</ele>
   </trkpt>
   <trkpt lat="18.378973334920016" lon="109.48740666416776">
    <ele>62.44</ele>
   </trkpt>
   <trkpt lat="18.379360000000002" lon="109.48796000000002">
    <ele>57.82</ele>
   </trkpt>
   <trkpt lat="18.37965" lon="109.48813000000001">
    <ele>60.7</ele>
   </trkpt>
   <trkpt lat="18.38005" lon="109.48896">
    <ele>64.07000000000001</ele>
   </trkpt>
   <trkpt lat="18.38011333645442" lon="109.48973333273754">
    <ele>60.14000000000001</ele>
   </trkpt>
   <trkpt lat="18.380176669785488" lon="109.49050666604317">
    <ele>57.95</ele>
   </trkpt>
   <trkpt lat="18.38024" lon="109.49128">
    <ele>54.21</ele>
   </trkpt>
   <trkpt lat="18.38026" lon="109.49128">
    <ele>64.58</ele>
   </trkpt>
   <trkpt lat="18.380200000000002" lon="109.49176000000001">
    <ele>65.35000000000001</ele>
   </trkpt>
   <trkpt lat="18.380110000000002" lon="109.49221000000001">
    <ele>67.41000000000001</ele>
   </trkpt>
   <trkpt lat="18.379886669497036" lon="109.49294666858734">
    <ele>69.23</ele>
   </trkpt>
   <trkpt lat="18.379663336159897" lon="109.4936833352665">
    <ele>72.59</ele>
   </trkpt>
   <trkpt lat="18.379440000000002" lon="109.49442">
    <ele>74.97000000000001</ele>
   </trkpt>
   <trkpt lat="18.37921" lon="109.49510000000001">
    <ele>76.12</ele>
   </trkpt>
   <trkpt lat="18.37909" lon="109.49564000000001">
    <ele>74.75000000000001</ele>
   </trkpt>
   <trkpt lat="18.378980000880592" lon="109.49622500044241">
    <ele>74.17</ele>
   </trkpt>
   <trkpt lat="18.378870000000003" lon="109.49681000000001">
    <ele>72.64000000000001</ele>
   </trkpt>
   <trkpt lat="18.378780000000003" lon="109.49716000000001">
    <ele>72.2</ele>
   </trkpt>
   <trkpt lat="18.378580001118518" lon="109.49782500089152">
    <ele>70.56000000000002</ele>
   </trkpt>
   <trkpt lat="18.37838" lon="109.49849">
    <ele>69.28</ele>
   </trkpt>
   <trkpt lat="18.378300000000003" lon="109.49873000000001">
    <ele>68.96000000000001</ele>
   </trkpt>
   <trkpt lat="18.378220000000002" lon="109.49889">
    <ele>69.04</ele>
   </trkpt>
   <trkpt lat="18.37808" lon="109.49904000000001">
    <ele>69.55</ele>
   </trkpt>
   <trkpt lat="18.377860000000002" lon="109.49916">
    <ele>71.10000000000001</ele>
   </trkpt>
   <trkpt lat="18.37772" lon="109.49928000000001">
    <ele>72.33</ele>
   </trkpt>
   <trkpt lat="18.377660000000002" lon="109.49946000000001">
    <ele>73.4</ele>
   </trkpt>
   <trkpt lat="18.37768" lon="109.49967000000001">
    <ele>74.24</ele>
   </trkpt>
   <trkpt lat="18.37781" lon="109.50003000000001">
    <ele>74.66</ele>
   </trkpt>
   <trkpt lat="18.37801" lon="109.50048000000001">
    <ele>74.46000000000001</ele>
   </trkpt>
   <trkpt lat="18.378200000000003" lon="109.50077">
    <ele>74.67</ele>
   </trkpt>
   <trkpt lat="18.37873" lon="109.50120000000001">
    <ele>76.02</ele>
   </trkpt>
   <trkpt lat="18.37891" lon="109.50144">
    <ele>76.29</ele>
   </trkpt>
   <trkpt lat="18.379070000000002" lon="109.50174000000001">
    <ele>77.05000000000001</ele>
   </trkpt>
   <trkpt lat="18.37927" lon="109.50205000000001">
    <ele>77.22000000000001</ele>
   </trkpt>
   <trkpt lat="18.37965" lon="109.50244">
    <ele>76.93</ele>
   </trkpt>
   <trkpt lat="18.379900000000003" lon="109.50274">
    <ele>77.79</ele>
   </trkpt>
   <trkpt lat="18.38007" lon="109.50300000000001">
    <ele>79.41000000000001</ele>
   </trkpt>
   <trkpt lat="18.38021" lon="109.50330000000001">
    <ele>82.78</ele>
   </trkpt>
   <trkpt lat="18.38034" lon="109.50367000000001">
    <ele>85.33</ele>
   </trkpt>
   <trkpt lat="18.3804" lon="109.50396">
    <ele>86.31000000000002</ele>
   </trkpt>
   <trkpt lat="18.38044" lon="109.50433000000001">
    <ele>86.98</ele>
   </trkpt>
   <trkpt lat="18.380447504061483" lon="109.50504999993642">
    <ele>87.27</ele>
   </trkpt>
   <trkpt lat="18.380455005415524" lon="109.5057699999355">
    <ele>88.9</ele>
   </trkpt>
   <trkpt lat="18.380462504062116" lon="109.50648999999719">
    <ele>87.42000000000002</ele>
   </trkpt>
   <trkpt lat="18.380470000000003" lon="109.50721000000001">
    <ele>83.56</ele>
   </trkpt>
   <trkpt lat="18.3805" lon="109.50756000000001">
    <ele>83.15</ele>
   </trkpt>
   <trkpt lat="18.380570000000002" lon="109.5078">
    <ele>82.49000000000001</ele>
   </trkpt>
   <trkpt lat="18.38082000216114" lon="109.50844333146664">
    <ele>85.16000000000001</ele>
   </trkpt>
   <trkpt lat="18.381070002160687" lon="109.50908666479877">
    <ele>91.4</ele>
   </trkpt>
   <trkpt lat="18.381320000000002" lon="109.50973">
    <ele>91.87</ele>
   </trkpt>
   <trkpt lat="18.38136" lon="109.50986">
    <ele>91.07000000000001</ele>
   </trkpt>
   <trkpt lat="18.38138" lon="109.51001000000001">
    <ele>90.56</ele>
   </trkpt>
   <trkpt lat="18.38136" lon="109.51022">
    <ele>88.9</ele>
   </trkpt>
   <trkpt lat="18.38127" lon="109.51067">
    <ele>87.34</ele>
   </trkpt>
   <trkpt lat="18.381125000580266" lon="109.51116000056999">
    <ele>86.45000000000002</ele>
   </trkpt>
   <trkpt lat="18.38098" lon="109.51165">
    <ele>86.52000000000001</ele>
   </trkpt>
   <trkpt lat="18.380640000000003" lon="109.51228">
    <ele>91.4</ele>
   </trkpt>
   <trkpt lat="18.38053" lon="109.51245000000002">
    <ele>92.56</ele>
   </trkpt>
   <trkpt lat="18.379920000000002" lon="109.51311000000001">
    <ele>106.3</ele>
   </trkpt>
   <trkpt lat="18.37979" lon="109.51332000000001">
    <ele>110.08000000000001</ele>
   </trkpt>
   <trkpt lat="18.379720000000002" lon="109.51358">
    <ele>112.7</ele>
   </trkpt>
   <trkpt lat="18.379655000610796" lon="109.51407000030659">
    <ele>117.88000000000001</ele>
   </trkpt>
   <trkpt lat="18.37959" lon="109.51456">
    <ele>120.91</ele>
   </trkpt>
   <trkpt lat="18.37947" lon="109.51516000000001">
    <ele>126.23</ele>
   </trkpt>
   <trkpt lat="18.3795" lon="109.51598000000001">
    <ele>126.98</ele>
   </trkpt>
   <trkpt lat="18.37948" lon="109.51623000000001">
    <ele>125.84</ele>
   </trkpt>
   <trkpt lat="18.37939" lon="109.5168">
    <ele>123.85000000000001</ele>
   </trkpt>
   <trkpt lat="18.3794" lon="109.51697000000001">
    <ele>123.00000000000001</ele>
   </trkpt>
   <trkpt lat="18.37949" lon="109.51713000000001">
    <ele>121.03000000000002</ele>
   </trkpt>
   <trkpt lat="18.37988" lon="109.51743">
    <ele>117.17</ele>
   </trkpt>
   <trkpt lat="18.37994" lon="109.51755000000001">
    <ele>116.74000000000001</ele>
   </trkpt>
   <trkpt lat="18.37994" lon="109.51768000000001">
    <ele>115.64</ele>
   </trkpt>
   <trkpt lat="18.379830000000002" lon="109.51797">
    <ele>114.85000000000001</ele>
   </trkpt>
   <trkpt lat="18.379640000000002" lon="109.51858000000001">
    <ele>112.81</ele>
   </trkpt>
   <trkpt lat="18.37961500067391" lon="109.51909000018159">
    <ele>110.45</ele>
   </trkpt>
   <trkpt lat="18.37959" lon="109.51960000000001">
    <ele>110.54</ele>
   </trkpt>
   <trkpt lat="18.379420000000003" lon="109.52016">
    <ele>113.01</ele>
   </trkpt>
   <trkpt lat="18.379205000898825" lon="109.52074500071521">
    <ele>114.33000000000001</ele>
   </trkpt>
   <trkpt lat="18.37899" lon="109.52133">
    <ele>119.96000000000001</ele>
   </trkpt>
   <trkpt lat="18.378960000000003" lon="109.5216">
    <ele>122.03000000000002</ele>
   </trkpt>
   <trkpt lat="18.37904" lon="109.52207000000001">
    <ele>122.79</ele>
   </trkpt>
   <trkpt lat="18.379" lon="109.52227">
    <ele>123.07000000000001</ele>
   </trkpt>
   <trkpt lat="18.378800000000002" lon="109.52252000000001">
    <ele>124.57000000000001</ele>
   </trkpt>
   <trkpt lat="18.37846" lon="109.52287000000001">
    <ele>124.39000000000001</ele>
   </trkpt>
   <trkpt lat="18.378090000817057" lon="109.52345500137608">
    <ele>117.58</ele>
   </trkpt>
   <trkpt lat="18.37772" lon="109.52404000000001">
    <ele>112.82000000000001</ele>
   </trkpt>
   <trkpt lat="18.3776" lon="109.52427000000002">
    <ele>111.13000000000001</ele>
   </trkpt>
   <trkpt lat="18.377460000000003" lon="109.52480000000001">
    <ele>106.42000000000002</ele>
   </trkpt>
   <trkpt lat="18.37734" lon="109.52543000000001">
    <ele>103.3</ele>
   </trkpt>
   <trkpt lat="18.3773" lon="109.52619000000001">
    <ele>102.15</ele>
   </trkpt>
   <trkpt lat="18.37724" lon="109.52639">
    <ele>102.75</ele>
   </trkpt>
   <trkpt lat="18.37705" lon="109.52669">
    <ele>103.52000000000001</ele>
   </trkpt>
   <trkpt lat="18.376610000000003" lon="109.5271">
    <ele>102.65</ele>
   </trkpt>
   <trkpt lat="18.37640500088474" lon="109.52765500044165">
    <ele>99.36</ele>
   </trkpt>
   <trkpt lat="18.3762" lon="109.52821000000002">
    <ele>98.92</ele>
   </trkpt>
   <trkpt lat="18.376060000000003" lon="109.52839000000002">
    <ele>98.72</ele>
   </trkpt>
   <trkpt lat="18.37572" lon="109.52864000000001">
    <ele>98.2</ele>
   </trkpt>
   <trkpt lat="18.37555" lon="109.52882000000001">
    <ele>97.02000000000001</ele>
   </trkpt>
   <trkpt lat="18.37546" lon="109.52905000000001">
    <ele>95.03</ele>
   </trkpt>
   <trkpt lat="18.37543" lon="109.52931000000001">
    <ele>93.25000000000001</ele>
   </trkpt>
   <trkpt lat="18.37561" lon="109.53020000000001">
    <ele>83.03</ele>
   </trkpt>
   <trkpt lat="18.37543" lon="109.53107000000001">
    <ele>79.7</ele>
   </trkpt>
   <trkpt lat="18.375390000000003" lon="109.53149">
    <ele>78.76</ele>
   </trkpt>
   <trkpt lat="18.37543" lon="109.53168000000001">
    <ele>78.76</ele>
   </trkpt>
   <trkpt lat="18.375510000000002" lon="109.53183000000001">
    <ele>78.04</ele>
   </trkpt>
   <trkpt lat="18.37582" lon="109.53213000000001">
    <ele>77.97000000000001</ele>
   </trkpt>
   <trkpt lat="18.375980000000002" lon="109.53287">
    <ele>78.75</ele>
   </trkpt>
   <trkpt lat="18.375950000000003" lon="109.53316000000001">
    <ele>78.33000000000001</ele>
   </trkpt>
   <trkpt lat="18.375880000000002" lon="109.53332">
    <ele>78.33000000000001</ele>
   </trkpt>
   <trkpt lat="18.37571" lon="109.53353000000001">
    <ele>78.13000000000001</ele>
   </trkpt>
   <trkpt lat="18.37498" lon="109.53398000000001">
    <ele>81.47</ele>
   </trkpt>
   <trkpt lat="18.374740000000003" lon="109.53419000000001">
    <ele>83.06</ele>
   </trkpt>
   <trkpt lat="18.374670000000002" lon="109.53438000000001">
    <ele>83.48</ele>
   </trkpt>
   <trkpt lat="18.374650000000003" lon="109.53454">
    <ele>83.71000000000001</ele>
   </trkpt>
   <trkpt lat="18.37478" lon="109.53510000000001">
    <ele>80.55000000000001</ele>
   </trkpt>
   <trkpt lat="18.37478" lon="109.53545000000001">
    <ele>76.94000000000001</ele>
   </trkpt>
   <trkpt lat="18.374625000859254" lon="109.5360150004134">
    <ele>74.74</ele>
   </trkpt>
   <trkpt lat="18.374470000000002" lon="109.53658000000001">
    <ele>75.88</ele>
   </trkpt>
   <trkpt lat="18.3738700002143" lon="109.53690500116373">
    <ele>74.09</ele>
   </trkpt>
   <trkpt lat="18.37327" lon="109.53723000000001">
    <ele>73.51</ele>
   </trkpt>
   <trkpt lat="18.372420000029145" lon="109.53732500046745">
    <ele>71.85000000000001</ele>
   </trkpt>
   <trkpt lat="18.371570000000002" lon="109.53742000000001">
    <ele>69.76</ele>
   </trkpt>
   <trkpt lat="18.3711400001742" lon="109.53765000055395">
    <ele>68.92</ele>
   </trkpt>
   <trkpt lat="18.370710000000003" lon="109.53788000000002">
    <ele>68.37</ele>
   </trkpt>
   <trkpt lat="18.370284999988463" lon="109.53807000051532">
    <ele>67.71000000000001</ele>
   </trkpt>
   <trkpt lat="18.369860000000003" lon="109.53826000000001">
    <ele>67.28</ele>
   </trkpt>
   <trkpt lat="18.369300000000003" lon="109.53835000000001">
    <ele>67.67</ele>
   </trkpt>
   <trkpt lat="18.36852" lon="109.53831000000001">
    <ele>67.27000000000001</ele>
   </trkpt>
   <trkpt lat="18.36839" lon="109.53825">
    <ele>65.11</ele>
   </trkpt>
   <trkpt lat="18.368290000000002" lon="109.53801000000001">
    <ele>64.35000000000001</ele>
   </trkpt>
   <trkpt lat="18.368180000000002" lon="109.53753">
    <ele>63.74</ele>
   </trkpt>
   <trkpt lat="18.36777" lon="109.53684000000001">
    <ele>62.77</ele>
   </trkpt>
   <trkpt lat="18.36754" lon="109.53669000000001">
    <ele>63.38</ele>
   </trkpt>
   <trkpt lat="18.367240000000002" lon="109.53668">
    <ele>64.55000000000001</ele>
   </trkpt>
   <trkpt lat="18.367050000000003" lon="109.53642">
    <ele>65.04</ele>
   </trkpt>
   <trkpt lat="18.36681" lon="109.53630000000001">
    <ele>65.68</ele>
   </trkpt>
   <trkpt lat="18.366470000000003" lon="109.53625000000001">
    <ele>67.24000000000001</ele>
   </trkpt>
   <trkpt lat="18.36615" lon="109.53625000000001">
    <ele>69.54</ele>
   </trkpt>
   <trkpt lat="18.365650000364962" lon="109.5358549988223">
    <ele>71.44</ele>
   </trkpt>
   <trkpt lat="18.36515" lon="109.53546000000001">
    <ele>76.11000000000001</ele>
   </trkpt>
   <trkpt lat="18.364684999888443" lon="109.53531999957384">
    <ele>83.43</ele>
   </trkpt>
   <trkpt lat="18.364220000000003" lon="109.53518000000001">
    <ele>90.2</ele>
   </trkpt>
   <trkpt lat="18.363570000000003" lon="109.53471">
    <ele>88.23</ele>
   </trkpt>
   <trkpt lat="18.363010000000003" lon="109.53477000000001">
    <ele>86.06000000000002</ele>
   </trkpt>
   <trkpt lat="18.36267" lon="109.53464000000001">
    <ele>83.55000000000001</ele>
   </trkpt>
   <trkpt lat="18.3623" lon="109.53444">
    <ele>79.78</ele>
   </trkpt>
   <trkpt lat="18.36192" lon="109.53436">
    <ele>75.73</ele>
   </trkpt>
   <trkpt lat="18.36165" lon="109.53405000000001">
    <ele>73.56</ele>
   </trkpt>
   <trkpt lat="18.36158" lon="109.53378000000001">
    <ele>71.28000000000002</ele>
   </trkpt>
   <trkpt lat="18.36167" lon="109.53291000000002">
    <ele>65.02000000000001</ele>
   </trkpt>
   <trkpt lat="18.361420000000003" lon="109.53229">
    <ele>62.49</ele>
   </trkpt>
   <trkpt lat="18.36146" lon="109.53173000000001">
    <ele>60.82000000000001</ele>
   </trkpt>
   <trkpt lat="18.361535000621632" lon="109.53124000024427">
    <ele>60.2</ele>
   </trkpt>
   <trkpt lat="18.361610000000002" lon="109.53075000000001">
    <ele>59.56</ele>
   </trkpt>
   <trkpt lat="18.36158" lon="109.53057000000001">
    <ele>58.68</ele>
   </trkpt>
   <trkpt lat="18.361420000000003" lon="109.53041">
    <ele>56.57</ele>
   </trkpt>
   <trkpt lat="18.360680000000002" lon="109.52998000000001">
    <ele>54.89</ele>
   </trkpt>
   <trkpt lat="18.360570000000003" lon="109.52947">
    <ele>56.510000000000005</ele>
   </trkpt>
   <trkpt lat="18.36042" lon="109.52931000000001">
    <ele>56.510000000000005</ele>
   </trkpt>
   <trkpt lat="18.360210000000002" lon="109.52925">
    <ele>58.56000000000001</ele>
   </trkpt>
   <trkpt lat="18.36004" lon="109.52914000000001">
    <ele>58.95</ele>
   </trkpt>
   <trkpt lat="18.359810000644142" lon="109.5286199991687">
    <ele>56.93</ele>
   </trkpt>
   <trkpt lat="18.35958" lon="109.52810000000001">
    <ele>55.46</ele>
   </trkpt>
   <trkpt lat="18.35952" lon="109.52781">
    <ele>55.81</ele>
   </trkpt>
   <trkpt lat="18.35967" lon="109.52712000000001">
    <ele>59.79</ele>
   </trkpt>
   <trkpt lat="18.359840000000002" lon="109.52694000000001">
    <ele>61.56</ele>
   </trkpt>
   <trkpt lat="18.36008" lon="109.52676000000001">
    <ele>64.7</ele>
   </trkpt>
   <trkpt lat="18.360120000000002" lon="109.52661">
    <ele>65.19000000000001</ele>
   </trkpt>
   <trkpt lat="18.360100000000003" lon="109.52644000000001">
    <ele>65.02000000000001</ele>
   </trkpt>
   <trkpt lat="18.359930000000002" lon="109.52625">
    <ele>63.47</ele>
   </trkpt>
   <trkpt lat="18.35954000029495" lon="109.52600999954689">
    <ele>59.150000000000006</ele>
   </trkpt>
   <trkpt lat="18.359150000000003" lon="109.52577000000001">
    <ele>57.040000000000006</ele>
   </trkpt>
   <trkpt lat="18.35911" lon="109.52574000000001">
    <ele>56.910000000000004</ele>
   </trkpt>
   <trkpt lat="18.35865" lon="109.52551000000001">
    <ele>56.5</ele>
   </trkpt>
   <trkpt lat="18.35858" lon="109.52512000000002">
    <ele>58.120000000000005</ele>
   </trkpt>
   <trkpt lat="18.35817" lon="109.52459">
    <ele>57.36</ele>
   </trkpt>
   <trkpt lat="18.357940000000003" lon="109.52447000000001">
    <ele>56.92</ele>
   </trkpt>
   <trkpt lat="18.35742" lon="109.52435000000001">
    <ele>57.68</ele>
   </trkpt>
   <trkpt lat="18.35706" lon="109.52421000000001">
    <ele>59.29</ele>
   </trkpt>
   <trkpt lat="18.35652" lon="109.52384">
    <ele>58.46</ele>
   </trkpt>
   <trkpt lat="18.35601000012301" lon="109.52368999957591">
    <ele>56.89</ele>
   </trkpt>
   <trkpt lat="18.355500000000003" lon="109.52354000000001">
    <ele>55.120000000000005</ele>
   </trkpt>
   <trkpt lat="18.35529" lon="109.52343">
    <ele>54.99</ele>
   </trkpt>
   <trkpt lat="18.35517" lon="109.52325">
    <ele>55.13</ele>
   </trkpt>
   <trkpt lat="18.355020000000003" lon="109.52292000000001">
    <ele>55.650000000000006</ele>
   </trkpt>
   <trkpt lat="18.35506" lon="109.52266">
    <ele>55.580000000000005</ele>
   </trkpt>
   <trkpt lat="18.355050000000002" lon="109.52239000000002">
    <ele>55.27</ele>
   </trkpt>
   <trkpt lat="18.35497" lon="109.52217">
    <ele>54.86000000000001</ele>
   </trkpt>
   <trkpt lat="18.35479" lon="109.52202000000001">
    <ele>54.64</ele>
   </trkpt>
   <trkpt lat="18.35462" lon="109.52198000000001">
    <ele>54.510000000000005</ele>
   </trkpt>
   <trkpt lat="18.354300000000002" lon="109.52202000000001">
    <ele>54.480000000000004</ele>
   </trkpt>
   <trkpt lat="18.353830000000002" lon="109.52239000000002">
    <ele>54.650000000000006</ele>
   </trkpt>
   <trkpt lat="18.35377" lon="109.52261000000001">
    <ele>54.74</ele>
   </trkpt>
   <trkpt lat="18.35384000064042" lon="109.52309999990091">
    <ele>54.720000000000006</ele>
   </trkpt>
   <trkpt lat="18.353910000000003" lon="109.52359000000001">
    <ele>55.35</ele>
   </trkpt>
   <trkpt lat="18.35386" lon="109.5237">
    <ele>55.370000000000005</ele>
   </trkpt>
   <trkpt lat="18.353730000000002" lon="109.52373000000001">
    <ele>55.34</ele>
   </trkpt>
   <trkpt lat="18.353340000174967" lon="109.52339499914241">
    <ele>55.85</ele>
   </trkpt>
   <trkpt lat="18.35295" lon="109.52306000000002">
    <ele>58.68</ele>
   </trkpt>
   <trkpt lat="18.35218" lon="109.52334">
    <ele>57.5</ele>
   </trkpt>
   <trkpt lat="18.351670000000002" lon="109.52325">
    <ele>52.61</ele>
   </trkpt>
   <trkpt lat="18.351020000000002" lon="109.52300000000001">
    <ele>49.0</ele>
   </trkpt>
   <trkpt lat="18.35046" lon="109.52306000000002">
    <ele>49.67</ele>
   </trkpt>
   <trkpt lat="18.350020000616606" lon="109.52354500123184">
    <ele>49.46</ele>
   </trkpt>
   <trkpt lat="18.349580000000003" lon="109.52403000000001">
    <ele>44.38</ele>
   </trkpt>
   <trkpt lat="18.348995000106815" lon="109.5238799995044">
    <ele>39.99</ele>
   </trkpt>
   <trkpt lat="18.34841" lon="109.52373000000001">
    <ele>36.46000000000001</ele>
   </trkpt>
   <trkpt lat="18.34757" lon="109.52378">
    <ele>32.97</ele>
   </trkpt>
   <trkpt lat="18.347330000000003" lon="109.52387">
    <ele>32.46</ele>
   </trkpt>
   <trkpt lat="18.34712" lon="109.52401">
    <ele>32.410000000000004</ele>
   </trkpt>
   <trkpt lat="18.34684" lon="109.52435000000001">
    <ele>32.49</ele>
   </trkpt>
   <trkpt lat="18.346410001223404" lon="109.52504000174592">
    <ele>31.740000000000002</ele>
   </trkpt>
   <trkpt lat="18.34598" lon="109.52573000000001">
    <ele>31.48</ele>
   </trkpt>
   <trkpt lat="18.345830000000003" lon="109.52587000000001">
    <ele>31.3</ele>
   </trkpt>
   <trkpt lat="18.345650000000003" lon="109.52599000000001">
    <ele>31.3</ele>
   </trkpt>
   <trkpt lat="18.34549" lon="109.52606000000002">
    <ele>31.32</ele>
   </trkpt>
   <trkpt lat="18.34532" lon="109.52608000000001">
    <ele>31.400000000000002</ele>
   </trkpt>
   <trkpt lat="18.344463333330168" lon="109.52605333306872">
    <ele>31.73</ele>
   </trkpt>
   <trkpt lat="18.343606666656633" lon="109.52602666640185">
    <ele>31.790000000000006</ele>
   </trkpt>
   <trkpt lat="18.342750000000002" lon="109.52600000000001">
    <ele>30.42</ele>
   </trkpt>
   <trkpt lat="18.342255000232612" lon="109.52623000061477">
    <ele>30.92</ele>
   </trkpt>
   <trkpt lat="18.34176" lon="109.52646000000001">
    <ele>31.040000000000003</ele>
   </trkpt>
   <trkpt lat="18.34139" lon="109.52674">
    <ele>30.78</ele>
   </trkpt>
   <trkpt lat="18.3412" lon="109.52715">
    <ele>30.78</ele>
   </trkpt>
   <trkpt lat="18.3410350007512" lon="109.52768500049407">
    <ele>30.730000000000004</ele>
   </trkpt>
   <trkpt lat="18.340870000000002" lon="109.52822">
    <ele>30.62</ele>
   </trkpt>
   <trkpt lat="18.340860000000003" lon="109.52827">
    <ele>30.62</ele>
   </trkpt>
   <trkpt lat="18.34103" lon="109.52829000000001">
    <ele>30.060000000000002</ele>
   </trkpt>
   <trkpt lat="18.340726670696693" lon="109.52917000310892">
    <ele>26.78</ele>
   </trkpt>
   <trkpt lat="18.34042333735643" lon="109.53005000312892">
    <ele>25.200000000000003</ele>
   </trkpt>
   <trkpt lat="18.340120000000002" lon="109.53093000000001">
    <ele>23.07</ele>
   </trkpt>
   <trkpt lat="18.339249287070263" lon="109.5311300130947">
    <ele>20.580000000000002</ele>
   </trkpt>
   <trkpt lat="18.338378573931987" lon="109.53133002417434">
    <ele>19.880000000000003</ele>
   </trkpt>
   <trkpt lat="18.337507860585198" lon="109.53153003323897">
    <ele>20.1</ele>
   </trkpt>
   <trkpt lat="18.336637147029908" lon="109.53173004028876">
    <ele>18.98</ele>
   </trkpt>
   <trkpt lat="18.335766433266123" lon="109.53193004532383">
    <ele>19.94</ele>
   </trkpt>
   <trkpt lat="18.334895719293854" lon="109.53213004834431">
    <ele>18.0</ele>
   </trkpt>
   <trkpt lat="18.33402500511312" lon="109.5323300493503">
    <ele>15.420000000000002</ele>
   </trkpt>
   <trkpt lat="18.333154290723932" lon="109.53253004834195">
    <ele>17.0</ele>
   </trkpt>
   <trkpt lat="18.3322835761263" lon="109.53273004531938">
    <ele>17.18</ele>
   </trkpt>
   <trkpt lat="18.331412861320246" lon="109.53293004028268">
    <ele>16.18</ele>
   </trkpt>
   <trkpt lat="18.330542146305767" lon="109.533130033232">
    <ele>17.05</ele>
   </trkpt>
   <trkpt lat="18.32967143108289" lon="109.53333002416747">
    <ele>15.27</ele>
   </trkpt>
   <trkpt lat="18.328800715651617" lon="109.53353001308918">
    <ele>15.81</ele>
   </trkpt>
   <trkpt lat="18.327930000000002" lon="109.53373">
    <ele>16.3</ele>
   </trkpt>
   <trkpt lat="18.327305000048025" lon="109.53394000078127">
    <ele>16.0</ele>
   </trkpt>
   <trkpt lat="18.326680000000003" lon="109.53415000000001">
    <ele>14.8</ele>
   </trkpt>
   <trkpt lat="18.32654" lon="109.53417">
    <ele>17.96</ele>
   </trkpt>
   <trkpt lat="18.326405005881842" lon="109.53330249797665">
    <ele>17.93</ele>
   </trkpt>
   <trkpt lat="18.326270007843227" lon="109.53243499730732">
    <ele>17.8</ele>
   </trkpt>
   <trkpt lat="18.326135005884197" lon="109.53156749799201">
    <ele>18.92</ele>
   </trkpt>
   <trkpt lat="18.326" lon="109.53070000000001">
    <ele>22.46</ele>
   </trkpt>
   <trkpt lat="18.325870000000002" lon="109.53012000000001">
    <ele>23.46</ele>
   </trkpt>
   <trkpt lat="18.32552" lon="109.52935000000001">
    <ele>27.040000000000003</ele>
   </trkpt>
   <trkpt lat="18.325065006529975" lon="109.52864165734566">
    <ele>29.07</ele>
   </trkpt>
   <trkpt lat="18.324610010446257" lon="109.52793331841737">
    <ele>31.86</ele>
   </trkpt>
   <trkpt lat="18.32415501174895" lon="109.52722498321506">
    <ele>35.59</ele>
   </trkpt>
   <trkpt lat="18.323700010438117" lon="109.52651665173862">
    <ele>37.06</ele>
   </trkpt>
   <trkpt lat="18.323245006513854" lon="109.52580832398799">
    <ele>36.18</ele>
   </trkpt>
   <trkpt lat="18.32279" lon="109.52510000000001">
    <ele>34.78</ele>
   </trkpt>
   <trkpt lat="18.322650000000003" lon="109.52497000000001">
    <ele>34.78</ele>
   </trkpt>
   <trkpt lat="18.322480000000002" lon="109.5249">
    <ele>34.53</ele>
   </trkpt>
   <trkpt lat="18.32226" lon="109.52492000000001">
    <ele>34.25</ele>
   </trkpt>
   <trkpt lat="18.321428000652308" lon="109.52517400489118">
    <ele>32.620000000000005</ele>
   </trkpt>
   <trkpt lat="18.32059600096859" lon="109.52542800733963">
    <ele>31.5</ele>
   </trkpt>
   <trkpt lat="18.319764000948858" lon="109.52568200734551">
    <ele>31.060000000000002</ele>
   </trkpt>
   <trkpt lat="18.318932000593147" lon="109.52593600490896">
    <ele>30.46</ele>
   </trkpt>
   <trkpt lat="18.3181" lon="109.52619000000001">
    <ele>29.69</ele>
   </trkpt>
   <trkpt lat="18.31764" lon="109.52632000000001">
    <ele>29.330000000000002</ele>
   </trkpt>
   <trkpt lat="18.31719" lon="109.52639">
    <ele>29.05</ele>
   </trkpt>
   <trkpt lat="18.316295000042064" lon="109.52645500033388">
    <ele>28.0</ele>
   </trkpt>
   <trkpt lat="18.3154" lon="109.52652">
    <ele>27.13</ele>
   </trkpt>
   <trkpt lat="18.31459000002326" lon="109.52655000098233">
    <ele>26.71</ele>
   </trkpt>
   <trkpt lat="18.31378000004183" lon="109.52658000168391">
    <ele>26.21</ele>
   </trkpt>
   <trkpt lat="18.312970000055717" lon="109.5266100021047">
    <ele>25.240000000000002</ele>
   </trkpt>
   <trkpt lat="18.312160000064917" lon="109.52664000224479">
    <ele>24.25</ele>
   </trkpt>
   <trkpt lat="18.311350000069435" lon="109.52667000210414">
    <ele>23.470000000000002</ele>
   </trkpt>
   <trkpt lat="18.310540000069263" lon="109.52670000168277">
    <ele>22.35</ele>
   </trkpt>
   <trkpt lat="18.30973000006441" lon="109.5267300009807">
    <ele>21.560000000000002</ele>
   </trkpt>
   <trkpt lat="18.30892" lon="109.52676000000001">
    <ele>20.92</ele>
   </trkpt>
   <trkpt lat="18.308234999769457" lon="109.5267850001074">
    <ele>20.290000000000003</ele>
   </trkpt>
   <trkpt lat="18.307550000000003" lon="109.52681000000001">
    <ele>20.25</ele>
   </trkpt>
   <trkpt lat="18.3068199999766" lon="109.52686000021282">
    <ele>18.950000000000003</ele>
   </trkpt>
   <trkpt lat="18.30609" lon="109.52691000000002">
    <ele>18.94</ele>
   </trkpt>
   <trkpt lat="18.305206666672976" lon="109.52695666714297">
    <ele>18.1</ele>
   </trkpt>
   <trkpt lat="18.30432333333462" lon="109.52700333380987">
    <ele>17.080000000000002</ele>
   </trkpt>
   <trkpt lat="18.303440000000002" lon="109.52705">
    <ele>16.48</ele>
   </trkpt>
   <trkpt lat="18.30301" lon="109.52707000000001">
    <ele>16.220000000000002</ele>
   </trkpt>
   <trkpt lat="18.30232333339099" lon="109.52706666664052">
    <ele>15.620000000000001</ele>
   </trkpt>
   <trkpt lat="18.301636666781928" lon="109.52706333330747">
    <ele>14.57</ele>
   </trkpt>
   <trkpt lat="18.30095" lon="109.52706">
    <ele>13.930000000000001</ele>
   </trkpt>
   <trkpt lat="18.300410000000003" lon="109.52713000000001">
    <ele>13.97</ele>
   </trkpt>
   <trkpt lat="18.299859999946793" lon="109.52723000033187">
    <ele>13.71</ele>
   </trkpt>
   <trkpt lat="18.299310000000002" lon="109.52733">
    <ele>13.110000000000001</ele>
   </trkpt>
   <trkpt lat="18.2989" lon="109.52746">
    <ele>12.98</ele>
   </trkpt>
   <trkpt lat="18.29804600070922" lon="109.52772200516671">
    <ele>11.680000000000001</ele>
   </trkpt>
   <trkpt lat="18.297192001061298" lon="109.52798400775069">
    <ele>10.63</ele>
   </trkpt>
   <trkpt lat="18.296338001056263" lon="109.52824600775209">
    <ele>9.670000000000002</ele>
   </trkpt>
   <trkpt lat="18.29548400069413" lon="109.52850800517103">
    <ele>9.58</ele>
   </trkpt>
   <trkpt lat="18.29463" lon="109.52877000000001">
    <ele>8.71</ele>
   </trkpt>
   <trkpt lat="18.293830000096726" lon="109.52900500109857">
    <ele>8.42</ele>
   </trkpt>
   <trkpt lat="18.29303" lon="109.52924000000002">
    <ele>8.94</ele>
   </trkpt>
   <trkpt lat="18.292900000000003" lon="109.52923000000001">
    <ele>8.89</ele>
   </trkpt>
   <trkpt lat="18.292810000000003" lon="109.5292">
    <ele>8.820000000000002</ele>
   </trkpt>
   <trkpt lat="18.292650000000002" lon="109.52910000000001">
    <ele>8.43</ele>
   </trkpt>
   <trkpt lat="18.292550000000002" lon="109.52901000000001">
    <ele>8.280000000000001</ele>
   </trkpt>
   <trkpt lat="18.292310000803628" lon="109.52844999919678">
    <ele>7.760000000000001</ele>
   </trkpt>
   <trkpt lat="18.292070000000002" lon="109.52789000000001">
    <ele>7.55</ele>
   </trkpt>
   <trkpt lat="18.29166" lon="109.52705">
    <ele>6.82</ele>
   </trkpt>
   <trkpt lat="18.291310000000003" lon="109.52641000000001">
    <ele>6.44</ele>
   </trkpt>
   <trkpt lat="18.29087" lon="109.52567">
    <ele>6.470000000000001</ele>
   </trkpt>
   <trkpt lat="18.290550000630574" lon="109.52516499901633">
    <ele>6.91</ele>
   </trkpt>
   <trkpt lat="18.29023" lon="109.52466000000001">
    <ele>7.8500000000000005</ele>
   </trkpt>
   <trkpt lat="18.29003" lon="109.52464">
    <ele>7.670000000000001</ele>
   </trkpt>
   <trkpt lat="18.289630000000002" lon="109.52474000000001">
    <ele>8.09</ele>
   </trkpt>
   <trkpt lat="18.288790000000002" lon="109.52491">
    <ele>8.66</ele>
   </trkpt>
   <trkpt lat="18.28838" lon="109.52497000000001">
    <ele>9.24</ele>
   </trkpt>
   <trkpt lat="18.2876" lon="109.52511000000001">
    <ele>10.040000000000001</ele>
   </trkpt>
   <trkpt lat="18.28677" lon="109.52530000000002">
    <ele>10.38</ele>
   </trkpt>
   <trkpt lat="18.286060000044376" lon="109.52551000088071">
    <ele>9.44</ele>
   </trkpt>
   <trkpt lat="18.28535" lon="109.52572">
    <ele>8.93</ele>
   </trkpt>
   <trkpt lat="18.28461333349152" lon="109.52589333480562">
    <ele>9.21</ele>
   </trkpt>
   <trkpt lat="18.283876666826828" lon="109.52606666813847">
    <ele>10.4</ele>
   </trkpt>
   <trkpt lat="18.283140000000003" lon="109.52624000000002">
    <ele>11.48</ele>
   </trkpt>
   <trkpt lat="18.28291" lon="109.52626000000001">
    <ele>11.680000000000001</ele>
   </trkpt>
   <trkpt lat="18.28275" lon="109.52622000000001">
    <ele>11.66</ele>
   </trkpt>
   <trkpt lat="18.282500000000002" lon="109.52609000000001">
    <ele>11.27</ele>
   </trkpt>
   <trkpt lat="18.28237" lon="109.52599000000001">
    <ele>11.160000000000002</ele>
   </trkpt>
   <trkpt lat="18.281740000994052" lon="109.52535499763887">
    <ele>10.6</ele>
   </trkpt>
   <trkpt lat="18.28111" lon="109.52472">
    <ele>10.15</ele>
   </trkpt>
   <trkpt lat="18.28085" lon="109.52448000000001">
    <ele>9.89</ele>
   </trkpt>
   <trkpt lat="18.28068" lon="109.52436000000002">
    <ele>9.39</ele>
   </trkpt>
   <trkpt lat="18.280330000000003" lon="109.52420000000001">
    <ele>9.3</ele>
   </trkpt>
   <trkpt lat="18.2801" lon="109.52413000000001">
    <ele>9.1</ele>
   </trkpt>
   <trkpt lat="18.27949333332041" lon="109.5240699995772">
    <ele>8.5</ele>
   </trkpt>
   <trkpt lat="18.278886666622107" lon="109.52400999957406">
    <ele>8.34</ele>
   </trkpt>
   <trkpt lat="18.278280000000002" lon="109.52395000000001">
    <ele>8.100000000000001</ele>
   </trkpt>
   <trkpt lat="18.278270000000003" lon="109.52395000000001">
    <ele>8.110000000000001</ele>
   </trkpt>
   <trkpt lat="18.27749" lon="109.52388">
    <ele>8.540000000000001</ele>
   </trkpt>
   <trkpt lat="18.276980000000002" lon="109.52388">
    <ele>8.75</ele>
   </trkpt>
   <trkpt lat="18.27682" lon="109.52391000000001">
    <ele>8.85</ele>
   </trkpt>
   <trkpt lat="18.27654" lon="109.52400000000002">
    <ele>8.93</ele>
   </trkpt>
   <trkpt lat="18.27633" lon="109.52409000000002">
    <ele>9.170000000000002</ele>
   </trkpt>
   <trkpt lat="18.275900000190216" lon="109.52440000081126">
    <ele>9.58</ele>
   </trkpt>
   <trkpt lat="18.275470000000002" lon="109.52471000000001">
    <ele>9.64</ele>
   </trkpt>
   <trkpt lat="18.27503" lon="109.52506000000001">
    <ele>10.23</ele>
   </trkpt>
   <trkpt lat="18.27496" lon="109.52509">
    <ele>10.650000000000002</ele>
   </trkpt>
   <trkpt lat="18.27485" lon="109.52509">
    <ele>10.730000000000002</ele>
   </trkpt>
   <trkpt lat="18.27474" lon="109.52502000000001">
    <ele>10.8</ele>
   </trkpt>
   <trkpt lat="18.27425000097472" lon="109.52439499818358">
    <ele>10.5</ele>
   </trkpt>
   <trkpt lat="18.273760000000003" lon="109.52377000000001">
    <ele>11.11</ele>
   </trkpt>
   <trkpt lat="18.273300000000003" lon="109.52312">
    <ele>11.48</ele>
   </trkpt>
   <trkpt lat="18.27316" lon="109.52287000000001">
    <ele>11.340000000000002</ele>
   </trkpt>
   <trkpt lat="18.27297" lon="109.52244">
    <ele>11.120000000000001</ele>
   </trkpt>
   <trkpt lat="18.27289" lon="109.52213">
    <ele>11.38</ele>
   </trkpt>
   <trkpt lat="18.272850000000002" lon="109.52184000000001">
    <ele>11.410000000000002</ele>
   </trkpt>
   <trkpt lat="18.272850000000002" lon="109.52161000000001">
    <ele>11.53</ele>
   </trkpt>
   <trkpt lat="18.27290000100955" lon="109.52099000004479">
    <ele>11.89</ele>
   </trkpt>
   <trkpt lat="18.27295" lon="109.52037000000001">
    <ele>11.99</ele>
   </trkpt>
   <trkpt lat="18.27296" lon="109.51997000000001">
    <ele>12.010000000000002</ele>
   </trkpt>
   <trkpt lat="18.272920000000003" lon="109.51956000000001">
    <ele>12.020000000000001</ele>
   </trkpt>
   <trkpt lat="18.2727750012953" lon="109.51884999933598">
    <ele>11.74</ele>
   </trkpt>
   <trkpt lat="18.272630000000003" lon="109.51814">
    <ele>11.600000000000001</ele>
   </trkpt>
   <trkpt lat="18.2725" lon="109.51774">
    <ele>11.500000000000002</ele>
   </trkpt>
   <trkpt lat="18.27232" lon="109.51737000000001">
    <ele>10.89</ele>
   </trkpt>
   <trkpt lat="18.27201" lon="109.51695000000001">
    <ele>10.42</ele>
   </trkpt>
   <trkpt lat="18.271470000750668" lon="109.51639999825265">
    <ele>8.84</ele>
   </trkpt>
   <trkpt lat="18.27093" lon="109.51585000000001">
    <ele>7.660000000000001</ele>
   </trkpt>
   <trkpt lat="18.270530000542763" lon="109.51542499909856">
    <ele>6.59</ele>
   </trkpt>
   <trkpt lat="18.27013" lon="109.51500000000001">
    <ele>7.620000000000001</ele>
   </trkpt>
   <trkpt lat="18.27004" lon="109.51493">
    <ele>5.66</ele>
   </trkpt>
   <trkpt lat="18.269605000785496" lon="109.51437999862107">
    <ele>4.72</ele>
   </trkpt>
   <trkpt lat="18.269170000000003" lon="109.51383000000001">
    <ele>5.0200000000000005</ele>
   </trkpt>
   <trkpt lat="18.268690000000003" lon="109.51325000000001">
    <ele>3.5500000000000003</ele>
   </trkpt>
   <trkpt lat="18.268510000000003" lon="109.51308">
    <ele>3.6100000000000003</ele>
   </trkpt>
   <trkpt lat="18.268330000000002" lon="109.51296">
    <ele>3.12</ele>
   </trkpt>
   <trkpt lat="18.268150000000002" lon="109.51288000000001">
    <ele>2.9400000000000004</ele>
   </trkpt>
   <trkpt lat="18.267433333713267" lon="109.51261666449945">
    <ele>1.6600000000000001</ele>
   </trkpt>
   <trkpt lat="18.26671666706628" lon="109.51235333117339">
    <ele>2.02</ele>
   </trkpt>
   <trkpt lat="18.266000000000002" lon="109.51209000000001">
    <ele>2.18</ele>
   </trkpt>
   <trkpt lat="18.265690000000003" lon="109.51195000000001">
    <ele>2.17</ele>
   </trkpt>
   <trkpt lat="18.26546" lon="109.51182000000001">
    <ele>2.02</ele>
   </trkpt>
   <trkpt lat="18.26537" lon="109.51175">
    <ele>1.77</ele>
   </trkpt>
   <trkpt lat="18.265" lon="109.51125">
    <ele>2.2800000000000002</ele>
   </trkpt>
   <trkpt lat="18.26456500110729" lon="109.51059999838623">
    <ele>2.9600000000000004</ele>
   </trkpt>
   <trkpt lat="18.26413" lon="109.50995">
    <ele>3.93</ele>
   </trkpt>
   <trkpt lat="18.26373000062538" lon="109.50947999897788">
    <ele>4.36</ele>
   </trkpt>
   <trkpt lat="18.26333" lon="109.50901">
    <ele>1.06</ele>
   </trkpt>
   <trkpt lat="18.26299500027233" lon="109.50866999931569">
    <ele>-0.5</ele>
   </trkpt>
   <trkpt lat="18.26266" lon="109.50833000000002">
    <ele>0.8200000000000001</ele>
   </trkpt>
   <trkpt lat="18.26236" lon="109.50807">
    <ele>3.7600000000000002</ele>
   </trkpt>
   <trkpt lat="18.262340000000002" lon="109.50806000000001">
    <ele>3.91</ele>
   </trkpt>
   <trkpt lat="18.261950000000002" lon="109.50774000000001">
    <ele>6.430000000000001</ele>
   </trkpt>
   <trkpt lat="18.26136500048439" lon="109.50729999850383">
    <ele>5.880000000000001</ele>
   </trkpt>
   <trkpt lat="18.26078" lon="109.50686">
    <ele>3.04</ele>
   </trkpt>
   <trkpt lat="18.260540000000002" lon="109.50675000000001">
    <ele>3.0500000000000003</ele>
   </trkpt>
   <trkpt lat="18.25981499985963" lon="109.50659999933265">
    <ele>2.54</ele>
   </trkpt>
   <trkpt lat="18.25909" lon="109.50645000000002">
    <ele>3.0</ele>
   </trkpt>
   <trkpt lat="18.25888" lon="109.50643000000001">
    <ele>3.0500000000000003</ele>
   </trkpt>
   <trkpt lat="18.25864" lon="109.50643000000001">
    <ele>3.18</ele>
   </trkpt>
   <trkpt lat="18.25834" lon="109.50646">
    <ele>3.2700000000000005</ele>
   </trkpt>
   <trkpt lat="18.257700000135" lon="109.50659666766578">
    <ele>3.85</ele>
   </trkpt>
   <trkpt lat="18.257060000173013" lon="109.50673333432432">
    <ele>4.25</ele>
   </trkpt>
   <trkpt lat="18.256420000000002" lon="109.50687">
    <ele>5.140000000000001</ele>
   </trkpt>
   <trkpt lat="18.255570000007626" lon="109.50689000009771">
    <ele>5.7</ele>
   </trkpt>
   <trkpt lat="18.254720000000002" lon="109.50691">
    <ele>6.450000000000001</ele>
   </trkpt>
   <trkpt lat="18.253870000000003" lon="109.50691">
    <ele>9.15</ele>
   </trkpt>
   <trkpt lat="18.253880000000002" lon="109.507">
    <ele>9.15</ele>
   </trkpt>
   <trkpt lat="18.253310000129186" lon="109.50693499980021">
    <ele>8.690000000000001</ele>
   </trkpt>
   <trkpt lat="18.252740000000003" lon="109.50687">
    <ele>8.51</ele>
   </trkpt>
   <trkpt lat="18.25215" lon="109.50685000000001">
    <ele>8.96</ele>
   </trkpt>
   <trkpt lat="18.251394999944736" lon="109.5068650000663">
    <ele>8.73</ele>
   </trkpt>
   <trkpt lat="18.25064" lon="109.50688000000001">
    <ele>8.77</ele>
   </trkpt>
   <trkpt lat="18.25024" lon="109.50692000000001">
    <ele>8.94</ele>
   </trkpt>
   <trkpt lat="18.25005" lon="109.50695">
    <ele>9.02</ele>
   </trkpt>
   <trkpt lat="18.24952999991636" lon="109.50709500047248">
    <ele>8.92</ele>
   </trkpt>
   <trkpt lat="18.249010000000002" lon="109.50724000000001">
    <ele>8.94</ele>
   </trkpt>
   <trkpt lat="18.24826666685242" lon="109.50744333508077">
    <ele>8.85</ele>
   </trkpt>
   <trkpt lat="18.247523333490243" lon="109.50764666842196">
    <ele>8.690000000000001</ele>
   </trkpt>
   <trkpt lat="18.24678" lon="109.50785">
    <ele>8.690000000000001</ele>
   </trkpt>
   <trkpt lat="18.24600499995163" lon="109.50798500061867">
    <ele>8.39</ele>
   </trkpt>
   <trkpt lat="18.245230000000003" lon="109.50812">
    <ele>8.190000000000001</ele>
   </trkpt>
   <trkpt lat="18.24457000001606" lon="109.50820500032312">
    <ele>8.08</ele>
   </trkpt>
   <trkpt lat="18.243910000000003" lon="109.50829">
    <ele>7.98</ele>
   </trkpt>
   <trkpt lat="18.243920000000003" lon="109.50829">
    <ele>7.98</ele>
   </trkpt>
   <trkpt lat="18.243650000000002" lon="109.50833000000002">
    <ele>7.99</ele>
   </trkpt>
   <trkpt lat="18.24288000016686" lon="109.50848750209833">
    <ele>8.020000000000001</ele>
   </trkpt>
   <trkpt lat="18.242110000205006" lon="109.50864500280129">
    <ele>7.8900000000000015</ele>
   </trkpt>
   <trkpt lat="18.24134000011442" lon="109.50880250210899">
    <ele>7.83</ele>
   </trkpt>
   <trkpt lat="18.24057" lon="109.50896">
    <ele>7.87</ele>
   </trkpt>
   <trkpt lat="18.24015" lon="109.50905">
    <ele>7.91</ele>
   </trkpt>
   <trkpt lat="18.23963499978639" lon="109.5090249999155">
    <ele>7.87</ele>
   </trkpt>
   <trkpt lat="18.23912" lon="109.50900000000001">
    <ele>7.760000000000001</ele>
   </trkpt>
   <trkpt lat="18.238669999867636" lon="109.50889499969068">
    <ele>7.87</ele>
   </trkpt>
   <trkpt lat="18.238220000000002" lon="109.50879">
    <ele>7.9700000000000015</ele>
   </trkpt>
   <trkpt lat="18.23779" lon="109.50866">
    <ele>8.110000000000001</ele>
   </trkpt>
   <trkpt lat="18.23778" lon="109.50866">
    <ele>8.110000000000001</ele>
   </trkpt>
   <trkpt lat="18.23705500027865" lon="109.50843999912922">
    <ele>8.21</ele>
   </trkpt>
   <trkpt lat="18.236330000000002" lon="109.50822000000001">
    <ele>8.620000000000001</ele>
   </trkpt>
   <trkpt lat="18.236220000000003" lon="109.50817">
    <ele>9.15</ele>
   </trkpt>
   <trkpt lat="18.23587000378095" lon="109.50902333675933">
    <ele>7.98</ele>
   </trkpt>
   <trkpt lat="18.235520003784575" lon="109.50987667008374">
    <ele>8.040000000000001</ele>
   </trkpt>
   <trkpt lat="18.23517" lon="109.51073000000001">
    <ele>8.34</ele>
   </trkpt>
   <trkpt lat="18.234855001674887" lon="109.5115350014729">
    <ele>10.360000000000001</ele>
   </trkpt>
   <trkpt lat="18.234540000000003" lon="109.51234000000001">
    <ele>9.44</ele>
   </trkpt>
   <trkpt lat="18.23432000074787" lon="109.51287500066326">
    <ele>8.4</ele>
   </trkpt>
   <trkpt lat="18.2341" lon="109.51341000000001">
    <ele>8.15</ele>
   </trkpt>
   <trkpt lat="18.23402" lon="109.51356000000001">
    <ele>8.200000000000001</ele>
   </trkpt>
   <trkpt lat="18.23392" lon="109.51364000000001">
    <ele>7.9</ele>
   </trkpt>
   <trkpt lat="18.233520000000002" lon="109.51367">
    <ele>6.890000000000001</ele>
   </trkpt>
   <trkpt lat="18.233040000000003" lon="109.51358">
    <ele>6.74</ele>
   </trkpt>
   <trkpt lat="18.232680000000002" lon="109.51358">
    <ele>6.72</ele>
   </trkpt>
   <trkpt lat="18.23225" lon="109.51364000000001">
    <ele>6.69</ele>
   </trkpt>
   <trkpt lat="18.23152" lon="109.5139">
    <ele>5.9799999999999995</ele>
   </trkpt>
   <trkpt lat="18.23122" lon="109.51398">
    <ele>5.91</ele>
   </trkpt>
   <trkpt lat="18.23044" lon="109.51412">
    <ele>6.55</ele>
   </trkpt>
   <trkpt lat="18.22992" lon="109.51417000000001">
    <ele>8.530000000000001</ele>
   </trkpt>
   <trkpt lat="18.22953" lon="109.51416">
    <ele>9.330000000000002</ele>
   </trkpt>
   <trkpt lat="18.22907" lon="109.51404000000001">
    <ele>11.0</ele>
   </trkpt>
   <trkpt lat="18.22898" lon="109.51397000000001">
    <ele>10.780000000000001</ele>
   </trkpt>
   <trkpt lat="18.228830000000002" lon="109.51379000000001">
    <ele>10.26</ele>
   </trkpt>
   <trkpt lat="18.228820000000002" lon="109.51361000000001">
    <ele>9.680000000000001</ele>
   </trkpt>
   <trkpt lat="18.22876" lon="109.51333000000001">
    <ele>8.51</ele>
   </trkpt>
   <trkpt lat="18.2286" lon="109.51302000000001">
    <ele>7.91</ele>
   </trkpt>
   <trkpt lat="18.22848" lon="109.51289000000001">
    <ele>7.680000000000001</ele>
   </trkpt>
   <trkpt lat="18.227915000567968" lon="109.51246999871829">
    <ele>7.800000000000001</ele>
   </trkpt>
   <trkpt lat="18.22735" lon="109.51205">
    <ele>7.640000000000001</ele>
   </trkpt>
   <trkpt lat="18.227030000000003" lon="109.51172000000001">
    <ele>7.53</ele>
   </trkpt>
   <trkpt lat="18.226850000000002" lon="109.51151000000002">
    <ele>7.450000000000001</ele>
   </trkpt>
   <trkpt lat="18.226550000000003" lon="109.51088000000001">
    <ele>7.21</ele>
   </trkpt>
   <trkpt lat="18.226370000000003" lon="109.51">
    <ele>6.5600000000000005</ele>
   </trkpt>
   <trkpt lat="18.22623" lon="109.50915">
    <ele>6.9</ele>
   </trkpt>
   <trkpt lat="18.226100000754847" lon="109.5085999994648">
    <ele>7.1000000000000005</ele>
   </trkpt>
   <trkpt lat="18.22597" lon="109.50805000000001">
    <ele>7.490000000000001</ele>
   </trkpt>
   <trkpt lat="18.22598" lon="109.50782000000001">
    <ele>7.51</ele>
   </trkpt>
   <trkpt lat="18.226020000000002" lon="109.50749">
    <ele>7.12</ele>
   </trkpt>
   <trkpt lat="18.22622" lon="109.50675000000001">
    <ele>6.760000000000001</ele>
   </trkpt>
   <trkpt lat="18.226270000000003" lon="109.50648000000001">
    <ele>6.73</ele>
   </trkpt>
   <trkpt lat="18.22631" lon="109.50592">
    <ele>6.760000000000001</ele>
   </trkpt>
   <trkpt lat="18.22632" lon="109.50502000000002">
    <ele>6.36</ele>
   </trkpt>
   <trkpt lat="18.22635" lon="109.50471">
    <ele>6.34</ele>
   </trkpt>
   <trkpt lat="18.226460000000003" lon="109.50447000000001">
    <ele>6.430000000000001</ele>
   </trkpt>
   <trkpt lat="18.226570000000002" lon="109.50431">
    <ele>6.760000000000001</ele>
   </trkpt>
   <trkpt lat="18.227145000282132" lon="109.50391500138947">
    <ele>8.780000000000001</ele>
   </trkpt>
   <trkpt lat="18.22772" lon="109.50352000000001">
    <ele>9.860000000000001</ele>
   </trkpt>
   <trkpt lat="18.22831" lon="109.50308000000001">
    <ele>10.910000000000002</ele>
   </trkpt>
   <trkpt lat="18.229026001705076" lon="109.5026740066867">
    <ele>8.83</ele>
   </trkpt>
   <trkpt lat="18.229742002555394" lon="109.50226801003149">
    <ele>6.0600000000000005</ele>
   </trkpt>
   <trkpt lat="18.230458002550897" lon="109.50186201003423">
    <ele>6.33</ele>
   </trkpt>
   <trkpt lat="18.231174001691553" lon="109.50145600669474">
    <ele>7.180000000000001</ele>
   </trkpt>
   <trkpt lat="18.23189" lon="109.50105">
    <ele>8.26</ele>
   </trkpt>
   <trkpt lat="18.23215" lon="109.50084000000001">
    <ele>8.43</ele>
   </trkpt>
   <trkpt lat="18.232660000000003" lon="109.50011">
    <ele>8.200000000000001</ele>
   </trkpt>
   <trkpt lat="18.232770000000002" lon="109.49984">
    <ele>7.9700000000000015</ele>
   </trkpt>
   <trkpt lat="18.23278" lon="109.49984">
    <ele>7.9700000000000015</ele>
   </trkpt>
   <trkpt lat="18.232840000000003" lon="109.49971000000001">
    <ele>7.9700000000000015</ele>
   </trkpt>
   <trkpt lat="18.232930000000003" lon="109.49940000000001">
    <ele>7.59</ele>
   </trkpt>
   <trkpt lat="18.233043335805437" lon="109.4987100008826">
    <ele>7.21</ele>
   </trkpt>
   <trkpt lat="18.23315666914151" lon="109.49802000086595">
    <ele>6.800000000000001</ele>
   </trkpt>
   <trkpt lat="18.23327" lon="109.49733">
    <ele>6.960000000000001</ele>
   </trkpt>
   <trkpt lat="18.23335" lon="109.49674">
    <ele>7.03</ele>
   </trkpt>
   <trkpt lat="18.233310000000003" lon="109.49639">
    <ele>7.08</ele>
   </trkpt>
   <trkpt lat="18.233210000000003" lon="109.49598">
    <ele>6.920000000000001</ele>
   </trkpt>
   <trkpt lat="18.23301" lon="109.49552000000001">
    <ele>6.800000000000001</ele>
   </trkpt>
   <trkpt lat="18.2326900008694" lon="109.4949299988531">
    <ele>6.95</ele>
   </trkpt>
   <trkpt lat="18.232370000000003" lon="109.49434000000001">
    <ele>7.280000000000001</ele>
   </trkpt>
   <trkpt lat="18.23197" lon="109.49365">
    <ele>8.200000000000001</ele>
   </trkpt>
   <trkpt lat="18.231700000613596" lon="109.49320999949883">
    <ele>8.34</ele>
   </trkpt>
   <trkpt lat="18.231430000000003" lon="109.49277000000001">
    <ele>8.21</ele>
   </trkpt>
   <trkpt lat="18.230966667983004" lon="109.49225666387636">
    <ele>7.630000000000001</ele>
   </trkpt>
   <trkpt lat="18.23050333459939" lon="109.49174333048737">
    <ele>7.5200000000000005</ele>
   </trkpt>
   <trkpt lat="18.230040000000002" lon="109.49123000000002">
    <ele>7.490000000000001</ele>
   </trkpt>
   <trkpt lat="18.229740000000003" lon="109.49074">
    <ele>7.490000000000001</ele>
   </trkpt>
   <trkpt lat="18.229390000000002" lon="109.49007">
    <ele>7.840000000000002</ele>
   </trkpt>
   <trkpt lat="18.229280000000003" lon="109.4899">
    <ele>7.840000000000002</ele>
   </trkpt>
   <trkpt lat="18.22914" lon="109.48978000000001">
    <ele>7.8900000000000015</ele>
   </trkpt>
   <trkpt lat="18.229000000000003" lon="109.48972">
    <ele>7.94</ele>
   </trkpt>
   <trkpt lat="18.228830000000002" lon="109.48967">
    <ele>8.06</ele>
   </trkpt>
   <trkpt lat="18.22832" lon="109.48961000000001">
    <ele>7.99</ele>
   </trkpt>
   <trkpt lat="18.22803" lon="109.48964000000001">
    <ele>8.09</ele>
   </trkpt>
   <trkpt lat="18.227580000000003" lon="109.48976">
    <ele>8.120000000000001</ele>
   </trkpt>
   <trkpt lat="18.227110000000003" lon="109.49003">
    <ele>8.38</ele>
   </trkpt>
   <trkpt lat="18.22641" lon="109.49052">
    <ele>8.780000000000001</ele>
   </trkpt>
   <trkpt lat="18.226210000000002" lon="109.49071">
    <ele>9.56</ele>
   </trkpt>
   <trkpt lat="18.22575" lon="109.49139000000001">
    <ele>13.99</ele>
   </trkpt>
   <trkpt lat="18.22559" lon="109.49176000000001">
    <ele>15.330000000000002</ele>
   </trkpt>
   <trkpt lat="18.225343337346878" lon="109.49264000250037">
    <ele>18.85</ele>
   </trkpt>
   <trkpt lat="18.22509667067866" lon="109.49352000250585">
    <ele>19.57</ele>
   </trkpt>
   <trkpt lat="18.22485" lon="109.49440000000001">
    <ele>17.150000000000002</ele>
   </trkpt>
   <trkpt lat="18.224580000000003" lon="109.49489000000001">
    <ele>15.360000000000001</ele>
   </trkpt>
   <trkpt lat="18.22445" lon="109.49508000000002">
    <ele>14.5</ele>
   </trkpt>
   <trkpt lat="18.224220000000003" lon="109.49533000000001">
    <ele>14.040000000000001</ele>
   </trkpt>
   <trkpt lat="18.223940000000002" lon="109.49554">
    <ele>12.97</ele>
   </trkpt>
   <trkpt lat="18.2235" lon="109.49577000000001">
    <ele>11.9</ele>
   </trkpt>
   <trkpt lat="18.222990000000003" lon="109.49588000000001">
    <ele>11.4</ele>
   </trkpt>
   <trkpt lat="18.222530000000003" lon="109.4959">
    <ele>10.93</ele>
   </trkpt>
   <trkpt lat="18.222520000000003" lon="109.4959">
    <ele>10.93</ele>
   </trkpt>
   <trkpt lat="18.221846666648897" lon="109.4959166667961">
    <ele>10.59</ele>
   </trkpt>
   <trkpt lat="18.22117333329635" lon="109.49593333346324">
    <ele>10.07</ele>
   </trkpt>
   <trkpt lat="18.2205" lon="109.49595000000001">
    <ele>9.53</ele>
   </trkpt>
   <trkpt lat="18.21991499992962" lon="109.49595000000001">
    <ele>8.910000000000002</ele>
   </trkpt>
   <trkpt lat="18.219330000000003" lon="109.49595000000001">
    <ele>8.450000000000001</ele>
   </trkpt>
   <trkpt lat="18.21865" lon="109.49585">
    <ele>7.660000000000001</ele>
   </trkpt>
   <trkpt lat="18.21809" lon="109.49564000000001">
    <ele>7.6000000000000005</ele>
   </trkpt>
   <trkpt lat="18.21742" lon="109.49528000000001">
    <ele>8.049999999999999</ele>
   </trkpt>
   <trkpt lat="18.21721" lon="109.49579000000001">
    <ele>7.5</ele>
   </trkpt>
   <trkpt lat="18.21716" lon="109.49599">
    <ele>7.53</ele>
   </trkpt>
   <trkpt lat="18.21714" lon="109.49654000000001">
    <ele>7.92</ele>
   </trkpt>
   <trkpt lat="18.21724" lon="109.49734000000001">
    <ele>10.730000000000002</ele>
   </trkpt>
   <trkpt lat="18.217270000000003" lon="109.49746">
    <ele>11.09</ele>
   </trkpt>
   <trkpt lat="18.21716" lon="109.49744000000001">
    <ele>10.89</ele>
   </trkpt>
   <trkpt lat="18.216540000000002" lon="109.49746">
    <ele>9.760000000000002</ele>
   </trkpt>
   <trkpt lat="18.215715000133592" lon="109.49757000050761">
    <ele>9.35</ele>
   </trkpt>
   <trkpt lat="18.21489" lon="109.49768">
    <ele>9.05</ele>
   </trkpt>
   <trkpt lat="18.21441999984782" lon="109.49774500019801">
    <ele>8.75</ele>
   </trkpt>
   <trkpt lat="18.21395" lon="109.49781000000002">
    <ele>8.57</ele>
   </trkpt>
   <trkpt lat="18.21379500076973" lon="109.49726999956881">
    <ele>8.55</ele>
   </trkpt>
   <trkpt lat="18.21364" lon="109.49673000000001">
    <ele>8.67</ele>
   </trkpt>
  </trkseg>
 </trk>
</gpx>
