<?xml version="1.0" encoding="UTF-8"?>
<gpx creator="StravaGPX" version="1.1" xmlns="http://www.topografix.com/GPX/1/1" xmlns:xsi="http://www.w3.org/2001/XMLSchema-instance" xsi:schemaLocation="http://www.topografix.com/GPX/1/1 http://www.topografix.com/GPX/1/1/gpx.xsd">
 <metadata>
  <name>Арахлей через дворцы</name>
  <author>
   <name>Vladimir Sumarokov 🇰🇿🇷🇺🇹🇭</name>
   <link href="https://www.strava.com/athletes/16069938"/>
  </author>
  <copyright author="OpenStreetMap contributors">
   <year>2020</year>
   <license>https://www.openstreetmap.org/copyright</license>
  </copyright>
  <link href="https://www.strava.com/routes/2918448041143380320"/>
 </metadata>
 <trk>
  <name>Арахлей через дворцы</name>
  <link href="https://www.strava.com/routes/2918448041143380320"/>
  <type>walking</type>
  <trkseg>
   <trkpt lat="52.07348" lon="113.21258">
    <ele>782.7</ele>
   </trkpt>
   <trkpt lat="52.073690000000006" lon="113.21201">
    <ele>781.94</ele>
   </trkpt>
   <trkpt lat="52.073730000000005" lon="113.21174">
    <ele>781.1300000000001</ele>
   </trkpt>
   <trkpt lat="52.073710000000005" lon="113.21150000000002">
    <ele>781.08</ele>
   </trkpt>
   <trkpt lat="52.07403000000001" lon="113.21061">
    <ele>781.88</ele>
   </trkpt>
   <trkpt lat="52.07414000000001" lon="113.21042000000001">
    <ele>782.2500000000001</ele>
   </trkpt>
   <trkpt lat="52.074290000000005" lon="113.2103">
    <ele>782.5900000000001</ele>
   </trkpt>
   <trkpt lat="52.07461000000001" lon="113.20973000000001">
    <ele>781.4300000000001</ele>
   </trkpt>
   <trkpt lat="52.07466" lon="113.20942000000001">
    <ele>782.2500000000001</ele>
   </trkpt>
   <trkpt lat="52.074650000000005" lon="113.20892">
    <ele>783.02</ele>
   </trkpt>
   <trkpt lat="52.07475" lon="113.20844000000001">
    <ele>783.3000000000001</ele>
   </trkpt>
   <trkpt lat="52.07495" lon="113.20773000000001">
    <ele>784.3500000000001</ele>
   </trkpt>
   <trkpt lat="52.0754" lon="113.20667">
    <ele>785.34</ele>
   </trkpt>
   <trkpt lat="52.07547" lon="113.20637">
    <ele>786.0400000000001</ele>
   </trkpt>
   <trkpt lat="52.07564000000001" lon="113.20594000000001">
    <ele>786.4700000000001</ele>
   </trkpt>
   <trkpt lat="52.07616" lon="113.20535000000001">
    <ele>786.8000000000001</ele>
   </trkpt>
   <trkpt lat="52.076910000000005" lon="113.20489">
    <ele>789.61</ele>
   </trkpt>
   <trkpt lat="52.07732000000001" lon="113.20445000000001">
    <ele>790.59</ele>
   </trkpt>
   <trkpt lat="52.07777" lon="113.20420000000001">
    <ele>792.4100000000001</ele>
   </trkpt>
   <trkpt lat="52.07829" lon="113.2035">
    <ele>793.32</ele>
   </trkpt>
   <trkpt lat="52.078770000000006" lon="113.20238">
    <ele>797.5000000000001</ele>
   </trkpt>
   <trkpt lat="52.07917000082544" lon="113.2019500038069">
    <ele>802.6200000000001</ele>
   </trkpt>
   <trkpt lat="52.079570000000004" lon="113.20152000000002">
    <ele>806.0</ele>
   </trkpt>
   <trkpt lat="52.080020000000005" lon="113.20079000000001">
    <ele>807.8700000000001</ele>
   </trkpt>
   <trkpt lat="52.08015" lon="113.20061000000001">
    <ele>808.1100000000001</ele>
   </trkpt>
   <trkpt lat="52.080310000000004" lon="113.20054">
    <ele>808.46</ele>
   </trkpt>
   <trkpt lat="52.08079000000001" lon="113.19980000000001">
    <ele>806.12</ele>
   </trkpt>
   <trkpt lat="52.081315000560735" lon="113.19948000368628">
    <ele>808.08</ele>
   </trkpt>
   <trkpt lat="52.08184000000001" lon="113.19916">
    <ele>809.7500000000001</ele>
   </trkpt>
   <trkpt lat="52.08212" lon="113.19891000000001">
    <ele>807.69</ele>
   </trkpt>
   <trkpt lat="52.082570000000004" lon="113.19877000000001">
    <ele>806.7800000000001</ele>
   </trkpt>
   <trkpt lat="52.08278000000001" lon="113.19858">
    <ele>808.58</ele>
   </trkpt>
   <trkpt lat="52.0833" lon="113.19843000000002">
    <ele>807.2900000000001</ele>
   </trkpt>
   <trkpt lat="52.08346" lon="113.19827000000001">
    <ele>807.51</ele>
   </trkpt>
   <trkpt lat="52.08370000000001" lon="113.19793000000001">
    <ele>809.45</ele>
   </trkpt>
   <trkpt lat="52.083960000000005" lon="113.19724000000001">
    <ele>812.46</ele>
   </trkpt>
   <trkpt lat="52.084030000000006" lon="113.19699000000001">
    <ele>813.1700000000001</ele>
   </trkpt>
   <trkpt lat="52.08411" lon="113.19621000000001">
    <ele>814.69</ele>
   </trkpt>
   <trkpt lat="52.084210000000006" lon="113.19599000000001">
    <ele>815.33</ele>
   </trkpt>
   <trkpt lat="52.08449" lon="113.19571">
    <ele>815.71</ele>
   </trkpt>
   <trkpt lat="52.08478" lon="113.19553">
    <ele>816.8000000000001</ele>
   </trkpt>
   <trkpt lat="52.085060000000006" lon="113.19486">
    <ele>816.98</ele>
   </trkpt>
   <trkpt lat="52.085480000000004" lon="113.19412000000001">
    <ele>819.52</ele>
   </trkpt>
   <trkpt lat="52.08581" lon="113.19323000000001">
    <ele>821.03</ele>
   </trkpt>
   <trkpt lat="52.086270000000006" lon="113.19219000000001">
    <ele>823.03</ele>
   </trkpt>
   <trkpt lat="52.08660000113371" lon="113.19166000400708">
    <ele>823.01</ele>
   </trkpt>
   <trkpt lat="52.08693" lon="113.19113000000002">
    <ele>823.25</ele>
   </trkpt>
   <trkpt lat="52.08726000000001" lon="113.19072000000001">
    <ele>825.5300000000001</ele>
   </trkpt>
   <trkpt lat="52.087920000000004" lon="113.19027000000001">
    <ele>825.83</ele>
   </trkpt>
   <trkpt lat="52.08852" lon="113.19005000000001">
    <ele>827.4800000000001</ele>
   </trkpt>
   <trkpt lat="52.08879" lon="113.18968000000001">
    <ele>828.07</ele>
   </trkpt>
   <trkpt lat="52.08903" lon="113.18898000000002">
    <ele>828.73</ele>
   </trkpt>
   <trkpt lat="52.08944" lon="113.18851000000001">
    <ele>829.08</ele>
   </trkpt>
   <trkpt lat="52.08959" lon="113.18840000000002">
    <ele>828.97</ele>
   </trkpt>
   <trkpt lat="52.08990000000001" lon="113.18835000000001">
    <ele>828.94</ele>
   </trkpt>
   <trkpt lat="52.090210000000006" lon="113.18819">
    <ele>828.9000000000001</ele>
   </trkpt>
   <trkpt lat="52.090640000643084" lon="113.18777500408197">
    <ele>829.2400000000001</ele>
   </trkpt>
   <trkpt lat="52.09107" lon="113.18736000000001">
    <ele>829.2</ele>
   </trkpt>
   <trkpt lat="52.091730000000005" lon="113.18665000000001">
    <ele>831.01</ele>
   </trkpt>
   <trkpt lat="52.091840000000005" lon="113.18646000000001">
    <ele>830.85</ele>
   </trkpt>
   <trkpt lat="52.092620000000004" lon="113.18581">
    <ele>831.83</ele>
   </trkpt>
   <trkpt lat="52.09306" lon="113.18554">
    <ele>835.64</ele>
   </trkpt>
   <trkpt lat="52.093560000000004" lon="113.18485000000001">
    <ele>837.33</ele>
   </trkpt>
   <trkpt lat="52.093920000000004" lon="113.18400000000001">
    <ele>836.5400000000001</ele>
   </trkpt>
   <trkpt lat="52.09418" lon="113.18367">
    <ele>837.34</ele>
   </trkpt>
   <trkpt lat="52.095000000000006" lon="113.18324000000001">
    <ele>837.55</ele>
   </trkpt>
   <trkpt lat="52.09516000000001" lon="113.18322">
    <ele>840.6600000000001</ele>
   </trkpt>
   <trkpt lat="52.09563000000001" lon="113.18283000000001">
    <ele>838.1200000000001</ele>
   </trkpt>
   <trkpt lat="52.096000000000004" lon="113.18230000000001">
    <ele>836.16</ele>
   </trkpt>
   <trkpt lat="52.09655000000001" lon="113.18124">
    <ele>840.6600000000001</ele>
   </trkpt>
   <trkpt lat="52.09698" lon="113.18084">
    <ele>834.9300000000001</ele>
   </trkpt>
   <trkpt lat="52.09731000000001" lon="113.18025000000002">
    <ele>837.73</ele>
   </trkpt>
   <trkpt lat="52.09780000000001" lon="113.17955">
    <ele>841.95</ele>
   </trkpt>
   <trkpt lat="52.098200000000006" lon="113.17873000000002">
    <ele>844.71</ele>
   </trkpt>
   <trkpt lat="52.09837" lon="113.17827000000001">
    <ele>844.89</ele>
   </trkpt>
   <trkpt lat="52.098690000000005" lon="113.17772000000001">
    <ele>842.8100000000001</ele>
   </trkpt>
   <trkpt lat="52.099165001078816" lon="113.17721500537772">
    <ele>844.8500000000001</ele>
   </trkpt>
   <trkpt lat="52.09964" lon="113.17671000000001">
    <ele>842.99</ele>
   </trkpt>
   <trkpt lat="52.10016" lon="113.17572000000001">
    <ele>847.38</ele>
   </trkpt>
   <trkpt lat="52.100530000000006" lon="113.17521">
    <ele>848.5</ele>
   </trkpt>
   <trkpt lat="52.10061" lon="113.17500000000001">
    <ele>847.22</ele>
   </trkpt>
   <trkpt lat="52.10103" lon="113.17461000000002">
    <ele>848.0900000000001</ele>
   </trkpt>
   <trkpt lat="52.10145500289171" lon="113.17377500806963">
    <ele>844.82</ele>
   </trkpt>
   <trkpt lat="52.10188" lon="113.17294000000001">
    <ele>847.82</ele>
   </trkpt>
   <trkpt lat="52.102250000000005" lon="113.17246000000002">
    <ele>852.04</ele>
   </trkpt>
   <trkpt lat="52.102990000000005" lon="113.17212">
    <ele>859.28</ele>
   </trkpt>
   <trkpt lat="52.10342000000001" lon="113.1718">
    <ele>862.45</ele>
   </trkpt>
   <trkpt lat="52.10403" lon="113.17152000000002">
    <ele>869.6400000000001</ele>
   </trkpt>
   <trkpt lat="52.10439" lon="113.17099">
    <ele>866.72</ele>
   </trkpt>
   <trkpt lat="52.10459" lon="113.17054">
    <ele>866.04</ele>
   </trkpt>
   <trkpt lat="52.104820000000004" lon="113.17018000000002">
    <ele>865.1200000000001</ele>
   </trkpt>
   <trkpt lat="52.10530000000001" lon="113.17001">
    <ele>863.0000000000001</ele>
   </trkpt>
   <trkpt lat="52.10587" lon="113.16909000000001">
    <ele>864.92</ele>
   </trkpt>
   <trkpt lat="52.10622000220833" lon="113.1683800054182">
    <ele>867.0000000000001</ele>
   </trkpt>
   <trkpt lat="52.106570000000005" lon="113.16767000000002">
    <ele>867.0000000000001</ele>
   </trkpt>
   <trkpt lat="52.10720000405887" lon="113.16669001385077">
    <ele>867.0000000000001</ele>
   </trkpt>
   <trkpt lat="52.10783000000001" lon="113.16571">
    <ele>867.0000000000001</ele>
   </trkpt>
   <trkpt lat="52.107960000000006" lon="113.16522">
    <ele>867.0000000000001</ele>
   </trkpt>
   <trkpt lat="52.10799" lon="113.16440000000001">
    <ele>867.0000000000001</ele>
   </trkpt>
   <trkpt lat="52.10821000000001" lon="113.16404000000001">
    <ele>867.0000000000001</ele>
   </trkpt>
   <trkpt lat="52.10887" lon="113.16337000000001">
    <ele>867.0000000000001</ele>
   </trkpt>
   <trkpt lat="52.109320000000004" lon="113.16332000000001">
    <ele>895.0</ele>
   </trkpt>
   <trkpt lat="52.10961" lon="113.16309000000001">
    <ele>895.0</ele>
   </trkpt>
   <trkpt lat="52.109860000000005" lon="113.16276">
    <ele>895.0</ele>
   </trkpt>
   <trkpt lat="52.11007000000001" lon="113.16237000000001">
    <ele>895.0</ele>
   </trkpt>
   <trkpt lat="52.110370006787726" lon="113.16110500842974">
    <ele>895.0</ele>
   </trkpt>
   <trkpt lat="52.110670000000006" lon="113.15984">
    <ele>895.0</ele>
   </trkpt>
   <trkpt lat="52.11110500361109" lon="113.15891500904145">
    <ele>895.0</ele>
   </trkpt>
   <trkpt lat="52.111540000000005" lon="113.15799000000001">
    <ele>895.0</ele>
   </trkpt>
   <trkpt lat="52.11178" lon="113.15728000000001">
    <ele>895.0</ele>
   </trkpt>
   <trkpt lat="52.11202" lon="113.15627">
    <ele>895.0</ele>
   </trkpt>
   <trkpt lat="52.1122" lon="113.15582">
    <ele>895.0</ele>
   </trkpt>
   <trkpt lat="52.112480000000005" lon="113.15462000000001">
    <ele>895.0</ele>
   </trkpt>
   <trkpt lat="52.112500000000004" lon="113.15432000000001">
    <ele>895.0</ele>
   </trkpt>
   <trkpt lat="52.11267" lon="113.15382000000001">
    <ele>895.0</ele>
   </trkpt>
   <trkpt lat="52.112970000000004" lon="113.15254000000002">
    <ele>895.0</ele>
   </trkpt>
   <trkpt lat="52.11334500317223" lon="113.15167000738543">
    <ele>895.0</ele>
   </trkpt>
   <trkpt lat="52.11372000000001" lon="113.1508">
    <ele>898.99</ele>
   </trkpt>
   <trkpt lat="52.11394000000001" lon="113.15045">
    <ele>898.99</ele>
   </trkpt>
   <trkpt lat="52.114110000000004" lon="113.15001000000001">
    <ele>898.99</ele>
   </trkpt>
   <trkpt lat="52.114430001650305" lon="113.14938500448984">
    <ele>898.99</ele>
   </trkpt>
   <trkpt lat="52.11475" lon="113.14876000000001">
    <ele>898.99</ele>
   </trkpt>
   <trkpt lat="52.11497000000001" lon="113.14843">
    <ele>898.99</ele>
   </trkpt>
   <trkpt lat="52.115120000000005" lon="113.14834">
    <ele>898.99</ele>
   </trkpt>
   <trkpt lat="52.11545500128276" lon="113.14778000428115">
    <ele>898.99</ele>
   </trkpt>
   <trkpt lat="52.115790000000004" lon="113.14722">
    <ele>898.99</ele>
   </trkpt>
   <trkpt lat="52.116170000834124" lon="113.14676500392828">
    <ele>898.99</ele>
   </trkpt>
   <trkpt lat="52.116550000000004" lon="113.14631000000001">
    <ele>898.99</ele>
   </trkpt>
   <trkpt lat="52.117140000000006" lon="113.14546000000001">
    <ele>898.99</ele>
   </trkpt>
   <trkpt lat="52.117230000000006" lon="113.14525">
    <ele>898.99</ele>
   </trkpt>
   <trkpt lat="52.11737" lon="113.14514000000001">
    <ele>898.99</ele>
   </trkpt>
   <trkpt lat="52.11771" lon="113.14464000000001">
    <ele>898.99</ele>
   </trkpt>
   <trkpt lat="52.11832667087791" lon="113.1439366860967">
    <ele>898.99</ele>
   </trkpt>
   <trkpt lat="52.11894333757164" lon="113.14323335273285">
    <ele>898.99</ele>
   </trkpt>
   <trkpt lat="52.11956000000001" lon="113.14253000000001">
    <ele>898.99</ele>
   </trkpt>
   <trkpt lat="52.120115002412646" lon="113.14179000908554">
    <ele>913.99</ele>
   </trkpt>
   <trkpt lat="52.120670000000004" lon="113.14105">
    <ele>913.99</ele>
   </trkpt>
   <trkpt lat="52.12088000000001" lon="113.14066000000001">
    <ele>913.99</ele>
   </trkpt>
   <trkpt lat="52.12104000000001" lon="113.14017000000001">
    <ele>913.99</ele>
   </trkpt>
   <trkpt lat="52.12123500261603" lon="113.13939500308928">
    <ele>913.99</ele>
   </trkpt>
   <trkpt lat="52.121430000000004" lon="113.13862">
    <ele>913.99</ele>
   </trkpt>
   <trkpt lat="52.12171000000001" lon="113.13792000000001">
    <ele>913.99</ele>
   </trkpt>
   <trkpt lat="52.121950000000005" lon="113.13758000000001">
    <ele>913.99</ele>
   </trkpt>
   <trkpt lat="52.12268" lon="113.13700000000001">
    <ele>913.99</ele>
   </trkpt>
   <trkpt lat="52.122820000000004" lon="113.13682000000001">
    <ele>913.99</ele>
   </trkpt>
   <trkpt lat="52.12321000000001" lon="113.13588000000001">
    <ele>913.99</ele>
   </trkpt>
   <trkpt lat="52.12351" lon="113.13543000000001">
    <ele>913.99</ele>
   </trkpt>
   <trkpt lat="52.12362" lon="113.13517">
    <ele>913.99</ele>
   </trkpt>
   <trkpt lat="52.12368000000001" lon="113.13437">
    <ele>910.0</ele>
   </trkpt>
   <trkpt lat="52.12375" lon="113.13415">
    <ele>910.0</ele>
   </trkpt>
   <trkpt lat="52.123900000000006" lon="113.13311000000002">
    <ele>910.0</ele>
   </trkpt>
   <trkpt lat="52.124" lon="113.13286000000001">
    <ele>910.0</ele>
   </trkpt>
   <trkpt lat="52.124050000000004" lon="113.13267">
    <ele>910.0</ele>
   </trkpt>
   <trkpt lat="52.12413" lon="113.13249">
    <ele>910.0</ele>
   </trkpt>
   <trkpt lat="52.12398" lon="113.13238000000001">
    <ele>910.0</ele>
   </trkpt>
   <trkpt lat="52.12386000000001" lon="113.13238000000001">
    <ele>908.83</ele>
   </trkpt>
   <trkpt lat="52.123650000000005" lon="113.13249">
    <ele>908.83</ele>
   </trkpt>
   <trkpt lat="52.12386000000001" lon="113.13238000000001">
    <ele>910.0</ele>
   </trkpt>
   <trkpt lat="52.12398" lon="113.13238000000001">
    <ele>910.0</ele>
   </trkpt>
   <trkpt lat="52.12413" lon="113.13249">
    <ele>910.0</ele>
   </trkpt>
   <trkpt lat="52.124230000000004" lon="113.13239000000002">
    <ele>910.0</ele>
   </trkpt>
   <trkpt lat="52.124370000000006" lon="113.13229000000001">
    <ele>910.0</ele>
   </trkpt>
   <trkpt lat="52.12454" lon="113.13227">
    <ele>910.0</ele>
   </trkpt>
   <trkpt lat="52.1250050001109" lon="113.13227999989805">
    <ele>910.0</ele>
   </trkpt>
   <trkpt lat="52.12547000000001" lon="113.13229000000001">
    <ele>910.0</ele>
   </trkpt>
   <trkpt lat="52.12632500025898" lon="113.13209000381643">
    <ele>910.0</ele>
   </trkpt>
   <trkpt lat="52.12718" lon="113.13189000000001">
    <ele>910.0</ele>
   </trkpt>
   <trkpt lat="52.127810000000004" lon="113.13189000000001">
    <ele>910.0</ele>
   </trkpt>
   <trkpt lat="52.128040000000006" lon="113.13204">
    <ele>910.0</ele>
   </trkpt>
   <trkpt lat="52.128260000000004" lon="113.13238000000001">
    <ele>946.0</ele>
   </trkpt>
   <trkpt lat="52.128730000000004" lon="113.13261000000001">
    <ele>946.0</ele>
   </trkpt>
   <trkpt lat="52.12904" lon="113.13268000000001">
    <ele>946.0</ele>
   </trkpt>
   <trkpt lat="52.129490000000004" lon="113.13258">
    <ele>946.0</ele>
   </trkpt>
   <trkpt lat="52.12993" lon="113.13230000000001">
    <ele>946.0</ele>
   </trkpt>
   <trkpt lat="52.13047500231585" lon="113.13157000884608">
    <ele>946.0</ele>
   </trkpt>
   <trkpt lat="52.13102000000001" lon="113.13084">
    <ele>946.0</ele>
   </trkpt>
   <trkpt lat="52.13132" lon="113.13024000000001">
    <ele>946.0</ele>
   </trkpt>
   <trkpt lat="52.1319" lon="113.12937000000001">
    <ele>946.0</ele>
   </trkpt>
   <trkpt lat="52.132310000000004" lon="113.12826000000001">
    <ele>946.0</ele>
   </trkpt>
   <trkpt lat="52.13255" lon="113.12793">
    <ele>946.0</ele>
   </trkpt>
   <trkpt lat="52.133010000000006" lon="113.12767000000001">
    <ele>946.0</ele>
   </trkpt>
   <trkpt lat="52.13333" lon="113.12764000000001">
    <ele>946.0</ele>
   </trkpt>
   <trkpt lat="52.13349" lon="113.12753000000001">
    <ele>946.0</ele>
   </trkpt>
   <trkpt lat="52.13396" lon="113.12749000000001">
    <ele>946.0</ele>
   </trkpt>
   <trkpt lat="52.13442500033555" lon="113.12762499866592">
    <ele>946.0</ele>
   </trkpt>
   <trkpt lat="52.134890000000006" lon="113.12776000000001">
    <ele>946.0</ele>
   </trkpt>
   <trkpt lat="52.135650000000005" lon="113.12812000000001">
    <ele>997.0000000000001</ele>
   </trkpt>
   <trkpt lat="52.13595" lon="113.12804000000001">
    <ele>997.0000000000001</ele>
   </trkpt>
   <trkpt lat="52.13656" lon="113.12723000000001">
    <ele>997.0000000000001</ele>
   </trkpt>
   <trkpt lat="52.136845001538134" lon="113.1266200039785">
    <ele>997.0000000000001</ele>
   </trkpt>
   <trkpt lat="52.137130000000006" lon="113.12601000000001">
    <ele>997.0000000000001</ele>
   </trkpt>
   <trkpt lat="52.13747000000001" lon="113.12548000000001">
    <ele>997.0000000000001</ele>
   </trkpt>
   <trkpt lat="52.13788" lon="113.12473000000001">
    <ele>997.0000000000001</ele>
   </trkpt>
   <trkpt lat="52.13817" lon="113.12412">
    <ele>997.0000000000001</ele>
   </trkpt>
   <trkpt lat="52.138465002562405" lon="113.12334500507342">
    <ele>997.0000000000001</ele>
   </trkpt>
   <trkpt lat="52.138760000000005" lon="113.12257000000001">
    <ele>997.0000000000001</ele>
   </trkpt>
   <trkpt lat="52.13909500113855" lon="113.12204000406419">
    <ele>997.0000000000001</ele>
   </trkpt>
   <trkpt lat="52.139430000000004" lon="113.12151000000001">
    <ele>997.0000000000001</ele>
   </trkpt>
   <trkpt lat="52.13973000149036" lon="113.12094000361793">
    <ele>997.0000000000001</ele>
   </trkpt>
   <trkpt lat="52.14003" lon="113.12037000000001">
    <ele>997.0000000000001</ele>
   </trkpt>
   <trkpt lat="52.14032" lon="113.12017000000002">
    <ele>997.0000000000001</ele>
   </trkpt>
   <trkpt lat="52.140550000000005" lon="113.11980000000001">
    <ele>997.0000000000001</ele>
   </trkpt>
   <trkpt lat="52.14085000000001" lon="113.11889000000001">
    <ele>997.0000000000001</ele>
   </trkpt>
   <trkpt lat="52.14105000000001" lon="113.11848">
    <ele>997.0000000000001</ele>
   </trkpt>
   <trkpt lat="52.14159" lon="113.11759">
    <ele>1081.0000000000002</ele>
   </trkpt>
   <trkpt lat="52.14172000000001" lon="113.11713">
    <ele>1081.0000000000002</ele>
   </trkpt>
   <trkpt lat="52.14184" lon="113.11640000000001">
    <ele>1081.0000000000002</ele>
   </trkpt>
   <trkpt lat="52.141920000000006" lon="113.11619">
    <ele>1081.0000000000002</ele>
   </trkpt>
   <trkpt lat="52.142070000000004" lon="113.11611">
    <ele>1081.0000000000002</ele>
   </trkpt>
   <trkpt lat="52.142210000000006" lon="113.11618000000001">
    <ele>1081.0000000000002</ele>
   </trkpt>
   <trkpt lat="52.14291000000001" lon="113.11670000000001">
    <ele>1081.0000000000002</ele>
   </trkpt>
   <trkpt lat="52.143525000041414" lon="113.1167999986189">
    <ele>1081.0000000000002</ele>
   </trkpt>
   <trkpt lat="52.14414000000001" lon="113.11690000000002">
    <ele>1081.0000000000002</ele>
   </trkpt>
   <trkpt lat="52.14459000027317" lon="113.11712499775592">
    <ele>1081.0000000000002</ele>
   </trkpt>
   <trkpt lat="52.14504" lon="113.11735000000002">
    <ele>1081.0000000000002</ele>
   </trkpt>
   <trkpt lat="52.14549" lon="113.11745">
    <ele>1081.0000000000002</ele>
   </trkpt>
   <trkpt lat="52.14575000000001" lon="113.11770000000001">
    <ele>1081.0000000000002</ele>
   </trkpt>
   <trkpt lat="52.146280000000004" lon="113.11861">
    <ele>1081.0000000000002</ele>
   </trkpt>
   <trkpt lat="52.14641" lon="113.11874">
    <ele>1081.0000000000002</ele>
   </trkpt>
   <trkpt lat="52.14656" lon="113.11877000000001">
    <ele>1081.0000000000002</ele>
   </trkpt>
   <trkpt lat="52.146860000000004" lon="113.11863000000001">
    <ele>1081.0000000000002</ele>
   </trkpt>
   <trkpt lat="52.147420000000004" lon="113.11821">
    <ele>1128.0</ele>
   </trkpt>
   <trkpt lat="52.14804" lon="113.11807">
    <ele>1128.0</ele>
   </trkpt>
   <trkpt lat="52.14843500083567" lon="113.11768000326967">
    <ele>1128.0</ele>
   </trkpt>
   <trkpt lat="52.148830000000004" lon="113.11729000000001">
    <ele>1128.0</ele>
   </trkpt>
   <trkpt lat="52.14932" lon="113.11728000000001">
    <ele>1128.0</ele>
   </trkpt>
   <trkpt lat="52.15001500013827" lon="113.11740499806177">
    <ele>1128.0</ele>
   </trkpt>
   <trkpt lat="52.150710000000004" lon="113.11753000000002">
    <ele>1128.0</ele>
   </trkpt>
   <trkpt lat="52.15135" lon="113.11742000000001">
    <ele>1128.0</ele>
   </trkpt>
   <trkpt lat="52.15166000000001" lon="113.11728000000001">
    <ele>1152.9900000000002</ele>
   </trkpt>
   <trkpt lat="52.15243" lon="113.11727">
    <ele>1152.9900000000002</ele>
   </trkpt>
   <trkpt lat="52.15310500021013" lon="113.11700000413308">
    <ele>1152.9900000000002</ele>
   </trkpt>
   <trkpt lat="52.153780000000005" lon="113.11673">
    <ele>1152.9900000000002</ele>
   </trkpt>
   <trkpt lat="52.1543800006385" lon="113.11632500549581">
    <ele>1152.9900000000002</ele>
   </trkpt>
   <trkpt lat="52.15498" lon="113.11592">
    <ele>1152.9900000000002</ele>
   </trkpt>
   <trkpt lat="52.155580002014666" lon="113.11542668000138">
    <ele>1136.7</ele>
   </trkpt>
   <trkpt lat="52.15618000197143" lon="113.11493334670384">
    <ele>1136.7</ele>
   </trkpt>
   <trkpt lat="52.156780000000005" lon="113.11444000000002">
    <ele>1136.7</ele>
   </trkpt>
   <trkpt lat="52.15725500114714" lon="113.11390500578014">
    <ele>1136.7</ele>
   </trkpt>
   <trkpt lat="52.15773" lon="113.11337">
    <ele>1136.7</ele>
   </trkpt>
   <trkpt lat="52.15775000000001" lon="113.11335000000001">
    <ele>1136.66</ele>
   </trkpt>
   <trkpt lat="52.158050007874614" lon="113.11199000891781">
    <ele>1136.66</ele>
   </trkpt>
   <trkpt lat="52.158350000000006" lon="113.11063000000001">
    <ele>1136.66</ele>
   </trkpt>
   <trkpt lat="52.158660000000005" lon="113.10943">
    <ele>1123.99</ele>
   </trkpt>
   <trkpt lat="52.158710000000006" lon="113.10894">
    <ele>1123.99</ele>
   </trkpt>
   <trkpt lat="52.15865" lon="113.10818">
    <ele>1123.99</ele>
   </trkpt>
   <trkpt lat="52.15866000350055" lon="113.10727000024889">
    <ele>1123.99</ele>
   </trkpt>
   <trkpt lat="52.15867" lon="113.10636000000001">
    <ele>1123.99</ele>
   </trkpt>
   <trkpt lat="52.158390000000004" lon="113.10574000000001">
    <ele>1123.99</ele>
   </trkpt>
   <trkpt lat="52.15840000000001" lon="113.1055">
    <ele>1123.99</ele>
   </trkpt>
   <trkpt lat="52.15833000000001" lon="113.10528000000001">
    <ele>1123.99</ele>
   </trkpt>
   <trkpt lat="52.15791" lon="113.10448000000001">
    <ele>1123.99</ele>
   </trkpt>
   <trkpt lat="52.15748500367125" lon="113.10354499101784">
    <ele>1123.99</ele>
   </trkpt>
   <trkpt lat="52.15706" lon="113.10261000000001">
    <ele>1123.99</ele>
   </trkpt>
   <trkpt lat="52.15695" lon="113.10213">
    <ele>1123.99</ele>
   </trkpt>
   <trkpt lat="52.15688" lon="113.10136000000001">
    <ele>1123.99</ele>
   </trkpt>
   <trkpt lat="52.156940000000006" lon="113.10036000000001">
    <ele>1121.0</ele>
   </trkpt>
   <trkpt lat="52.15712000388351" lon="113.09940000395086">
    <ele>1121.0</ele>
   </trkpt>
   <trkpt lat="52.157300000000006" lon="113.09844000000001">
    <ele>1121.0</ele>
   </trkpt>
   <trkpt lat="52.15748000000001" lon="113.09767000000001">
    <ele>1121.0</ele>
   </trkpt>
   <trkpt lat="52.157720000000005" lon="113.09701000000001">
    <ele>1121.0</ele>
   </trkpt>
   <trkpt lat="52.15804000000001" lon="113.09586000000002">
    <ele>1121.0</ele>
   </trkpt>
   <trkpt lat="52.158190000000005" lon="113.09515">
    <ele>1121.0</ele>
   </trkpt>
   <trkpt lat="52.15825500351556" lon="113.09424000112583">
    <ele>1121.0</ele>
   </trkpt>
   <trkpt lat="52.15832" lon="113.09333000000001">
    <ele>1121.0</ele>
   </trkpt>
   <trkpt lat="52.158500000000004" lon="113.0926">
    <ele>1121.0</ele>
   </trkpt>
   <trkpt lat="52.15840500334791" lon="113.09170499772529">
    <ele>1121.0</ele>
   </trkpt>
   <trkpt lat="52.15831000000001" lon="113.09081">
    <ele>1121.0</ele>
   </trkpt>
   <trkpt lat="52.15831000549448" lon="113.0896699998992">
    <ele>1121.0</ele>
   </trkpt>
   <trkpt lat="52.15831000000001" lon="113.08853">
    <ele>1121.0</ele>
   </trkpt>
   <trkpt lat="52.15811000408076" lon="113.08754499546977">
    <ele>1121.0</ele>
   </trkpt>
   <trkpt lat="52.15791" lon="113.08656">
    <ele>1121.0</ele>
   </trkpt>
   <trkpt lat="52.15784000000001" lon="113.08632000000001">
    <ele>1121.0</ele>
   </trkpt>
   <trkpt lat="52.15771" lon="113.08613000000001">
    <ele>1121.0</ele>
   </trkpt>
   <trkpt lat="52.157290001137554" lon="113.0856649958597">
    <ele>1098.0</ele>
   </trkpt>
   <trkpt lat="52.156870000000005" lon="113.08520000000001">
    <ele>1098.0</ele>
   </trkpt>
   <trkpt lat="52.15627500021218" lon="113.0849849971322">
    <ele>1098.0</ele>
   </trkpt>
   <trkpt lat="52.155680000000004" lon="113.08477">
    <ele>1098.0</ele>
   </trkpt>
   <trkpt lat="52.155390000000004" lon="113.08456000000001">
    <ele>1098.0</ele>
   </trkpt>
   <trkpt lat="52.155" lon="113.08406000000001">
    <ele>1098.0</ele>
   </trkpt>
   <trkpt lat="52.15449" lon="113.08385000000001">
    <ele>1098.0</ele>
   </trkpt>
   <trkpt lat="52.154180000000004" lon="113.0836">
    <ele>1098.0</ele>
   </trkpt>
   <trkpt lat="52.15373" lon="113.08284">
    <ele>1098.0</ele>
   </trkpt>
   <trkpt lat="52.15339333933253" lon="113.08199665387411">
    <ele>1098.0</ele>
   </trkpt>
   <trkpt lat="52.15305667265096" lon="113.08115332050365">
    <ele>1098.0</ele>
   </trkpt>
   <trkpt lat="52.15272" lon="113.08031000000001">
    <ele>1098.0</ele>
   </trkpt>
   <trkpt lat="52.15261" lon="113.07978000000001">
    <ele>1098.0</ele>
   </trkpt>
   <trkpt lat="52.15251000000001" lon="113.07851000000001">
    <ele>1098.0</ele>
   </trkpt>
   <trkpt lat="52.152330000000006" lon="113.07724">
    <ele>1098.0</ele>
   </trkpt>
   <trkpt lat="52.15209667858406" lon="113.07605332094359">
    <ele>1077.99</ele>
   </trkpt>
   <trkpt lat="52.15186334526028" lon="113.07486665432579">
    <ele>1077.99</ele>
   </trkpt>
   <trkpt lat="52.151630000000004" lon="113.07368000000001">
    <ele>1077.99</ele>
   </trkpt>
   <trkpt lat="52.151320000000005" lon="113.07243000000001">
    <ele>1077.99</ele>
   </trkpt>
   <trkpt lat="52.15124" lon="113.07138">
    <ele>1077.99</ele>
   </trkpt>
   <trkpt lat="52.151340000000005" lon="113.07090000000001">
    <ele>1077.99</ele>
   </trkpt>
   <trkpt lat="52.15135" lon="113.07038000000001">
    <ele>1077.99</ele>
   </trkpt>
   <trkpt lat="52.15116500680298" lon="113.06910999460956">
    <ele>1077.99</ele>
   </trkpt>
   <trkpt lat="52.150980000000004" lon="113.06784">
    <ele>1077.99</ele>
   </trkpt>
   <trkpt lat="52.150960000000005" lon="113.06708">
    <ele>1077.99</ele>
   </trkpt>
   <trkpt lat="52.15113" lon="113.06611000000001">
    <ele>1077.99</ele>
   </trkpt>
   <trkpt lat="52.151180000000004" lon="113.06508000000001">
    <ele>1077.99</ele>
   </trkpt>
   <trkpt lat="52.151230000000005" lon="113.06485">
    <ele>1077.99</ele>
   </trkpt>
   <trkpt lat="52.151210000000006" lon="113.06382">
    <ele>1077.99</ele>
   </trkpt>
   <trkpt lat="52.15126000000001" lon="113.06328">
    <ele>1077.99</ele>
   </trkpt>
   <trkpt lat="52.15149" lon="113.06235000000001">
    <ele>1077.99</ele>
   </trkpt>
   <trkpt lat="52.15166000000001" lon="113.06136000000001">
    <ele>1074.99</ele>
   </trkpt>
   <trkpt lat="52.1518" lon="113.06007000000001">
    <ele>1074.99</ele>
   </trkpt>
   <trkpt lat="52.15194500241965" lon="113.05931500240926">
    <ele>1074.99</ele>
   </trkpt>
   <trkpt lat="52.15209" lon="113.05856000000001">
    <ele>1074.99</ele>
   </trkpt>
   <trkpt lat="52.15225" lon="113.05723">
    <ele>1074.99</ele>
   </trkpt>
   <trkpt lat="52.15246500219034" lon="113.05652000323406">
    <ele>1074.99</ele>
   </trkpt>
   <trkpt lat="52.152680000000004" lon="113.05581000000001">
    <ele>1074.99</ele>
   </trkpt>
   <trkpt lat="52.152710000000006" lon="113.05532000000001">
    <ele>1074.99</ele>
   </trkpt>
   <trkpt lat="52.15269000000001" lon="113.05480000000001">
    <ele>1074.99</ele>
   </trkpt>
   <trkpt lat="52.152910000000006" lon="113.05350000000001">
    <ele>1074.99</ele>
   </trkpt>
   <trkpt lat="52.153150000000004" lon="113.05253">
    <ele>1074.99</ele>
   </trkpt>
   <trkpt lat="52.153305006981" lon="113.05124500447724">
    <ele>1074.99</ele>
   </trkpt>
   <trkpt lat="52.15346" lon="113.04996000000001">
    <ele>1074.99</ele>
   </trkpt>
   <trkpt lat="52.15363000000001" lon="113.04923000000001">
    <ele>1074.99</ele>
   </trkpt>
   <trkpt lat="52.153960000000005" lon="113.04827">
    <ele>1072.0</ele>
   </trkpt>
   <trkpt lat="52.154" lon="113.04801">
    <ele>1072.0</ele>
   </trkpt>
   <trkpt lat="52.15399000000001" lon="113.04717000000001">
    <ele>1072.0</ele>
   </trkpt>
   <trkpt lat="52.154030000000006" lon="113.04689">
    <ele>1072.0</ele>
   </trkpt>
   <trkpt lat="52.154220002547724" lon="113.0461200031204">
    <ele>1072.0</ele>
   </trkpt>
   <trkpt lat="52.154410000000006" lon="113.04535000000001">
    <ele>1072.0</ele>
   </trkpt>
   <trkpt lat="52.15454500259078" lon="113.04457000225867">
    <ele>1072.0</ele>
   </trkpt>
   <trkpt lat="52.154680000000006" lon="113.04379000000002">
    <ele>1072.0</ele>
   </trkpt>
   <trkpt lat="52.15493000000001" lon="113.04266000000001">
    <ele>1072.0</ele>
   </trkpt>
   <trkpt lat="52.15501000239468" lon="113.04191000119344">
    <ele>1072.0</ele>
   </trkpt>
   <trkpt lat="52.15509" lon="113.04116">
    <ele>1072.0</ele>
   </trkpt>
   <trkpt lat="52.155390000000004" lon="113.03999">
    <ele>1072.0</ele>
   </trkpt>
   <trkpt lat="52.155660000000005" lon="113.03913000000001">
    <ele>1072.0</ele>
   </trkpt>
   <trkpt lat="52.1557000030934" lon="113.0382750007108">
    <ele>1072.0</ele>
   </trkpt>
   <trkpt lat="52.15574" lon="113.03742000000001">
    <ele>1055.96</ele>
   </trkpt>
   <trkpt lat="52.15556" lon="113.03666000000001">
    <ele>1055.96</ele>
   </trkpt>
   <trkpt lat="52.15532" lon="113.03594000000001">
    <ele>1055.96</ele>
   </trkpt>
   <trkpt lat="52.155260000000006" lon="113.03568000000001">
    <ele>1055.96</ele>
   </trkpt>
   <trkpt lat="52.155260000000006" lon="113.03541000000001">
    <ele>1055.96</ele>
   </trkpt>
   <trkpt lat="52.1555" lon="113.03502">
    <ele>1055.96</ele>
   </trkpt>
   <trkpt lat="52.155640000000005" lon="113.03458">
    <ele>1055.96</ele>
   </trkpt>
   <trkpt lat="52.155680000000004" lon="113.03434000000001">
    <ele>1055.96</ele>
   </trkpt>
   <trkpt lat="52.15567000000001" lon="113.03380000000001">
    <ele>1055.96</ele>
   </trkpt>
   <trkpt lat="52.15574" lon="113.03330000000001">
    <ele>1055.96</ele>
   </trkpt>
   <trkpt lat="52.155730000000005" lon="113.03331000000001">
    <ele>1055.97</ele>
   </trkpt>
   <trkpt lat="52.15601" lon="113.03238">
    <ele>1055.97</ele>
   </trkpt>
   <trkpt lat="52.15631000150037" lon="113.03176500434724">
    <ele>1055.97</ele>
   </trkpt>
   <trkpt lat="52.15661000000001" lon="113.03115000000001">
    <ele>1048.9700000000003</ele>
   </trkpt>
   <trkpt lat="52.15723251338589" lon="113.030122543117">
    <ele>1048.9700000000003</ele>
   </trkpt>
   <trkpt lat="52.15785501784511" lon="113.02909505749508">
    <ele>1048.9700000000003</ele>
   </trkpt>
   <trkpt lat="52.1584775133772" lon="113.02806754313313">
    <ele>1048.9700000000003</ele>
   </trkpt>
   <trkpt lat="52.1591" lon="113.02704000000001">
    <ele>1046.9</ele>
   </trkpt>
   <trkpt lat="52.15955000362749" lon="113.02639001306423">
    <ele>1046.9</ele>
   </trkpt>
   <trkpt lat="52.16000000368258" lon="113.02574001298483">
    <ele>1046.9</ele>
   </trkpt>
   <trkpt lat="52.160450000000004" lon="113.02509">
    <ele>1046.9</ele>
   </trkpt>
   <trkpt lat="52.16081500193993" lon="113.024440005057">
    <ele>1046.9</ele>
   </trkpt>
   <trkpt lat="52.16118" lon="113.02379">
    <ele>1045.1000000000001</ele>
   </trkpt>
   <trkpt lat="52.16151000164486" lon="113.02315500482368">
    <ele>1045.1000000000001</ele>
   </trkpt>
   <trkpt lat="52.161840000000005" lon="113.02252000000001">
    <ele>1045.1000000000001</ele>
   </trkpt>
   <trkpt lat="52.16208" lon="113.02223000000001">
    <ele>1045.1000000000001</ele>
   </trkpt>
   <trkpt lat="52.162380000000006" lon="113.02206000000001">
    <ele>1045.1000000000001</ele>
   </trkpt>
   <trkpt lat="52.162670000000006" lon="113.02141">
    <ele>1045.1000000000001</ele>
   </trkpt>
   <trkpt lat="52.16279" lon="113.02126000000001">
    <ele>1045.1000000000001</ele>
   </trkpt>
   <trkpt lat="52.16308" lon="113.02112000000001">
    <ele>1045.1000000000001</ele>
   </trkpt>
   <trkpt lat="52.163180000000004" lon="113.02093">
    <ele>1045.1000000000001</ele>
   </trkpt>
   <trkpt lat="52.16317" lon="113.02040000000001">
    <ele>1045.1000000000001</ele>
   </trkpt>
   <trkpt lat="52.16347000140446" lon="113.01981000410947">
    <ele>1045.1000000000001</ele>
   </trkpt>
   <trkpt lat="52.16377000000001" lon="113.01922">
    <ele>1045.1000000000001</ele>
   </trkpt>
   <trkpt lat="52.16382" lon="113.01897000000001">
    <ele>1045.1000000000001</ele>
   </trkpt>
   <trkpt lat="52.163790000000006" lon="113.01843000000001">
    <ele>1023.0000000000001</ele>
   </trkpt>
   <trkpt lat="52.16362" lon="113.01771000000001">
    <ele>1023.0000000000001</ele>
   </trkpt>
   <trkpt lat="52.163650000000004" lon="113.01745000000001">
    <ele>1023.0000000000001</ele>
   </trkpt>
   <trkpt lat="52.163740000000004" lon="113.01723000000001">
    <ele>1023.0000000000001</ele>
   </trkpt>
   <trkpt lat="52.16389" lon="113.01712">
    <ele>1023.0000000000001</ele>
   </trkpt>
   <trkpt lat="52.16415000000001" lon="113.01613">
    <ele>1023.0000000000001</ele>
   </trkpt>
   <trkpt lat="52.164390000000004" lon="113.01580000000001">
    <ele>1023.0000000000001</ele>
   </trkpt>
   <trkpt lat="52.16473000208046" lon="113.01509500542961">
    <ele>1023.0000000000001</ele>
   </trkpt>
   <trkpt lat="52.16507000000001" lon="113.01439">
    <ele>1023.0000000000001</ele>
   </trkpt>
   <trkpt lat="52.165380001447005" lon="113.01382000383583">
    <ele>1023.0000000000001</ele>
   </trkpt>
   <trkpt lat="52.165690000000005" lon="113.01325000000001">
    <ele>1023.0000000000001</ele>
   </trkpt>
   <trkpt lat="52.166070000000005" lon="113.01280000000001">
    <ele>1023.0000000000001</ele>
   </trkpt>
   <trkpt lat="52.166380000000004" lon="113.01219">
    <ele>1023.0000000000001</ele>
   </trkpt>
   <trkpt lat="52.16669" lon="113.01205000000002">
    <ele>1023.0000000000001</ele>
   </trkpt>
   <trkpt lat="52.167320000000004" lon="113.01129">
    <ele>1023.0000000000001</ele>
   </trkpt>
   <trkpt lat="52.167480000000005" lon="113.01129">
    <ele>1023.0000000000001</ele>
   </trkpt>
   <trkpt lat="52.167950000000005" lon="113.01062">
    <ele>1023.0000000000001</ele>
   </trkpt>
   <trkpt lat="52.168350000000004" lon="113.01024000000001">
    <ele>1023.0000000000001</ele>
   </trkpt>
   <trkpt lat="52.16899" lon="113.00940000000001">
    <ele>1023.0000000000001</ele>
   </trkpt>
   <trkpt lat="52.169395000944235" lon="113.0089400041308">
    <ele>1023.0000000000001</ele>
   </trkpt>
   <trkpt lat="52.1698" lon="113.00848">
    <ele>1012.0</ele>
   </trkpt>
   <trkpt lat="52.17009" lon="113.00831000000001">
    <ele>1012.0</ele>
   </trkpt>
   <trkpt lat="52.17076" lon="113.00753">
    <ele>1012.0</ele>
   </trkpt>
   <trkpt lat="52.17103" lon="113.00732">
    <ele>1012.0</ele>
   </trkpt>
   <trkpt lat="52.171350000000004" lon="113.00727">
    <ele>1012.0</ele>
   </trkpt>
   <trkpt lat="52.171785000393015" lon="113.0069750028674">
    <ele>1012.0</ele>
   </trkpt>
   <trkpt lat="52.17222" lon="113.00668">
    <ele>1012.0</ele>
   </trkpt>
   <trkpt lat="52.17242" lon="113.00629">
    <ele>1012.0</ele>
   </trkpt>
   <trkpt lat="52.172810000000005" lon="113.00590000000001">
    <ele>1012.0</ele>
   </trkpt>
   <trkpt lat="52.173010000000005" lon="113.00550000000001">
    <ele>1012.0</ele>
   </trkpt>
   <trkpt lat="52.17315000000001" lon="113.00539">
    <ele>1012.0</ele>
   </trkpt>
   <trkpt lat="52.17331" lon="113.00540000000001">
    <ele>1012.0</ele>
   </trkpt>
   <trkpt lat="52.17370500075541" lon="113.00499000359402">
    <ele>1012.0</ele>
   </trkpt>
   <trkpt lat="52.1741" lon="113.00458">
    <ele>1012.0</ele>
   </trkpt>
   <trkpt lat="52.174530000000004" lon="113.00422">
    <ele>1012.0</ele>
   </trkpt>
   <trkpt lat="52.17483000000001" lon="113.00414">
    <ele>1012.0</ele>
   </trkpt>
   <trkpt lat="52.17521000000001" lon="113.00367000000001">
    <ele>1012.0</ele>
   </trkpt>
   <trkpt lat="52.17564000057056" lon="113.00336000287824">
    <ele>1012.0</ele>
   </trkpt>
   <trkpt lat="52.17607" lon="113.00305000000002">
    <ele>1012.0</ele>
   </trkpt>
   <trkpt lat="52.176650002776036" lon="113.00248001483621">
    <ele>1012.0</ele>
   </trkpt>
   <trkpt lat="52.17723000280536" lon="113.00191001480765">
    <ele>997.99</ele>
   </trkpt>
   <trkpt lat="52.17781" lon="113.00134000000001">
    <ele>997.99</ele>
   </trkpt>
   <trkpt lat="52.178540000000005" lon="113.00079000000001">
    <ele>997.99</ele>
   </trkpt>
   <trkpt lat="52.17920500153193" lon="113.0001850090597">
    <ele>997.99</ele>
   </trkpt>
   <trkpt lat="52.17987" lon="112.99958000000001">
    <ele>997.99</ele>
   </trkpt>
   <trkpt lat="52.18018000000001" lon="112.99947">
    <ele>997.99</ele>
   </trkpt>
   <trkpt lat="52.180310000000006" lon="112.99934">
    <ele>997.99</ele>
   </trkpt>
   <trkpt lat="52.1805" lon="112.99895000000001">
    <ele>997.99</ele>
   </trkpt>
   <trkpt lat="52.180910000585804" lon="112.99856500358756">
    <ele>997.99</ele>
   </trkpt>
   <trkpt lat="52.18132000000001" lon="112.99818">
    <ele>997.99</ele>
   </trkpt>
   <trkpt lat="52.18157000000001" lon="112.99786">
    <ele>997.99</ele>
   </trkpt>
   <trkpt lat="52.18215000000001" lon="112.99746">
    <ele>997.99</ele>
   </trkpt>
   <trkpt lat="52.182390000000005" lon="112.99708000000001">
    <ele>997.99</ele>
   </trkpt>
   <trkpt lat="52.18262500399201" lon="112.99611500487016">
    <ele>997.99</ele>
   </trkpt>
   <trkpt lat="52.182860000000005" lon="112.99515000000001">
    <ele>997.99</ele>
   </trkpt>
   <trkpt lat="52.18316" lon="112.99454000000001">
    <ele>997.99</ele>
   </trkpt>
   <trkpt lat="52.183690000000006" lon="112.99395000000001">
    <ele>997.99</ele>
   </trkpt>
   <trkpt lat="52.18404" lon="112.99307">
    <ele>992.0000000000001</ele>
   </trkpt>
   <trkpt lat="52.18417" lon="112.99259">
    <ele>992.0000000000001</ele>
   </trkpt>
   <trkpt lat="52.18442" lon="112.99190000000002">
    <ele>992.0000000000001</ele>
   </trkpt>
   <trkpt lat="52.184520000000006" lon="112.99142">
    <ele>992.0000000000001</ele>
   </trkpt>
   <trkpt lat="52.184650000000005" lon="112.99011000000002">
    <ele>992.0000000000001</ele>
   </trkpt>
   <trkpt lat="52.18462" lon="112.98986000000001">
    <ele>992.0000000000001</ele>
   </trkpt>
   <trkpt lat="52.184360000000005" lon="112.98953000000002">
    <ele>992.0000000000001</ele>
   </trkpt>
   <trkpt lat="52.1841" lon="112.98891">
    <ele>992.0000000000001</ele>
   </trkpt>
   <trkpt lat="52.183960000000006" lon="112.98878">
    <ele>992.0000000000001</ele>
   </trkpt>
   <trkpt lat="52.183730001926335" lon="112.98810499651016">
    <ele>992.0000000000001</ele>
   </trkpt>
   <trkpt lat="52.1835" lon="112.98743">
    <ele>992.0000000000001</ele>
   </trkpt>
   <trkpt lat="52.18278" lon="112.98682000000001">
    <ele>992.0000000000001</ele>
   </trkpt>
   <trkpt lat="52.18251000000001" lon="112.9865">
    <ele>992.0000000000001</ele>
   </trkpt>
   <trkpt lat="52.18242000000001" lon="112.98628000000001">
    <ele>992.0000000000001</ele>
   </trkpt>
   <trkpt lat="52.1824" lon="112.98601000000001">
    <ele>992.0000000000001</ele>
   </trkpt>
   <trkpt lat="52.182430000000004" lon="112.98548000000001">
    <ele>992.0000000000001</ele>
   </trkpt>
   <trkpt lat="52.18270000267657" lon="112.98468000494199">
    <ele>992.0000000000001</ele>
   </trkpt>
   <trkpt lat="52.182970000000005" lon="112.98388000000001">
    <ele>992.0000000000001</ele>
   </trkpt>
   <trkpt lat="52.18330500264623" lon="112.98308500604884">
    <ele>992.0000000000001</ele>
   </trkpt>
   <trkpt lat="52.183640000000004" lon="112.98229">
    <ele>992.0000000000001</ele>
   </trkpt>
   <trkpt lat="52.18399251149516" lon="112.9813375226762">
    <ele>983.99</ele>
   </trkpt>
   <trkpt lat="52.18434501532092" lon="112.98038503025157">
    <ele>983.99</ele>
   </trkpt>
   <trkpt lat="52.18469751147702" lon="112.97943252272596">
    <ele>983.99</ele>
   </trkpt>
   <trkpt lat="52.185050000000004" lon="112.97848">
    <ele>983.99</ele>
   </trkpt>
   <trkpt lat="52.18518" lon="112.97775000000001">
    <ele>983.99</ele>
   </trkpt>
   <trkpt lat="52.18554667389816" lon="112.97682334868576">
    <ele>983.99</ele>
   </trkpt>
   <trkpt lat="52.18591334053727" lon="112.97589668208897">
    <ele>983.99</ele>
   </trkpt>
   <trkpt lat="52.186280000000004" lon="112.97497000000001">
    <ele>983.99</ele>
   </trkpt>
   <trkpt lat="52.1866600018863" lon="112.97429500583885">
    <ele>983.99</ele>
   </trkpt>
   <trkpt lat="52.18704" lon="112.97362000000001">
    <ele>983.99</ele>
   </trkpt>
   <trkpt lat="52.18739000000001" lon="112.9731">
    <ele>983.99</ele>
   </trkpt>
   <trkpt lat="52.18798" lon="112.9723">
    <ele>980.99</ele>
   </trkpt>
   <trkpt lat="52.18865" lon="112.97154">
    <ele>980.99</ele>
   </trkpt>
   <trkpt lat="52.18917667316319" lon="112.97066335410318">
    <ele>980.99</ele>
   </trkpt>
   <trkpt lat="52.18970333982981" lon="112.96978668743697">
    <ele>980.99</ele>
   </trkpt>
   <trkpt lat="52.19023000000001" lon="112.96891000000001">
    <ele>980.99</ele>
   </trkpt>
   <trkpt lat="52.19054500249093" lon="112.96813500560839">
    <ele>980.99</ele>
   </trkpt>
   <trkpt lat="52.19086000000001" lon="112.96736000000001">
    <ele>980.99</ele>
   </trkpt>
   <trkpt lat="52.191245005734515" lon="112.96619501009471">
    <ele>980.99</ele>
   </trkpt>
   <trkpt lat="52.19163" lon="112.96503000000001">
    <ele>977.99</ele>
   </trkpt>
   <trkpt lat="52.191900002038786" lon="112.96433000433494">
    <ele>977.99</ele>
   </trkpt>
   <trkpt lat="52.192170000000004" lon="112.96363000000001">
    <ele>977.99</ele>
   </trkpt>
   <trkpt lat="52.192280000000004" lon="112.96313">
    <ele>977.99</ele>
   </trkpt>
   <trkpt lat="52.1923" lon="112.96262000000002">
    <ele>977.99</ele>
   </trkpt>
   <trkpt lat="52.19227000373935" lon="112.96167999951545">
    <ele>977.99</ele>
   </trkpt>
   <trkpt lat="52.192240000000005" lon="112.96074000000002">
    <ele>977.0000000000001</ele>
   </trkpt>
   <trkpt lat="52.19245" lon="112.96073000000001">
    <ele>978.2700000000001</ele>
   </trkpt>
   <trkpt lat="52.192640000000004" lon="112.96052">
    <ele>978.83</ele>
   </trkpt>
   <trkpt lat="52.19286" lon="112.96016000000002">
    <ele>979.37</ele>
   </trkpt>
   <trkpt lat="52.19342" lon="112.95951000000001">
    <ele>980.1700000000001</ele>
   </trkpt>
   <trkpt lat="52.19373" lon="112.95902000000001">
    <ele>979.0000000000001</ele>
   </trkpt>
   <trkpt lat="52.193920000000006" lon="112.95876000000001">
    <ele>978.37</ele>
   </trkpt>
   <trkpt lat="52.19417000000001" lon="112.95848000000001">
    <ele>978.23</ele>
   </trkpt>
   <trkpt lat="52.19449" lon="112.9578">
    <ele>975.3900000000001</ele>
   </trkpt>
   <trkpt lat="52.194950000000006" lon="112.95715000000001">
    <ele>975.5600000000001</ele>
   </trkpt>
   <trkpt lat="52.19539" lon="112.95621000000001">
    <ele>975.9200000000001</ele>
   </trkpt>
   <trkpt lat="52.19549000000001" lon="112.95587">
    <ele>976.0000000000001</ele>
   </trkpt>
   <trkpt lat="52.195640000000004" lon="112.95553000000001">
    <ele>975.38</ele>
   </trkpt>
   <trkpt lat="52.196110000000004" lon="112.95467000000001">
    <ele>973.0000000000001</ele>
   </trkpt>
   <trkpt lat="52.19595" lon="112.95389000000002">
    <ele>973.7900000000001</ele>
   </trkpt>
   <trkpt lat="52.196580000000004" lon="112.95356000000001">
    <ele>973.7900000000001</ele>
   </trkpt>
   <trkpt lat="52.19727000092933" lon="112.95307500757467">
    <ele>971.0000000000001</ele>
   </trkpt>
   <trkpt lat="52.19796" lon="112.95259000000001">
    <ele>971.0000000000001</ele>
   </trkpt>
   <trkpt lat="52.19868" lon="112.95216">
    <ele>971.0000000000001</ele>
   </trkpt>
   <trkpt lat="52.199190000808265" lon="112.95178000421299">
    <ele>971.0000000000001</ele>
   </trkpt>
   <trkpt lat="52.19970000000001" lon="112.9514">
    <ele>973.9900000000001</ele>
   </trkpt>
   <trkpt lat="52.20036" lon="112.95109000000001">
    <ele>973.9900000000001</ele>
   </trkpt>
   <trkpt lat="52.20100500007853" lon="112.95088500300675">
    <ele>973.9900000000001</ele>
   </trkpt>
   <trkpt lat="52.20165" lon="112.95068">
    <ele>973.9900000000001</ele>
   </trkpt>
   <trkpt lat="52.20226666719632" lon="112.95043334017296">
    <ele>973.9900000000001</ele>
   </trkpt>
   <trkpt lat="52.202883333878404" lon="112.95018667350026">
    <ele>973.9900000000001</ele>
   </trkpt>
   <trkpt lat="52.203500000000005" lon="112.94994000000001">
    <ele>973.0600000000001</ele>
   </trkpt>
   <trkpt lat="52.20410000032666" lon="112.94974000264797">
    <ele>973.0600000000001</ele>
   </trkpt>
   <trkpt lat="52.2047" lon="112.94954000000001">
    <ele>973.0600000000001</ele>
   </trkpt>
   <trkpt lat="52.20523000000001" lon="112.94956">
    <ele>973.0600000000001</ele>
   </trkpt>
   <trkpt lat="52.205540000000006" lon="112.94831">
    <ele>972.0000000000001</ele>
   </trkpt>
   <trkpt lat="52.205830000000006" lon="112.9475">
    <ele>971.0000000000001</ele>
   </trkpt>
   <trkpt lat="52.205870000000004" lon="112.94733000000001">
    <ele>971.0000000000001</ele>
   </trkpt>
   <trkpt lat="52.20590000000001" lon="112.94696">
    <ele>971.0000000000001</ele>
   </trkpt>
   <trkpt lat="52.20599000000001" lon="112.94624">
    <ele>970.0000000000001</ele>
   </trkpt>
   <trkpt lat="52.2062" lon="112.94541000000001">
    <ele>969.0000000000001</ele>
   </trkpt>
   <trkpt lat="52.20633" lon="112.94458000000002">
    <ele>969.0000000000001</ele>
   </trkpt>
   <trkpt lat="52.20642" lon="112.94420000000001">
    <ele>968.2</ele>
   </trkpt>
   <trkpt lat="52.206590000000006" lon="112.94385000000001">
    <ele>968.1400000000001</ele>
   </trkpt>
   <trkpt lat="52.206790000000005" lon="112.94309000000001">
    <ele>966.84</ele>
   </trkpt>
   <trkpt lat="52.207040000000006" lon="112.94231">
    <ele>964.4100000000001</ele>
   </trkpt>
   <trkpt lat="52.20713000000001" lon="112.94186">
    <ele>962.9300000000001</ele>
   </trkpt>
   <trkpt lat="52.207040000000006" lon="112.94156000000001">
    <ele>962.07</ele>
   </trkpt>
   <trkpt lat="52.20707" lon="112.94135000000001">
    <ele>970.3900000000001</ele>
   </trkpt>
   <trkpt lat="52.20691000000001" lon="112.94128">
    <ele>970.9900000000001</ele>
   </trkpt>
   <trkpt lat="52.206430000000005" lon="112.94096">
    <ele>969.4</ele>
   </trkpt>
   <trkpt lat="52.20604" lon="112.94046000000002">
    <ele>968.32</ele>
   </trkpt>
   <trkpt lat="52.20590000000001" lon="112.93982000000001">
    <ele>968.8500000000001</ele>
   </trkpt>
   <trkpt lat="52.205870000000004" lon="112.93945000000001">
    <ele>968.8500000000001</ele>
   </trkpt>
   <trkpt lat="52.206" lon="112.93885">
    <ele>968.8500000000001</ele>
   </trkpt>
   <trkpt lat="52.20593" lon="112.93746000000002">
    <ele>968.8500000000001</ele>
   </trkpt>
   <trkpt lat="52.20561500264329" lon="112.93665499404976">
    <ele>968.8500000000001</ele>
   </trkpt>
   <trkpt lat="52.2053" lon="112.93585000000002">
    <ele>969.9700000000001</ele>
   </trkpt>
   <trkpt lat="52.20528" lon="112.93540000000002">
    <ele>969.9700000000001</ele>
   </trkpt>
   <trkpt lat="52.205565005654115" lon="112.93424000757226">
    <ele>969.9700000000001</ele>
   </trkpt>
   <trkpt lat="52.205850000000005" lon="112.93308">
    <ele>969.9700000000001</ele>
   </trkpt>
   <trkpt lat="52.2052466701115" lon="112.93244664952526">
    <ele>969.9700000000001</ele>
   </trkpt>
   <trkpt lat="52.204643336832675" lon="112.93181331624945">
    <ele>969.9700000000001</ele>
   </trkpt>
   <trkpt lat="52.204040000000006" lon="112.93118000000001">
    <ele>969.9700000000001</ele>
   </trkpt>
   <trkpt lat="52.203880000000005" lon="112.93065000000001">
    <ele>969.9700000000001</ele>
   </trkpt>
   <trkpt lat="52.20346000000001" lon="112.93046000000001">
    <ele>969.9700000000001</ele>
   </trkpt>
   <trkpt lat="52.203030000000005" lon="112.93053">
    <ele>969.9700000000001</ele>
   </trkpt>
   <trkpt lat="52.2028" lon="112.9304">
    <ele>963.96</ele>
   </trkpt>
   <trkpt lat="52.202760000000005" lon="112.92991">
    <ele>963.96</ele>
   </trkpt>
   <trkpt lat="52.20275" lon="112.92915">
    <ele>963.96</ele>
   </trkpt>
   <trkpt lat="52.20235" lon="112.92839000000001">
    <ele>963.96</ele>
   </trkpt>
   <trkpt lat="52.20194000000001" lon="112.92803">
    <ele>963.96</ele>
   </trkpt>
   <trkpt lat="52.20154" lon="112.92785">
    <ele>963.96</ele>
   </trkpt>
   <trkpt lat="52.20147000000001" lon="112.92736000000001">
    <ele>963.96</ele>
   </trkpt>
   <trkpt lat="52.20131000000001" lon="112.92687000000001">
    <ele>963.96</ele>
   </trkpt>
   <trkpt lat="52.20103" lon="112.92673">
    <ele>963.96</ele>
   </trkpt>
  </trkseg>
 </trk>
</gpx>
