<?xml version="1.0" encoding="UTF-8"?>
<gpx creator="StravaGPX" version="1.1" xmlns="http://www.topografix.com/GPX/1/1" xmlns:xsi="http://www.w3.org/2001/XMLSchema-instance" xsi:schemaLocation="http://www.topografix.com/GPX/1/1 http://www.topografix.com/GPX/1/1/gpx.xsd">
 <metadata>
  <name>Ежегодная Шакша</name>
  <author>
   <name>Vladimir Sumarokov 🇰🇿🇷🇺🇹🇭</name>
   <link href="https://www.strava.com/athletes/16069938"/>
  </author>
  <copyright author="OpenStreetMap contributors">
   <year>2020</year>
   <license>https://www.openstreetmap.org/copyright</license>
  </copyright>
  <link href="https://www.strava.com/routes/2917122724570806654"/>
 </metadata>
 <trk>
  <name>Ежегодная Шакша</name>
  <link href="https://www.strava.com/routes/2917122724570806654"/>
  <type>walking</type>
  <trkseg>
   <trkpt lat="51.97746000000001" lon="112.97609000000001">
    <ele>841.23</ele>
   </trkpt>
   <trkpt lat="51.97793000000001" lon="112.97563000000001">
    <ele>841.23</ele>
   </trkpt>
   <trkpt lat="51.97842000724804" lon="112.97470668681255">
    <ele>841.23</ele>
   </trkpt>
   <trkpt lat="51.97891000727601" lon="112.97378335342685">
    <ele>841.23</ele>
   </trkpt>
   <trkpt lat="51.979400000000005" lon="112.97286000000001">
    <ele>841.23</ele>
   </trkpt>
   <trkpt lat="51.97982000587912" lon="112.97202668229687">
    <ele>841.23</ele>
   </trkpt>
   <trkpt lat="51.98024000587715" lon="112.97119334896766">
    <ele>860.0000000000001</ele>
   </trkpt>
   <trkpt lat="51.98066000000001" lon="112.97036000000001">
    <ele>860.0000000000001</ele>
   </trkpt>
   <trkpt lat="51.981045003282276" lon="112.96948500742882">
    <ele>860.0000000000001</ele>
   </trkpt>
   <trkpt lat="51.98143" lon="112.96861000000001">
    <ele>860.0000000000001</ele>
   </trkpt>
   <trkpt lat="51.98202503331196" lon="112.96767511178487">
    <ele>860.0000000000001</ele>
   </trkpt>
   <trkpt lat="51.982620059221894" lon="112.96674019873147">
    <ele>860.0000000000001</ele>
   </trkpt>
   <trkpt lat="51.983215077729454" lon="112.96580526083898">
    <ele>860.0000000000001</ele>
   </trkpt>
   <trkpt lat="51.98381008883427" lon="112.96487029810649">
    <ele>860.0000000000001</ele>
   </trkpt>
   <trkpt lat="51.984405092536015" lon="112.96393531053309">
    <ele>860.0000000000001</ele>
   </trkpt>
   <trkpt lat="51.98500008883432" lon="112.96300029811795">
    <ele>860.0000000000001</ele>
   </trkpt>
   <trkpt lat="51.98559507772882" lon="112.96206526086013">
    <ele>860.0000000000001</ele>
   </trkpt>
   <trkpt lat="51.98619005921918" lon="112.96113019875881">
    <ele>883.0000000000001</ele>
   </trkpt>
   <trkpt lat="51.98678503330503" lon="112.96019511181306">
    <ele>883.0000000000001</ele>
   </trkpt>
   <trkpt lat="51.98738" lon="112.95926000000001">
    <ele>883.0000000000001</ele>
   </trkpt>
   <trkpt lat="51.987644024226604" lon="112.95806402820004">
    <ele>883.0000000000001</ele>
   </trkpt>
   <trkpt lat="51.987908036340386" lon="112.95686804229868">
    <ele>883.0000000000001</ele>
   </trkpt>
   <trkpt lat="51.9881720363411" lon="112.95567204229629">
    <ele>883.0000000000001</ele>
   </trkpt>
   <trkpt lat="51.98843602422848" lon="112.95447602819318">
    <ele>883.0000000000001</ele>
   </trkpt>
   <trkpt lat="51.9887" lon="112.95328">
    <ele>883.0000000000001</ele>
   </trkpt>
   <trkpt lat="51.9891983605221" lon="112.95214672973317">
    <ele>883.0000000000001</ele>
   </trkpt>
   <trkpt lat="51.98969671016819" lon="112.95101343424281">
    <ele>883.0000000000001</ele>
   </trkpt>
   <trkpt lat="51.990195048937835" lon="112.94988011352842">
    <ele>883.0000000000001</ele>
   </trkpt>
   <trkpt lat="51.99069337683065" lon="112.94874676758958">
    <ele>906.0</ele>
   </trkpt>
   <trkpt lat="51.99119169384613" lon="112.94761339642581">
    <ele>906.0</ele>
   </trkpt>
   <trkpt lat="51.991690000000006" lon="112.94648000000001">
    <ele>906.0</ele>
   </trkpt>
   <trkpt lat="51.99226001917436" lon="112.9454160541756">
    <ele>906.0</ele>
   </trkpt>
   <trkpt lat="51.99283002876287" lon="112.94435208126252">
    <ele>906.0</ele>
   </trkpt>
   <trkpt lat="51.993400028765095" lon="112.94328808126001">
    <ele>909.3000000000001</ele>
   </trkpt>
   <trkpt lat="51.993970019180566" lon="112.94222405416726">
    <ele>910.48</ele>
   </trkpt>
   <trkpt lat="51.99454000000001" lon="112.94116000000001">
    <ele>912.5900000000001</ele>
   </trkpt>
   <trkpt lat="51.99521572776773" lon="112.9404314945496">
    <ele>915.1100000000001</ele>
   </trkpt>
   <trkpt lat="51.9958914510413" lon="112.93970296710886">
    <ele>917.1400000000001</ele>
   </trkpt>
   <trkpt lat="51.99656716982049" lon="112.93897441767666">
    <ele>918.97</ele>
   </trkpt>
   <trkpt lat="51.99724288410503" lon="112.938245846252">
    <ele>921.1400000000001</ele>
   </trkpt>
   <trkpt lat="51.99791859389466" lon="112.93751725283381">
    <ele>923.6800000000001</ele>
   </trkpt>
   <trkpt lat="51.99859429918916" lon="112.93678863742106">
    <ele>925.32</ele>
   </trkpt>
   <trkpt lat="51.99927" lon="112.93606000000001">
    <ele>927.0</ele>
   </trkpt>
   <trkpt lat="51.999910003068315" lon="112.93520001238005">
    <ele>930.42</ele>
   </trkpt>
   <trkpt lat="52.000550000000004" lon="112.93434">
    <ele>932.27</ele>
   </trkpt>
   <trkpt lat="52.001140004740215" lon="112.93359001979984">
    <ele>934.7800000000001</ele>
   </trkpt>
   <trkpt lat="52.00173000471767" lon="112.93284001982884">
    <ele>937.27</ele>
   </trkpt>
   <trkpt lat="52.002320000000005" lon="112.93209">
    <ele>939.7500000000001</ele>
   </trkpt>
   <trkpt lat="52.0029720084807" lon="112.93138204126173">
    <ele>942.5600000000001</ele>
   </trkpt>
   <trkpt lat="52.00362401271746" lon="112.93067406189769">
    <ele>944.1800000000001</ele>
   </trkpt>
   <trkpt lat="52.00427601271002" lon="112.92996606190691">
    <ele>946.74</ele>
   </trkpt>
   <trkpt lat="52.00492800845825" lon="112.92925804128849">
    <ele>949.69</ele>
   </trkpt>
   <trkpt lat="52.00558" lon="112.92855000000002">
    <ele>952.76</ele>
   </trkpt>
   <trkpt lat="52.00630000430658" lon="112.92784002280698">
    <ele>954.96</ele>
   </trkpt>
   <trkpt lat="52.00702000434512" lon="112.92713002276946">
    <ele>958.1600000000001</ele>
   </trkpt>
   <trkpt lat="52.007740000000005" lon="112.92642000000001">
    <ele>962.4200000000001</ele>
   </trkpt>
   <trkpt lat="52.008560001816896" lon="112.9260425207486">
    <ele>966.13</ele>
   </trkpt>
   <trkpt lat="52.00938000242732" lon="112.92566502766323">
    <ele>968.6000000000001</ele>
   </trkpt>
   <trkpt lat="52.01020000183115" lon="112.92528752074298">
    <ele>970.7500000000001</ele>
   </trkpt>
   <trkpt lat="52.01102" lon="112.92491000000001">
    <ele>973.83</ele>
   </trkpt>
   <trkpt lat="52.01176500074035" lon="112.92466251237501">
    <ele>975.1</ele>
   </trkpt>
   <trkpt lat="52.01251000096208" lon="112.92441501650868">
    <ele>977.3900000000001</ele>
   </trkpt>
   <trkpt lat="52.013255000665204" lon="112.92416751240049">
    <ele>980.8800000000001</ele>
   </trkpt>
   <trkpt lat="52.014" lon="112.92392000000001">
    <ele>982.8700000000001</ele>
   </trkpt>
   <trkpt lat="52.01479250234072" lon="112.92349002285425">
    <ele>986.0000000000001</ele>
   </trkpt>
   <trkpt lat="52.01558500311614" lon="112.92306003047561">
    <ele>987.3900000000001</ele>
   </trkpt>
   <trkpt lat="52.01637750232613" lon="112.92263002286316">
    <ele>989.5400000000001</ele>
   </trkpt>
   <trkpt lat="52.01717000000001" lon="112.9222">
    <ele>992.4100000000001</ele>
   </trkpt>
   <trkpt lat="52.01789833780977" lon="112.92174003744775">
    <ele>994.6600000000001</ele>
   </trkpt>
   <trkpt lat="52.018626673828344" lon="112.92128005991799">
    <ele>997.44</ele>
   </trkpt>
   <trkpt lat="52.019355008055605" lon="112.92082006740992">
    <ele>1001.0600000000001</ele>
   </trkpt>
   <trkpt lat="52.02008334049148" lon="112.92036005992264">
    <ele>1005.2100000000002</ele>
   </trkpt>
   <trkpt lat="52.02081167113584" lon="112.91990003745538">
    <ele>1008.1999999999999</ele>
   </trkpt>
   <trkpt lat="52.02154" lon="112.91944000000001">
    <ele>1010.45</ele>
   </trkpt>
   <trkpt lat="52.02208333729711" lon="112.91876001645875">
    <ele>1014.48</ele>
   </trkpt>
   <trkpt lat="52.02262667067972" lon="112.91808001639734">
    <ele>1018.0</ele>
   </trkpt>
   <trkpt lat="52.02317000000001" lon="112.91740000000001">
    <ele>1018.0</ele>
   </trkpt>
   <trkpt lat="52.02367501058837" lon="112.91648753088195">
    <ele>1018.0</ele>
   </trkpt>
   <trkpt lat="52.02418001412805" lon="112.91557504115815">
    <ele>1018.0</ele>
   </trkpt>
   <trkpt lat="52.024685010618775" lon="112.9146625308281">
    <ele>1018.0</ele>
   </trkpt>
   <trkpt lat="52.02519" lon="112.91375000000001">
    <ele>1018.0</ele>
   </trkpt>
   <trkpt lat="52.025906671309436" lon="112.91328170419105">
    <ele>1066.0</ele>
   </trkpt>
   <trkpt lat="52.02662334076233" lon="112.91281339337317">
    <ele>1066.0</ele>
   </trkpt>
   <trkpt lat="52.02734000835853" lon="112.91234506754554">
    <ele>1066.0</ele>
   </trkpt>
   <trkpt lat="52.02805667409798" lon="112.91187672670736">
    <ele>1066.0</ele>
   </trkpt>
   <trkpt lat="52.02877333798055" lon="112.91140837085779">
    <ele>1066.0</ele>
   </trkpt>
   <trkpt lat="52.02949" lon="112.91094000000001">
    <ele>1066.0</ele>
   </trkpt>
   <trkpt lat="52.030170005412636" lon="112.91028752976192">
    <ele>1066.0</ele>
   </trkpt>
   <trkpt lat="52.03085000722138" lon="112.90963503967896">
    <ele>1066.0</ele>
   </trkpt>
   <trkpt lat="52.031530005426035" lon="112.9089825297502">
    <ele>1066.0</ele>
   </trkpt>
   <trkpt lat="52.032210000000006" lon="112.90833">
    <ele>1066.0</ele>
   </trkpt>
   <trkpt lat="52.03295286346154" lon="112.90783147826912">
    <ele>1066.0</ele>
   </trkpt>
   <trkpt lat="52.03369572481925" lon="112.90733293997245">
    <ele>1133.0600000000002</ele>
   </trkpt>
   <trkpt lat="52.034438584073" lon="112.90683438510905">
    <ele>1133.0600000000002</ele>
   </trkpt>
   <trkpt lat="52.03518144122268" lon="112.90633581367794">
    <ele>1133.0600000000002</ele>
   </trkpt>
   <trkpt lat="52.03592429626817" lon="112.90583722567824">
    <ele>1133.0600000000002</ele>
   </trkpt>
   <trkpt lat="52.03666714920933" lon="112.90533862110894">
    <ele>1133.0600000000002</ele>
   </trkpt>
   <trkpt lat="52.03741" lon="112.90484000000001">
    <ele>1133.0600000000002</ele>
   </trkpt>
   <trkpt lat="52.037695006051585" lon="112.90364000783124">
    <ele>1133.8600000000001</ele>
   </trkpt>
   <trkpt lat="52.037980000000005" lon="112.90244000000001">
    <ele>1133.8600000000001</ele>
   </trkpt>
   <trkpt lat="52.03866667141256" lon="112.90169335624324">
    <ele>1133.8600000000001</ele>
   </trkpt>
   <trkpt lat="52.03935333810617" lon="112.90094668954775">
    <ele>1133.8600000000001</ele>
   </trkpt>
   <trkpt lat="52.040040000000005" lon="112.90020000000001">
    <ele>1133.8600000000001</ele>
   </trkpt>
   <trkpt lat="52.04068000564449" lon="112.8993833567205">
    <ele>1133.8600000000001</ele>
   </trkpt>
   <trkpt lat="52.04132000564383" lon="112.89856669005513">
    <ele>1185.99</ele>
   </trkpt>
   <trkpt lat="52.04196" lon="112.89775000000002">
    <ele>1185.99</ele>
   </trkpt>
   <trkpt lat="52.04234500317312" lon="112.89689000731167">
    <ele>1185.99</ele>
   </trkpt>
   <trkpt lat="52.042730000000006" lon="112.89603000000001">
    <ele>1185.99</ele>
   </trkpt>
   <trkpt lat="52.04335500124274" lon="112.89547500781504">
    <ele>1185.99</ele>
   </trkpt>
   <trkpt lat="52.043980000000005" lon="112.89492000000001">
    <ele>1185.99</ele>
   </trkpt>
   <trkpt lat="52.04476715316802" lon="112.89428292447145">
    <ele>1185.99</ele>
   </trkpt>
   <trkpt lat="52.045554302900605" lon="112.89364582650131">
    <ele>1175.0</ele>
   </trkpt>
   <trkpt lat="52.04634144919756" lon="112.89300870608822">
    <ele>1175.0</ele>
   </trkpt>
   <trkpt lat="52.047128592058684" lon="112.89237156323087">
    <ele>1168.79</ele>
   </trkpt>
   <trkpt lat="52.04791573148374" lon="112.89173439792795">
    <ele>1163.03</ele>
   </trkpt>
   <trkpt lat="52.048702867472485" lon="112.89109721017807">
    <ele>1160.8100000000002</ele>
   </trkpt>
   <trkpt lat="52.049490000000006" lon="112.89046">
    <ele>1154.38</ele>
   </trkpt>
   <trkpt lat="52.050036671858074" lon="112.88967668583635">
    <ele>1149.82</ele>
   </trkpt>
   <trkpt lat="52.050583338522856" lon="112.88889335250606">
    <ele>1146.0100000000002</ele>
   </trkpt>
   <trkpt lat="52.05113000000001" lon="112.88811000000001">
    <ele>1140.65</ele>
   </trkpt>
   <trkpt lat="52.051663341066536" lon="112.88715335619457">
    <ele>1135.5900000000001</ele>
   </trkpt>
   <trkpt lat="52.05219667438727" lon="112.88619668955094">
    <ele>1131.42</ele>
   </trkpt>
   <trkpt lat="52.052730000000004" lon="112.88524000000001">
    <ele>1126.65</ele>
   </trkpt>
   <trkpt lat="52.05318402025176" lon="112.88414604448302">
    <ele>1124.0</ele>
   </trkpt>
   <trkpt lat="52.05363803037473" lon="112.88305206673277">
    <ele>1124.0</ele>
   </trkpt>
   <trkpt lat="52.05409203036854" lon="112.88195806674894">
    <ele>1124.0</ele>
   </trkpt>
   <trkpt lat="52.05454602023278" lon="112.88086404453122">
    <ele>1124.0</ele>
   </trkpt>
   <trkpt lat="52.05500000000001" lon="112.87977000000001">
    <ele>1124.0</ele>
   </trkpt>
   <trkpt lat="52.055490009139085" lon="112.87892252785032">
    <ele>1124.0</ele>
   </trkpt>
   <trkpt lat="52.055980012199576" lon="112.87807503710991">
    <ele>1098.0</ele>
   </trkpt>
   <trkpt lat="52.056470009181275" lon="112.87722752777825">
    <ele>1098.0</ele>
   </trkpt>
   <trkpt lat="52.056960000000004" lon="112.87638000000001">
    <ele>1098.0</ele>
   </trkpt>
   <trkpt lat="52.057706671328354" lon="112.8756333583505">
    <ele>1098.0</ele>
   </trkpt>
   <trkpt lat="52.05845333793855" lon="112.87488669174084">
    <ele>1098.0</ele>
   </trkpt>
   <trkpt lat="52.059200000000004" lon="112.87414000000001">
    <ele>1098.0</ele>
   </trkpt>
   <trkpt lat="52.059700005126594" lon="112.87336335068721">
    <ele>1098.0</ele>
   </trkpt>
   <trkpt lat="52.060200005148275" lon="112.87258668398714">
    <ele>1095.19</ele>
   </trkpt>
   <trkpt lat="52.060700000000004" lon="112.87181000000001">
    <ele>1095.19</ele>
   </trkpt>
   <trkpt lat="52.06071000000001" lon="112.87179">
    <ele>1095.18</ele>
   </trkpt>
   <trkpt lat="52.06116501146522" lon="112.8708400290142">
    <ele>1095.18</ele>
   </trkpt>
   <trkpt lat="52.061620015292974" lon="112.8698900386737">
    <ele>1095.18</ele>
   </trkpt>
   <trkpt lat="52.062075011482975" lon="112.86894002897809">
    <ele>1095.18</ele>
   </trkpt>
   <trkpt lat="52.06253" lon="112.86799">
    <ele>1095.18</ele>
   </trkpt>
   <trkpt lat="52.062851694003605" lon="112.86685337425709">
    <ele>1085.99</ele>
   </trkpt>
   <trkpt lat="52.063173377073824" lon="112.86571673214087">
    <ele>1085.99</ele>
   </trkpt>
   <trkpt lat="52.063495049210395" lon="112.86458007365151">
    <ele>1085.99</ele>
   </trkpt>
   <trkpt lat="52.063816710413036" lon="112.8634433987891">
    <ele>1085.99</ele>
   </trkpt>
   <trkpt lat="52.064138360681454" lon="112.8623067075538">
    <ele>1085.99</ele>
   </trkpt>
   <trkpt lat="52.064460000000004" lon="112.86117000000002">
    <ele>1085.99</ele>
   </trkpt>
   <trkpt lat="52.064842515230126" lon="112.86007502810683">
    <ele>1085.99</ele>
   </trkpt>
   <trkpt lat="52.06522502031371" lon="112.85898003745677">
    <ele>1085.99</ele>
   </trkpt>
   <trkpt lat="52.06560751525041" lon="112.85788502804974">
    <ele>1085.99</ele>
   </trkpt>
   <trkpt lat="52.065990000000006" lon="112.85679">
    <ele>1085.99</ele>
   </trkpt>
   <trkpt lat="52.066460008595854" lon="112.85578335447966">
    <ele>1078.0</ele>
   </trkpt>
   <trkpt lat="52.066930008616154" lon="112.85477668776986">
    <ele>1078.0</ele>
   </trkpt>
   <trkpt lat="52.067400000000006" lon="112.85377000000001">
    <ele>1078.0</ele>
   </trkpt>
   <trkpt lat="52.067625004599584" lon="112.85272500536287">
    <ele>1078.0</ele>
   </trkpt>
   <trkpt lat="52.06785000000001" lon="112.85168000000002">
    <ele>1078.0</ele>
   </trkpt>
   <trkpt lat="52.06803334246733" lon="112.85064000864686">
    <ele>1078.0</ele>
   </trkpt>
   <trkpt lat="52.068216675781805" lon="112.84960000875395">
    <ele>1078.0</ele>
   </trkpt>
   <trkpt lat="52.068400000000004" lon="112.84856">
    <ele>1078.0</ele>
   </trkpt>
   <trkpt lat="52.0689100028783" lon="112.84772500965427">
    <ele>1078.0</ele>
   </trkpt>
   <trkpt lat="52.06942" lon="112.84689000000002">
    <ele>1078.0</ele>
   </trkpt>
   <trkpt lat="52.069923341111405" lon="112.8459333548378">
    <ele>1078.0</ele>
   </trkpt>
   <trkpt lat="52.07042667447825" lon="112.84497668810782">
    <ele>1080.99</ele>
   </trkpt>
   <trkpt lat="52.070930000000004" lon="112.84402000000001">
    <ele>1080.99</ele>
   </trkpt>
   <trkpt lat="52.07129752153023" lon="112.84271753217499">
    <ele>1080.99</ele>
   </trkpt>
   <trkpt lat="52.07166502870484" lon="112.8414150429084">
    <ele>1080.99</ele>
   </trkpt>
   <trkpt lat="52.072032521523425" lon="112.84011253220042">
    <ele>1080.99</ele>
   </trkpt>
   <trkpt lat="52.0724" lon="112.83881000000001">
    <ele>1080.99</ele>
   </trkpt>
   <trkpt lat="52.0727166820952" lon="112.83746001912235">
    <ele>1080.99</ele>
   </trkpt>
   <trkpt lat="52.07303334876855" lon="112.8361100190943">
    <ele>1080.99</ele>
   </trkpt>
   <trkpt lat="52.073350000000005" lon="112.83476">
    <ele>1080.99</ele>
   </trkpt>
   <trkpt lat="52.07354500620229" lon="112.83355000523713">
    <ele>1080.99</ele>
   </trkpt>
   <trkpt lat="52.07374" lon="112.83234000000002">
    <ele>1054.99</ele>
   </trkpt>
   <trkpt lat="52.07382500457743" lon="112.83130000196537">
    <ele>1054.99</ele>
   </trkpt>
   <trkpt lat="52.073910000000005" lon="112.83026000000001">
    <ele>1054.99</ele>
   </trkpt>
   <trkpt lat="52.07412500331803" lon="112.82937500424455">
    <ele>1054.99</ele>
   </trkpt>
   <trkpt lat="52.07434000000001" lon="112.82849">
    <ele>1054.99</ele>
   </trkpt>
   <trkpt lat="52.07468500685334" lon="112.82722000970662">
    <ele>1054.99</ele>
   </trkpt>
   <trkpt lat="52.075030000000005" lon="112.82595">
    <ele>1054.99</ele>
   </trkpt>
   <trkpt lat="52.075380027578255" lon="112.82480837806814">
    <ele>1054.99</ele>
   </trkpt>
   <trkpt lat="52.07573004412803" lon="112.82366673823448">
    <ele>1054.99</ele>
   </trkpt>
   <trkpt lat="52.07608004964899" lon="112.82252508049908">
    <ele>1050.0</ele>
   </trkpt>
   <trkpt lat="52.07643004414082" lon="112.82138340486198">
    <ele>1050.0</ele>
   </trkpt>
   <trkpt lat="52.07678002760322" lon="112.82024171132325">
    <ele>1050.0</ele>
   </trkpt>
   <trkpt lat="52.077130000000004" lon="112.8191">
    <ele>1050.0</ele>
   </trkpt>
   <trkpt lat="52.07742574844386" lon="112.81794004610451">
    <ele>1050.0</ele>
   </trkpt>
   <trkpt lat="52.077721485502394" lon="112.81678007683935">
    <ele>1050.0</ele>
   </trkpt>
   <trkpt lat="52.078017211175386" lon="112.81562009220468">
    <ele>1050.0</ele>
   </trkpt>
   <trkpt lat="52.07831292546252" lon="112.81446009220079">
    <ele>1050.0</ele>
   </trkpt>
   <trkpt lat="52.07860862836355" lon="112.81330007682784">
    <ele>1030.99</ele>
   </trkpt>
   <trkpt lat="52.07890431987819" lon="112.81214004608613">
    <ele>1030.99</ele>
   </trkpt>
   <trkpt lat="52.07920000000001" lon="112.81098000000001">
    <ele>1030.99</ele>
   </trkpt>
   <trkpt lat="52.07962001056823" lon="112.81006752575836">
    <ele>1030.99</ele>
   </trkpt>
   <trkpt lat="52.08004001409114" lon="112.80915503434458">
    <ele>1030.99</ele>
   </trkpt>
   <trkpt lat="52.08046001056856" lon="112.80824252575843">
    <ele>1030.99</ele>
   </trkpt>
   <trkpt lat="52.08088000000001" lon="112.80733000000001">
    <ele>1030.99</ele>
   </trkpt>
   <trkpt lat="52.08138501591024" lon="112.80621003803995">
    <ele>1030.99</ele>
   </trkpt>
   <trkpt lat="52.081890021206966" lon="112.8050900507357">
    <ele>1030.99</ele>
   </trkpt>
   <trkpt lat="52.08239501588976" lon="112.8039700380868">
    <ele>1030.99</ele>
   </trkpt>
   <trkpt lat="52.0829" lon="112.80285">
    <ele>1030.99</ele>
   </trkpt>
   <trkpt lat="52.08346000997762" lon="112.80196253343834">
    <ele>1030.99</ele>
   </trkpt>
   <trkpt lat="52.08402001329103" lon="112.80107504460503">
    <ele>1016.99</ele>
   </trkpt>
   <trkpt lat="52.08458000993993" lon="112.80018753349933">
    <ele>1016.99</ele>
   </trkpt>
   <trkpt lat="52.08514" lon="112.7993">
    <ele>1016.99</ele>
   </trkpt>
   <trkpt lat="52.08567667144697" lon="112.79854668481556">
    <ele>1016.99</ele>
   </trkpt>
   <trkpt lat="52.086213338092286" lon="112.79779335151248">
    <ele>1016.99</ele>
   </trkpt>
   <trkpt lat="52.08675" lon="112.79704000000001">
    <ele>1016.99</ele>
   </trkpt>
   <trkpt lat="52.08728000000001" lon="112.79628000000001">
    <ele>1016.99</ele>
   </trkpt>
   <trkpt lat="52.08772001244242" lon="112.79529002927694">
    <ele>1016.99</ele>
   </trkpt>
   <trkpt lat="52.08816001659261" lon="112.79430003903047">
    <ele>1016.99</ele>
   </trkpt>
   <trkpt lat="52.08860001245028" lon="112.79331002926024">
    <ele>1016.99</ele>
   </trkpt>
   <trkpt lat="52.089040000000004" lon="112.79232">
    <ele>1016.99</ele>
   </trkpt>
   <trkpt lat="52.089570009091624" lon="112.79147253023801">
    <ele>1006.99</ele>
   </trkpt>
   <trkpt lat="52.090100012106525" lon="112.79062504034307">
    <ele>1006.99</ele>
   </trkpt>
   <trkpt lat="52.09063000904444" lon="112.78977753031454">
    <ele>1006.99</ele>
   </trkpt>
   <trkpt lat="52.09116" lon="112.78893000000001">
    <ele>1006.99</ele>
   </trkpt>
   <trkpt lat="52.09171601589977" lon="112.78796004838856">
    <ele>1006.99</ele>
   </trkpt>
   <trkpt lat="52.0922720238395" lon="112.78699007260184">
    <ele>1006.99</ele>
   </trkpt>
   <trkpt lat="52.092828023818875" lon="112.78602007263918">
    <ele>1006.99</ele>
   </trkpt>
   <trkpt lat="52.09338401583755" lon="112.78505004849981">
    <ele>1006.99</ele>
   </trkpt>
   <trkpt lat="52.09394" lon="112.78408">
    <ele>1006.99</ele>
   </trkpt>
   <trkpt lat="52.09442001176315" lon="112.78290002543409">
    <ele>1006.99</ele>
   </trkpt>
   <trkpt lat="52.09490001174623" lon="112.78172002547615">
    <ele>1006.99</ele>
   </trkpt>
   <trkpt lat="52.095380000000006" lon="112.78054000000002">
    <ele>998.0000000000001</ele>
   </trkpt>
   <trkpt lat="52.095723342858456" lon="112.77948001625707">
    <ele>998.0000000000001</ele>
   </trkpt>
   <trkpt lat="52.09606667621102" lon="112.77842001619794">
    <ele>998.0000000000001</ele>
   </trkpt>
   <trkpt lat="52.096410000000006" lon="112.77736000000002">
    <ele>998.0000000000001</ele>
   </trkpt>
   <trkpt lat="52.09671001118223" lon="112.77621001549242">
    <ele>998.0000000000001</ele>
   </trkpt>
   <trkpt lat="52.097010011175925" lon="112.77506001551689">
    <ele>998.0000000000001</ele>
   </trkpt>
   <trkpt lat="52.09731000000001" lon="112.77391000000001">
    <ele>998.0000000000001</ele>
   </trkpt>
   <trkpt lat="52.097660029869395" lon="112.77272171327824">
    <ele>998.0000000000001</ele>
   </trkpt>
   <trkpt lat="52.09801004779263" lon="112.77153340790785">
    <ele>998.0000000000001</ele>
   </trkpt>
   <trkpt lat="52.098360053769326" lon="112.77034508388897">
    <ele>998.0000000000001</ele>
   </trkpt>
   <trkpt lat="52.098710047799166" lon="112.7691567412217">
    <ele>998.0000000000001</ele>
   </trkpt>
   <trkpt lat="52.09906002988184" lon="112.76796837990616">
    <ele>987.0000000000001</ele>
   </trkpt>
   <trkpt lat="52.099410000000006" lon="112.76678000000001">
    <ele>987.0000000000001</ele>
   </trkpt>
   <trkpt lat="52.09972251950991" lon="112.76554002607143">
    <ele>987.0000000000001</ele>
   </trkpt>
   <trkpt lat="52.10003502601202" lon="112.76430003476722">
    <ele>987.0000000000001</ele>
   </trkpt>
   <trkpt lat="52.100347519506045" lon="112.76306002608773">
    <ele>987.0000000000001</ele>
   </trkpt>
   <trkpt lat="52.100660000000005" lon="112.76182000000001">
    <ele>987.0000000000001</ele>
   </trkpt>
   <trkpt lat="52.100975021862645" lon="112.76050752779835">
    <ele>987.0000000000001</ele>
   </trkpt>
   <trkpt lat="52.101290029152146" lon="112.7591950370571">
    <ele>987.0000000000001</ele>
   </trkpt>
   <trkpt lat="52.10160502186813" lon="112.75788252777667">
    <ele>987.0000000000001</ele>
   </trkpt>
   <trkpt lat="52.10192000000001" lon="112.75657000000001">
    <ele>987.0000000000001</ele>
   </trkpt>
   <trkpt lat="52.10231002781394" lon="112.75528804482067">
    <ele>989.98</ele>
   </trkpt>
   <trkpt lat="52.10270004172465" lon="112.75400606721999">
    <ele>989.98</ele>
   </trkpt>
   <trkpt lat="52.10309004173173" lon="112.75272406719809">
    <ele>989.98</ele>
   </trkpt>
   <trkpt lat="52.10348002783472" lon="112.75144204475505">
    <ele>989.98</ele>
   </trkpt>
   <trkpt lat="52.10387000000001" lon="112.75016000000001">
    <ele>989.98</ele>
   </trkpt>
   <trkpt lat="52.104130000000005" lon="112.74912">
    <ele>989.98</ele>
   </trkpt>
   <trkpt lat="52.10448" lon="112.74813">
    <ele>989.98</ele>
   </trkpt>
   <trkpt lat="52.10491500528878" lon="112.74701501079879">
    <ele>989.98</ele>
   </trkpt>
   <trkpt lat="52.10535" lon="112.7459">
    <ele>989.98</ele>
   </trkpt>
   <trkpt lat="52.10561251766594" lon="112.74472002084987">
    <ele>989.98</ele>
   </trkpt>
   <trkpt lat="52.10587502355299" lon="112.74354002780741">
    <ele>989.98</ele>
   </trkpt>
   <trkpt lat="52.106137517660954" lon="112.74236002087302">
    <ele>987.87</ele>
   </trkpt>
   <trkpt lat="52.1064" lon="112.74118000000001">
    <ele>987.87</ele>
   </trkpt>
   <trkpt lat="52.10671001501266" lon="112.74009252266025">
    <ele>987.87</ele>
   </trkpt>
   <trkpt lat="52.1070200200209" lon="112.73900503020006">
    <ele>987.87</ele>
   </trkpt>
   <trkpt lat="52.10733001502448" lon="112.73791752261954">
    <ele>987.87</ele>
   </trkpt>
   <trkpt lat="52.10764" lon="112.73683000000001">
    <ele>987.87</ele>
   </trkpt>
   <trkpt lat="52.10803500394173" lon="112.735870008398">
    <ele>986.13</ele>
   </trkpt>
   <trkpt lat="52.108430000000006" lon="112.73491000000001">
    <ele>986.13</ele>
   </trkpt>
   <trkpt lat="52.108800005335375" lon="112.73379000920389">
    <ele>986.13</ele>
   </trkpt>
   <trkpt lat="52.109170000000006" lon="112.73267000000001">
    <ele>986.13</ele>
   </trkpt>
   <trkpt lat="52.10937000222787" lon="112.73194500323511">
    <ele>986.13</ele>
   </trkpt>
   <trkpt lat="52.109570000000005" lon="112.73122000000001">
    <ele>986.13</ele>
   </trkpt>
   <trkpt lat="52.109705002138746" lon="112.73051500194393">
    <ele>986.13</ele>
   </trkpt>
   <trkpt lat="52.109840000000005" lon="112.72981000000001">
    <ele>986.13</ele>
   </trkpt>
   <trkpt lat="52.10985" lon="112.72921000000001">
    <ele>967.98</ele>
   </trkpt>
   <trkpt lat="52.10980000440749" lon="112.7281899989981">
    <ele>967.98</ele>
   </trkpt>
   <trkpt lat="52.109750000000005" lon="112.72717000000002">
    <ele>967.98</ele>
   </trkpt>
   <trkpt lat="52.11011000226477" lon="112.7264300060804">
    <ele>967.98</ele>
   </trkpt>
   <trkpt lat="52.11047000000001" lon="112.72569000000001">
    <ele>967.98</ele>
   </trkpt>
   <trkpt lat="52.11097000422199" lon="112.72469001122951">
    <ele>967.98</ele>
   </trkpt>
   <trkpt lat="52.111470000000004" lon="112.72369">
    <ele>967.98</ele>
   </trkpt>
   <trkpt lat="52.1118050022456" lon="112.72296500539895">
    <ele>965.0200000000001</ele>
   </trkpt>
   <trkpt lat="52.112140000000004" lon="112.72224000000001">
    <ele>965.0000000000001</ele>
   </trkpt>
   <trkpt lat="52.112140000000004" lon="112.72206000000001">
    <ele>965.0000000000001</ele>
   </trkpt>
   <trkpt lat="52.112140000000004" lon="112.72193000000001">
    <ele>964.0000000000001</ele>
   </trkpt>
   <trkpt lat="52.11245" lon="112.72194">
    <ele>963.52</ele>
   </trkpt>
   <trkpt lat="52.11316000000001" lon="112.72151000000001">
    <ele>964.0000000000001</ele>
   </trkpt>
   <trkpt lat="52.11368" lon="112.72142000000001">
    <ele>963.0000000000001</ele>
   </trkpt>
   <trkpt lat="52.11392000000001" lon="112.72146000000001">
    <ele>962.0000000000001</ele>
   </trkpt>
   <trkpt lat="52.114050000000006" lon="112.72163">
    <ele>962.0000000000001</ele>
   </trkpt>
   <trkpt lat="52.114110000000004" lon="112.72178000000001">
    <ele>962.0000000000001</ele>
   </trkpt>
   <trkpt lat="52.11419000000001" lon="112.72189000000002">
    <ele>962.0000000000001</ele>
   </trkpt>
   <trkpt lat="52.114360000000005" lon="112.72197000000001">
    <ele>961.0</ele>
   </trkpt>
   <trkpt lat="52.11446" lon="112.72199">
    <ele>961.0</ele>
   </trkpt>
   <trkpt lat="52.11455" lon="112.72198000000002">
    <ele>961.0</ele>
   </trkpt>
   <trkpt lat="52.114610000000006" lon="112.72187000000001">
    <ele>960.8700000000001</ele>
   </trkpt>
   <trkpt lat="52.1146" lon="112.72202000000001">
    <ele>960.83</ele>
   </trkpt>
   <trkpt lat="52.114700000000006" lon="112.72216">
    <ele>960.73</ele>
   </trkpt>
   <trkpt lat="52.115050000000004" lon="112.72252">
    <ele>960.3100000000001</ele>
   </trkpt>
   <trkpt lat="52.11538" lon="112.72295000000001">
    <ele>959.98</ele>
   </trkpt>
   <trkpt lat="52.115590000000005" lon="112.72314000000001">
    <ele>959.58</ele>
   </trkpt>
   <trkpt lat="52.115930000000006" lon="112.72352000000001">
    <ele>959.0600000000001</ele>
   </trkpt>
   <trkpt lat="52.11645000000001" lon="112.72398000000001">
    <ele>958.8900000000001</ele>
   </trkpt>
   <trkpt lat="52.11685000000001" lon="112.72438000000001">
    <ele>958.97</ele>
   </trkpt>
   <trkpt lat="52.11717" lon="112.72475000000001">
    <ele>958.98</ele>
   </trkpt>
   <trkpt lat="52.11793" lon="112.72545000000001">
    <ele>959.01</ele>
   </trkpt>
   <trkpt lat="52.11825" lon="112.7258">
    <ele>959.0200000000001</ele>
   </trkpt>
   <trkpt lat="52.11842000000001" lon="112.72594000000001">
    <ele>959.0200000000001</ele>
   </trkpt>
   <trkpt lat="52.11858" lon="112.72613000000001">
    <ele>958.9900000000001</ele>
   </trkpt>
   <trkpt lat="52.119330000000005" lon="112.72684000000001">
    <ele>958.9900000000001</ele>
   </trkpt>
   <trkpt lat="52.1195" lon="112.72704">
    <ele>958.9900000000001</ele>
   </trkpt>
   <trkpt lat="52.119820000000004" lon="112.72736">
    <ele>958.9900000000001</ele>
   </trkpt>
   <trkpt lat="52.12015" lon="112.72765000000001">
    <ele>958.9900000000001</ele>
   </trkpt>
   <trkpt lat="52.12064" lon="112.72816">
    <ele>958.9900000000001</ele>
   </trkpt>
   <trkpt lat="52.12079000000001" lon="112.72836000000001">
    <ele>958.9900000000001</ele>
   </trkpt>
   <trkpt lat="52.121230000000004" lon="112.72887000000001">
    <ele>958.9900000000001</ele>
   </trkpt>
   <trkpt lat="52.121700000000004" lon="112.72951">
    <ele>958.9900000000001</ele>
   </trkpt>
   <trkpt lat="52.12225" lon="112.73031">
    <ele>958.9900000000001</ele>
   </trkpt>
   <trkpt lat="52.122780000000006" lon="112.73098">
    <ele>958.9900000000001</ele>
   </trkpt>
   <trkpt lat="52.123050000000006" lon="112.73142000000001">
    <ele>958.9900000000001</ele>
   </trkpt>
   <trkpt lat="52.12342" lon="112.73194000000001">
    <ele>958.9900000000001</ele>
   </trkpt>
   <trkpt lat="52.12386500229063" lon="112.73265499306711">
    <ele>958.9900000000001</ele>
   </trkpt>
   <trkpt lat="52.12431" lon="112.73337000000001">
    <ele>958.9900000000001</ele>
   </trkpt>
   <trkpt lat="52.12451" lon="112.73366000000001">
    <ele>958.9900000000001</ele>
   </trkpt>
   <trkpt lat="52.12462000000001" lon="112.73378000000001">
    <ele>958.9900000000001</ele>
   </trkpt>
   <trkpt lat="52.124790000000004" lon="112.73392000000001">
    <ele>958.9900000000001</ele>
   </trkpt>
   <trkpt lat="52.125260000000004" lon="112.73426">
    <ele>958.9900000000001</ele>
   </trkpt>
   <trkpt lat="52.12561" lon="112.73457">
    <ele>958.9900000000001</ele>
   </trkpt>
   <trkpt lat="52.125840000000004" lon="112.73481000000001">
    <ele>958.9900000000001</ele>
   </trkpt>
   <trkpt lat="52.12622" lon="112.73529">
    <ele>958.9900000000001</ele>
   </trkpt>
   <trkpt lat="52.12670000000001" lon="112.73582">
    <ele>958.9900000000001</ele>
   </trkpt>
   <trkpt lat="52.12693" lon="112.73610000000001">
    <ele>958.9900000000001</ele>
   </trkpt>
   <trkpt lat="52.127410000000005" lon="112.73659">
    <ele>958.9900000000001</ele>
   </trkpt>
   <trkpt lat="52.12800000000001" lon="112.73727000000001">
    <ele>958.9900000000001</ele>
   </trkpt>
   <trkpt lat="52.12867500206066" lon="112.73797498927695">
    <ele>958.9900000000001</ele>
   </trkpt>
   <trkpt lat="52.12935" lon="112.73868">
    <ele>958.9900000000001</ele>
   </trkpt>
   <trkpt lat="52.129870000000004" lon="112.73917000000002">
    <ele>958.9900000000001</ele>
   </trkpt>
   <trkpt lat="52.13058" lon="112.73989">
    <ele>958.9900000000001</ele>
   </trkpt>
   <trkpt lat="52.131260000000005" lon="112.74078000000002">
    <ele>958.9900000000001</ele>
   </trkpt>
   <trkpt lat="52.13143" lon="112.74105000000002">
    <ele>958.9900000000001</ele>
   </trkpt>
   <trkpt lat="52.131980000000006" lon="112.74174000000001">
    <ele>958.9900000000001</ele>
   </trkpt>
   <trkpt lat="52.132380000000005" lon="112.74233000000001">
    <ele>958.9900000000001</ele>
   </trkpt>
   <trkpt lat="52.132980005026674" lon="112.74310331246272">
    <ele>958.9900000000001</ele>
   </trkpt>
   <trkpt lat="52.13358000499549" lon="112.74387664575549">
    <ele>958.9900000000001</ele>
   </trkpt>
   <trkpt lat="52.13418000000001" lon="112.74465000000001">
    <ele>958.9900000000001</ele>
   </trkpt>
   <trkpt lat="52.134550000000004" lon="112.74519000000001">
    <ele>958.9900000000001</ele>
   </trkpt>
   <trkpt lat="52.135070000000006" lon="112.74611000000002">
    <ele>958.9900000000001</ele>
   </trkpt>
   <trkpt lat="52.135400001971675" lon="112.74679499489959">
    <ele>958.9900000000001</ele>
   </trkpt>
   <trkpt lat="52.13573" lon="112.74748000000001">
    <ele>958.9900000000001</ele>
   </trkpt>
   <trkpt lat="52.136025001486885" lon="112.74806999612258">
    <ele>958.9900000000001</ele>
   </trkpt>
   <trkpt lat="52.136320000000005" lon="112.74866000000002">
    <ele>958.9900000000001</ele>
   </trkpt>
   <trkpt lat="52.13671500313474" lon="112.74951999238975">
    <ele>958.9900000000001</ele>
   </trkpt>
   <trkpt lat="52.13711000000001" lon="112.75038">
    <ele>958.9900000000001</ele>
   </trkpt>
   <trkpt lat="52.137370000000004" lon="112.75090000000002">
    <ele>958.9900000000001</ele>
   </trkpt>
   <trkpt lat="52.13765" lon="112.75132">
    <ele>958.9900000000001</ele>
   </trkpt>
   <trkpt lat="52.138040000000004" lon="112.75176">
    <ele>958.9900000000001</ele>
   </trkpt>
   <trkpt lat="52.13837" lon="112.75224000000001">
    <ele>958.9900000000001</ele>
   </trkpt>
   <trkpt lat="52.138630000000006" lon="112.75254000000001">
    <ele>958.9900000000001</ele>
   </trkpt>
   <trkpt lat="52.138690000000004" lon="112.75266">
    <ele>958.9900000000001</ele>
   </trkpt>
   <trkpt lat="52.13886" lon="112.75288">
    <ele>958.9900000000001</ele>
   </trkpt>
   <trkpt lat="52.139100000000006" lon="112.75324">
    <ele>958.9900000000001</ele>
   </trkpt>
   <trkpt lat="52.13967" lon="112.75392000000001">
    <ele>958.9900000000001</ele>
   </trkpt>
   <trkpt lat="52.140040000000006" lon="112.75443000000001">
    <ele>958.9900000000001</ele>
   </trkpt>
   <trkpt lat="52.140390000000004" lon="112.75484000000002">
    <ele>958.9900000000001</ele>
   </trkpt>
   <trkpt lat="52.14088" lon="112.75559000000001">
    <ele>958.9900000000001</ele>
   </trkpt>
   <trkpt lat="52.141040000000004" lon="112.75595000000001">
    <ele>958.9900000000001</ele>
   </trkpt>
   <trkpt lat="52.14128" lon="112.75641">
    <ele>958.9900000000001</ele>
   </trkpt>
   <trkpt lat="52.141740000000006" lon="112.75706000000001">
    <ele>958.9900000000001</ele>
   </trkpt>
   <trkpt lat="52.14202" lon="112.75739000000002">
    <ele>958.9900000000001</ele>
   </trkpt>
   <trkpt lat="52.14246000000001" lon="112.75773000000001">
    <ele>958.9900000000001</ele>
   </trkpt>
   <trkpt lat="52.143060000000006" lon="112.75810000000001">
    <ele>958.9900000000001</ele>
   </trkpt>
   <trkpt lat="52.14347000000001" lon="112.75844000000001">
    <ele>958.9900000000001</ele>
   </trkpt>
   <trkpt lat="52.143750000000004" lon="112.75863000000001">
    <ele>958.9900000000001</ele>
   </trkpt>
   <trkpt lat="52.14426" lon="112.75902">
    <ele>958.9900000000001</ele>
   </trkpt>
   <trkpt lat="52.14434000000001" lon="112.7591">
    <ele>958.9900000000001</ele>
   </trkpt>
   <trkpt lat="52.144890000000004" lon="112.75947000000001">
    <ele>958.9900000000001</ele>
   </trkpt>
   <trkpt lat="52.14542500059522" lon="112.75985499535186">
    <ele>958.9900000000001</ele>
   </trkpt>
   <trkpt lat="52.14596" lon="112.76024000000001">
    <ele>958.9900000000001</ele>
   </trkpt>
   <trkpt lat="52.146080000000005" lon="112.76030000000002">
    <ele>958.9900000000001</ele>
   </trkpt>
   <trkpt lat="52.146280000000004" lon="112.76045">
    <ele>958.9900000000001</ele>
   </trkpt>
   <trkpt lat="52.14679" lon="112.76076">
    <ele>958.9900000000001</ele>
   </trkpt>
   <trkpt lat="52.147130000000004" lon="112.76101000000001">
    <ele>958.9900000000001</ele>
   </trkpt>
   <trkpt lat="52.147560000000006" lon="112.76136000000001">
    <ele>958.9900000000001</ele>
   </trkpt>
   <trkpt lat="52.14777" lon="112.76150000000001">
    <ele>958.9900000000001</ele>
   </trkpt>
   <trkpt lat="52.14786" lon="112.76161">
    <ele>958.9900000000001</ele>
   </trkpt>
   <trkpt lat="52.148250000000004" lon="112.76188">
    <ele>958.9900000000001</ele>
   </trkpt>
   <trkpt lat="52.14833" lon="112.76197">
    <ele>958.9900000000001</ele>
   </trkpt>
   <trkpt lat="52.148790000000005" lon="112.76230000000001">
    <ele>958.9900000000001</ele>
   </trkpt>
   <trkpt lat="52.149150000000006" lon="112.76253000000001">
    <ele>958.9900000000001</ele>
   </trkpt>
   <trkpt lat="52.1495" lon="112.76279000000001">
    <ele>958.9900000000001</ele>
   </trkpt>
   <trkpt lat="52.150040000000004" lon="112.76314">
    <ele>958.9900000000001</ele>
   </trkpt>
   <trkpt lat="52.15084" lon="112.76372">
    <ele>959.0</ele>
   </trkpt>
   <trkpt lat="52.151" lon="112.76396000000001">
    <ele>959.0</ele>
   </trkpt>
   <trkpt lat="52.15133" lon="112.76421">
    <ele>959.0</ele>
   </trkpt>
   <trkpt lat="52.15198" lon="112.76466">
    <ele>959.0</ele>
   </trkpt>
   <trkpt lat="52.152660000000004" lon="112.76507000000001">
    <ele>959.0</ele>
   </trkpt>
   <trkpt lat="52.1533" lon="112.76555">
    <ele>959.0</ele>
   </trkpt>
   <trkpt lat="52.15359" lon="112.76571000000001">
    <ele>959.0</ele>
   </trkpt>
   <trkpt lat="52.153960000000005" lon="112.76596">
    <ele>959.0</ele>
   </trkpt>
   <trkpt lat="52.15429" lon="112.76623000000001">
    <ele>959.0</ele>
   </trkpt>
   <trkpt lat="52.15475000000001" lon="112.76669000000001">
    <ele>959.0</ele>
   </trkpt>
   <trkpt lat="52.15514" lon="112.76718000000001">
    <ele>959.0</ele>
   </trkpt>
   <trkpt lat="52.1556850013763" lon="112.76774499311018">
    <ele>959.0</ele>
   </trkpt>
   <trkpt lat="52.15623" lon="112.76831000000001">
    <ele>959.0</ele>
   </trkpt>
   <trkpt lat="52.15661000000001" lon="112.76873">
    <ele>959.0</ele>
   </trkpt>
   <trkpt lat="52.15693" lon="112.76901000000001">
    <ele>959.0</ele>
   </trkpt>
   <trkpt lat="52.157180000000004" lon="112.76927">
    <ele>959.0</ele>
   </trkpt>
   <trkpt lat="52.15742" lon="112.76948000000002">
    <ele>959.0</ele>
   </trkpt>
   <trkpt lat="52.15776" lon="112.76989">
    <ele>959.0</ele>
   </trkpt>
   <trkpt lat="52.15809" lon="112.77021">
    <ele>959.0</ele>
   </trkpt>
   <trkpt lat="52.15834" lon="112.77049000000001">
    <ele>959.0</ele>
   </trkpt>
   <trkpt lat="52.15880000000001" lon="112.77114">
    <ele>959.0</ele>
   </trkpt>
   <trkpt lat="52.15914" lon="112.77156000000001">
    <ele>959.0</ele>
   </trkpt>
   <trkpt lat="52.159785001840916" lon="112.77222999023128">
    <ele>959.0</ele>
   </trkpt>
   <trkpt lat="52.160430000000005" lon="112.7729">
    <ele>959.0</ele>
   </trkpt>
   <trkpt lat="52.16114" lon="112.77371000000001">
    <ele>959.0</ele>
   </trkpt>
   <trkpt lat="52.161535001073794" lon="112.77422499536723">
    <ele>959.0</ele>
   </trkpt>
   <trkpt lat="52.161930000000005" lon="112.77474000000001">
    <ele>959.0</ele>
   </trkpt>
   <trkpt lat="52.16233000113609" lon="112.77523999560496">
    <ele>959.0</ele>
   </trkpt>
   <trkpt lat="52.16273" lon="112.77574000000001">
    <ele>959.0</ele>
   </trkpt>
   <trkpt lat="52.163000000000004" lon="112.77612">
    <ele>959.0</ele>
   </trkpt>
   <trkpt lat="52.16351" lon="112.77674">
    <ele>959.0</ele>
   </trkpt>
   <trkpt lat="52.163810000000005" lon="112.77707000000001">
    <ele>959.0</ele>
   </trkpt>
   <trkpt lat="52.16422000000001" lon="112.77745000000002">
    <ele>959.0</ele>
   </trkpt>
   <trkpt lat="52.164370000000005" lon="112.77761000000001">
    <ele>959.0</ele>
   </trkpt>
   <trkpt lat="52.1647" lon="112.77778">
    <ele>959.0</ele>
   </trkpt>
   <trkpt lat="52.164950000000005" lon="112.77796000000001">
    <ele>959.0</ele>
   </trkpt>
   <trkpt lat="52.16546500082327" lon="112.77836999534455">
    <ele>959.0</ele>
   </trkpt>
   <trkpt lat="52.165980000000005" lon="112.77878000000001">
    <ele>959.0</ele>
   </trkpt>
   <trkpt lat="52.16662" lon="112.77940000000001">
    <ele>959.0</ele>
   </trkpt>
   <trkpt lat="52.166810000000005" lon="112.77955000000001">
    <ele>959.0</ele>
   </trkpt>
   <trkpt lat="52.167120000000004" lon="112.77989000000001">
    <ele>959.0</ele>
   </trkpt>
   <trkpt lat="52.167300000000004" lon="112.78003000000001">
    <ele>959.0</ele>
   </trkpt>
   <trkpt lat="52.16772" lon="112.78045000000002">
    <ele>959.0</ele>
   </trkpt>
   <trkpt lat="52.16811500072124" lon="112.78086999624539">
    <ele>959.0</ele>
   </trkpt>
   <trkpt lat="52.168510000000005" lon="112.78129000000001">
    <ele>959.0</ele>
   </trkpt>
   <trkpt lat="52.168730000000004" lon="112.78150000000001">
    <ele>959.0</ele>
   </trkpt>
   <trkpt lat="52.16919000000001" lon="112.78187000000001">
    <ele>959.0</ele>
   </trkpt>
   <trkpt lat="52.169380000000004" lon="112.78206000000002">
    <ele>959.0</ele>
   </trkpt>
   <trkpt lat="52.16953" lon="112.78218000000001">
    <ele>959.0</ele>
   </trkpt>
   <trkpt lat="52.16991500091942" lon="112.78262499624438">
    <ele>959.0</ele>
   </trkpt>
   <trkpt lat="52.170300000000005" lon="112.78307000000001">
    <ele>959.0</ele>
   </trkpt>
   <trkpt lat="52.17063" lon="112.78352000000001">
    <ele>959.0</ele>
   </trkpt>
   <trkpt lat="52.17074" lon="112.78363">
    <ele>959.0</ele>
   </trkpt>
   <trkpt lat="52.17118000000001" lon="112.78416000000001">
    <ele>959.0</ele>
   </trkpt>
   <trkpt lat="52.171580000000006" lon="112.78474000000001">
    <ele>959.0</ele>
   </trkpt>
   <trkpt lat="52.17202" lon="112.78532000000001">
    <ele>959.0</ele>
   </trkpt>
   <trkpt lat="52.172250000000005" lon="112.78572000000001">
    <ele>959.0</ele>
   </trkpt>
   <trkpt lat="52.172430000000006" lon="112.78613000000001">
    <ele>959.0</ele>
   </trkpt>
   <trkpt lat="52.17253" lon="112.78626000000001">
    <ele>959.0</ele>
   </trkpt>
   <trkpt lat="52.17262" lon="112.78632">
    <ele>959.0</ele>
   </trkpt>
   <trkpt lat="52.17284" lon="112.78615">
    <ele>959.0</ele>
   </trkpt>
   <trkpt lat="52.173190000000005" lon="112.78594000000001">
    <ele>959.0</ele>
   </trkpt>
   <trkpt lat="52.17347" lon="112.78584000000001">
    <ele>959.0</ele>
   </trkpt>
   <trkpt lat="52.17369000000001" lon="112.78580000000001">
    <ele>959.0</ele>
   </trkpt>
   <trkpt lat="52.173970000000004" lon="112.78580000000001">
    <ele>959.0</ele>
   </trkpt>
   <trkpt lat="52.174490000000006" lon="112.78576000000001">
    <ele>959.0</ele>
   </trkpt>
   <trkpt lat="52.17479" lon="112.78578">
    <ele>959.0</ele>
   </trkpt>
   <trkpt lat="52.17517" lon="112.78578">
    <ele>959.0</ele>
   </trkpt>
   <trkpt lat="52.17549" lon="112.78583">
    <ele>959.0</ele>
   </trkpt>
   <trkpt lat="52.175720000000005" lon="112.78591000000002">
    <ele>959.0</ele>
   </trkpt>
   <trkpt lat="52.17609" lon="112.78611000000001">
    <ele>959.0</ele>
   </trkpt>
   <trkpt lat="52.17618" lon="112.78613000000001">
    <ele>959.0</ele>
   </trkpt>
   <trkpt lat="52.17642000000001" lon="112.78612000000001">
    <ele>959.0</ele>
   </trkpt>
   <trkpt lat="52.176640000000006" lon="112.78608000000001">
    <ele>959.0</ele>
   </trkpt>
   <trkpt lat="52.17685" lon="112.7861">
    <ele>959.0</ele>
   </trkpt>
   <trkpt lat="52.17705" lon="112.78609000000002">
    <ele>959.0</ele>
   </trkpt>
   <trkpt lat="52.177640000000004" lon="112.78626000000001">
    <ele>959.0</ele>
   </trkpt>
   <trkpt lat="52.17786" lon="112.78628">
    <ele>959.0</ele>
   </trkpt>
   <trkpt lat="52.17837" lon="112.78629000000001">
    <ele>959.0</ele>
   </trkpt>
   <trkpt lat="52.17864" lon="112.78627000000002">
    <ele>959.0</ele>
   </trkpt>
   <trkpt lat="52.17898" lon="112.78628">
    <ele>959.0</ele>
   </trkpt>
   <trkpt lat="52.179300000000005" lon="112.78634000000001">
    <ele>959.0</ele>
   </trkpt>
   <trkpt lat="52.17942000000001" lon="112.78634000000001">
    <ele>959.0</ele>
   </trkpt>
   <trkpt lat="52.179640000000006" lon="112.78630000000001">
    <ele>959.0</ele>
   </trkpt>
   <trkpt lat="52.17994" lon="112.78636000000002">
    <ele>959.0</ele>
   </trkpt>
   <trkpt lat="52.180040000000005" lon="112.78636000000002">
    <ele>959.0</ele>
   </trkpt>
   <trkpt lat="52.180525000050736" lon="112.78629000075907">
    <ele>959.0</ele>
   </trkpt>
   <trkpt lat="52.18101000000001" lon="112.78622000000001">
    <ele>959.0</ele>
   </trkpt>
   <trkpt lat="52.18141000000001" lon="112.78614">
    <ele>959.0</ele>
   </trkpt>
   <trkpt lat="52.18188000000001" lon="112.78612000000001">
    <ele>959.0</ele>
   </trkpt>
   <trkpt lat="52.182010000000005" lon="112.78608000000001">
    <ele>959.0</ele>
   </trkpt>
   <trkpt lat="52.18211" lon="112.78609000000002">
    <ele>959.0</ele>
   </trkpt>
   <trkpt lat="52.18269" lon="112.78603000000001">
    <ele>959.0</ele>
   </trkpt>
   <trkpt lat="52.18339" lon="112.78613000000001">
    <ele>959.0</ele>
   </trkpt>
   <trkpt lat="52.183580000000006" lon="112.78618000000002">
    <ele>959.0</ele>
   </trkpt>
   <trkpt lat="52.18385000000001" lon="112.78621000000001">
    <ele>959.0</ele>
   </trkpt>
   <trkpt lat="52.184360000000005" lon="112.78633">
    <ele>959.0</ele>
   </trkpt>
   <trkpt lat="52.184810000000006" lon="112.78639000000001">
    <ele>959.0</ele>
   </trkpt>
   <trkpt lat="52.18556" lon="112.78655">
    <ele>959.0</ele>
   </trkpt>
   <trkpt lat="52.185660000000006" lon="112.78654">
    <ele>958.96</ele>
   </trkpt>
   <trkpt lat="52.185750000000006" lon="112.78648000000001">
    <ele>958.96</ele>
   </trkpt>
   <trkpt lat="52.18601" lon="112.78652000000001">
    <ele>958.96</ele>
   </trkpt>
   <trkpt lat="52.186220000000006" lon="112.78658000000001">
    <ele>958.97</ele>
   </trkpt>
   <trkpt lat="52.186420000000005" lon="112.78658000000001">
    <ele>959.07</ele>
   </trkpt>
   <trkpt lat="52.18675" lon="112.78652000000001">
    <ele>959.1100000000001</ele>
   </trkpt>
   <trkpt lat="52.18726" lon="112.78635000000001">
    <ele>958.9200000000001</ele>
   </trkpt>
   <trkpt lat="52.18766" lon="112.78627000000002">
    <ele>958.9200000000001</ele>
   </trkpt>
   <trkpt lat="52.18820500003727" lon="112.78608500230412">
    <ele>959.35</ele>
   </trkpt>
   <trkpt lat="52.188750000000006" lon="112.78590000000001">
    <ele>960.1100000000001</ele>
   </trkpt>
   <trkpt lat="52.18889000000001" lon="112.78583">
    <ele>960.37</ele>
   </trkpt>
   <trkpt lat="52.1893" lon="112.78571000000001">
    <ele>960.58</ele>
   </trkpt>
   <trkpt lat="52.189400000000006" lon="112.7857">
    <ele>960.57</ele>
   </trkpt>
   <trkpt lat="52.18948" lon="112.78566000000001">
    <ele>960.57</ele>
   </trkpt>
  </trkseg>
 </trk>
</gpx>
