<?xml version="1.0" encoding="UTF-8"?>
<gpx creator="https://gpx.studio" version="1.1" xmlns="http://www.topografix.com/GPX/1/1" xmlns:xsi="http://www.w3.org/2001/XMLSchema-instance" xsi:schemaLocation="http://www.topografix.com/GPX/1/1 http://www.topografix.com/GPX/1/1/gpx.xsd http://www.garmin.com/xmlschemas/GpxExtensions/v3 http://www.garmin.com/xmlschemas/GpxExtensionsv3.xsd http://www.garmin.com/xmlschemas/TrackPointExtension/v1 http://www.garmin.com/xmlschemas/TrackPointExtensionv1.xsd http://www.garmin.com/xmlschemas/PowerExtension/v1 http://www.garmin.com/xmlschemas/PowerExtensionv1.xsd http://www.topografix.com/GPX/gpx_style/0/2 http://www.topografix.com/GPX/gpx_style/0/2/gpx_style.xsd" xmlns:gpxtpx="http://www.garmin.com/xmlschemas/TrackPointExtension/v1" xmlns:gpxx="http://www.garmin.com/xmlschemas/GpxExtensions/v3" xmlns:gpxpx="http://www.garmin.com/xmlschemas/PowerExtension/v1" xmlns:gpx_style="http://www.topografix.com/GPX/gpx_style/0/2">
  <metadata>
    <name>Пик Фурманова</name>
    <author>
      <name>gpx.studio</name>
      <link href="https://gpx.studio"/>
    </author>
  </metadata>
  <wpt lat="43.155532" lon="77.114084">
    <ele>2781.872497958692</ele>
    <name>Поляна энтузиастов. </name>
  </wpt>
  <trk>
    <name>Пик Фурманова</name>
    <trkseg>
      <trkpt lat="43.165449" lon="77.072502">
        <ele>1843.75</ele>
      </trkpt>
      <trkpt lat="43.165438" lon="77.07253">
        <ele>1844.5</ele>
      </trkpt>
      <trkpt lat="43.165134" lon="77.072826">
        <ele>1854.5</ele>
      </trkpt>
      <trkpt lat="43.165012" lon="77.072998">
        <ele>1859.25</ele>
      </trkpt>
      <trkpt lat="43.164834" lon="77.073184">
        <ele>1864.5</ele>
      </trkpt>
      <trkpt lat="43.164806" lon="77.073194">
        <ele>1865</ele>
      </trkpt>
      <trkpt lat="43.164407" lon="77.073338">
        <ele>1867.75</ele>
      </trkpt>
      <trkpt lat="43.164119" lon="77.073363">
        <ele>1869.25</ele>
      </trkpt>
      <trkpt lat="43.164039" lon="77.073279">
        <ele>1870.75</ele>
      </trkpt>
      <trkpt lat="43.164031" lon="77.073146">
        <ele>1872.5</ele>
      </trkpt>
      <trkpt lat="43.16394" lon="77.073045">
        <ele>1876</ele>
      </trkpt>
      <trkpt lat="43.163837" lon="77.07302">
        <ele>1879</ele>
      </trkpt>
      <trkpt lat="43.163658" lon="77.073132">
        <ele>1881</ele>
      </trkpt>
      <trkpt lat="43.163447" lon="77.073373">
        <ele>1880.25</ele>
      </trkpt>
      <trkpt lat="43.163222" lon="77.073655">
        <ele>1887.5</ele>
      </trkpt>
      <trkpt lat="43.163103" lon="77.073958">
        <ele>1891.75</ele>
      </trkpt>
      <trkpt lat="43.163013" lon="77.074334">
        <ele>1895</ele>
      </trkpt>
      <trkpt lat="43.162907" lon="77.075495">
        <ele>1905.75</ele>
      </trkpt>
      <trkpt lat="43.162756" lon="77.076563">
        <ele>1915.75</ele>
      </trkpt>
      <trkpt lat="43.16276" lon="77.076593">
        <ele>1915.75</ele>
      </trkpt>
      <trkpt lat="43.162781" lon="77.076681">
        <ele>1916.25</ele>
      </trkpt>
      <trkpt lat="43.162831" lon="77.07686">
        <ele>1918.5</ele>
      </trkpt>
      <trkpt lat="43.162843" lon="77.076932">
        <ele>1919.25</ele>
      </trkpt>
      <trkpt lat="43.162843" lon="77.077016">
        <ele>1920.5</ele>
      </trkpt>
      <trkpt lat="43.162836" lon="77.077077">
        <ele>1921.25</ele>
      </trkpt>
      <trkpt lat="43.162789" lon="77.077206">
        <ele>1922.75</ele>
      </trkpt>
      <trkpt lat="43.161657" lon="77.078925">
        <ele>1951.25</ele>
      </trkpt>
      <trkpt lat="43.16133" lon="77.079392">
        <ele>1966</ele>
      </trkpt>
      <trkpt lat="43.161093" lon="77.079702">
        <ele>1974.25</ele>
      </trkpt>
      <trkpt lat="43.160731" lon="77.080036">
        <ele>1979</ele>
      </trkpt>
      <trkpt lat="43.160203" lon="77.080484">
        <ele>1994</ele>
      </trkpt>
      <trkpt lat="43.159877" lon="77.080992">
        <ele>2005.5</ele>
      </trkpt>
      <trkpt lat="43.159833" lon="77.081062">
        <ele>2007.25</ele>
      </trkpt>
      <trkpt lat="43.159592" lon="77.081348">
        <ele>2016.5</ele>
      </trkpt>
      <trkpt lat="43.159395" lon="77.081631">
        <ele>2020</ele>
      </trkpt>
      <trkpt lat="43.15919" lon="77.082238">
        <ele>2030.75</ele>
      </trkpt>
      <trkpt lat="43.158998" lon="77.082926">
        <ele>2050.75</ele>
      </trkpt>
      <trkpt lat="43.158921" lon="77.083301">
        <ele>2060</ele>
      </trkpt>
      <trkpt lat="43.158875" lon="77.083829">
        <ele>2071.5</ele>
      </trkpt>
      <trkpt lat="43.158897" lon="77.084346">
        <ele>2081</ele>
      </trkpt>
      <trkpt lat="43.158849" lon="77.084685">
        <ele>2086.5</ele>
      </trkpt>
      <trkpt lat="43.158849" lon="77.08489">
        <ele>2089.75</ele>
      </trkpt>
      <trkpt lat="43.158892" lon="77.085028">
        <ele>2092.25</ele>
      </trkpt>
      <trkpt lat="43.159159" lon="77.085518">
        <ele>2102</ele>
      </trkpt>
      <trkpt lat="43.159358" lon="77.085848">
        <ele>2113.5</ele>
      </trkpt>
      <trkpt lat="43.159423" lon="77.085967">
        <ele>2117.5</ele>
      </trkpt>
      <trkpt lat="43.159635" lon="77.086145">
        <ele>2123</ele>
      </trkpt>
      <trkpt lat="43.159767" lon="77.086309">
        <ele>2124.25</ele>
      </trkpt>
      <trkpt lat="43.160029" lon="77.086506">
        <ele>2123.25</ele>
      </trkpt>
      <trkpt lat="43.160157" lon="77.086699">
        <ele>2125.75</ele>
      </trkpt>
      <trkpt lat="43.160458" lon="77.087111">
        <ele>2133.25</ele>
      </trkpt>
      <trkpt lat="43.160635" lon="77.087431">
        <ele>2133.5</ele>
      </trkpt>
      <trkpt lat="43.160868" lon="77.08766">
        <ele>2137.5</ele>
      </trkpt>
      <trkpt lat="43.16102" lon="77.087892">
        <ele>2144</ele>
      </trkpt>
      <trkpt lat="43.161092" lon="77.088065">
        <ele>2147</ele>
      </trkpt>
      <trkpt lat="43.161081" lon="77.088548">
        <ele>2149.25</ele>
      </trkpt>
      <trkpt lat="43.161052" lon="77.089276">
        <ele>2158.75</ele>
      </trkpt>
      <trkpt lat="43.161" lon="77.089907">
        <ele>2166.25</ele>
      </trkpt>
      <trkpt lat="43.160987" lon="77.090074">
        <ele>2168.25</ele>
      </trkpt>
      <trkpt lat="43.161265" lon="77.090524">
        <ele>2185</ele>
      </trkpt>
      <trkpt lat="43.161336" lon="77.090532">
        <ele>2188</ele>
      </trkpt>
      <trkpt lat="43.161701" lon="77.089519">
        <ele>2186</ele>
      </trkpt>
      <trkpt lat="43.161724" lon="77.0894">
        <ele>2185</ele>
      </trkpt>
      <trkpt lat="43.161724" lon="77.0894">
        <ele>2185</ele>
      </trkpt>
      <trkpt lat="43.161826" lon="77.088893">
        <ele>2181.25</ele>
      </trkpt>
      <trkpt lat="43.16193" lon="77.088647">
        <ele>2181.5</ele>
      </trkpt>
      <trkpt lat="43.162023" lon="77.088424">
        <ele>2181.75</ele>
      </trkpt>
      <trkpt lat="43.162068" lon="77.088096">
        <ele>2181.25</ele>
      </trkpt>
      <trkpt lat="43.162079" lon="77.087781">
        <ele>2180.75</ele>
      </trkpt>
      <trkpt lat="43.162116" lon="77.087654">
        <ele>2181</ele>
      </trkpt>
      <trkpt lat="43.162137" lon="77.087586">
        <ele>2181</ele>
      </trkpt>
      <trkpt lat="43.162278" lon="77.088018">
        <ele>2185.75</ele>
      </trkpt>
      <trkpt lat="43.162281" lon="77.088084">
        <ele>2186.25</ele>
      </trkpt>
      <trkpt lat="43.162291" lon="77.088343">
        <ele>2188.25</ele>
      </trkpt>
      <trkpt lat="43.162289" lon="77.088545">
        <ele>2190.25</ele>
      </trkpt>
      <trkpt lat="43.16232" lon="77.088745">
        <ele>2193.25</ele>
      </trkpt>
      <trkpt lat="43.162321" lon="77.089091">
        <ele>2197</ele>
      </trkpt>
      <trkpt lat="43.162352" lon="77.089235">
        <ele>2200.25</ele>
      </trkpt>
      <trkpt lat="43.162348" lon="77.089276">
        <ele>2200.75</ele>
      </trkpt>
      <trkpt lat="43.162317" lon="77.089641">
        <ele>2207.25</ele>
      </trkpt>
      <trkpt lat="43.162332" lon="77.089938">
        <ele>2213.75</ele>
      </trkpt>
      <trkpt lat="43.162434" lon="77.090176">
        <ele>2221.5</ele>
      </trkpt>
      <trkpt lat="43.162476" lon="77.090368">
        <ele>2226.25</ele>
      </trkpt>
      <trkpt lat="43.162463" lon="77.090667">
        <ele>2230.75</ele>
      </trkpt>
      <trkpt lat="43.162405" lon="77.090975">
        <ele>2234.25</ele>
      </trkpt>
      <trkpt lat="43.162316" lon="77.091377">
        <ele>2238.5</ele>
      </trkpt>
      <trkpt lat="43.16232" lon="77.091531">
        <ele>2241.5</ele>
      </trkpt>
      <trkpt lat="43.162343" lon="77.09162">
        <ele>2244</ele>
      </trkpt>
      <trkpt lat="43.162382" lon="77.09188">
        <ele>2250.5</ele>
      </trkpt>
      <trkpt lat="43.162388" lon="77.092129">
        <ele>2255.75</ele>
      </trkpt>
      <trkpt lat="43.162372" lon="77.092375">
        <ele>2259.75</ele>
      </trkpt>
      <trkpt lat="43.162462" lon="77.092587">
        <ele>2268.25</ele>
      </trkpt>
      <trkpt lat="43.162414" lon="77.092725">
        <ele>2269.25</ele>
      </trkpt>
      <trkpt lat="43.162333" lon="77.092967">
        <ele>2271.25</ele>
      </trkpt>
      <trkpt lat="43.162298" lon="77.093051">
        <ele>2271.75</ele>
      </trkpt>
      <trkpt lat="43.162401" lon="77.093038">
        <ele>2275.75</ele>
      </trkpt>
      <trkpt lat="43.162494" lon="77.09307">
        <ele>2280.5</ele>
      </trkpt>
      <trkpt lat="43.162451" lon="77.09337">
        <ele>2285.5</ele>
      </trkpt>
      <trkpt lat="43.162454" lon="77.093403">
        <ele>2286.5</ele>
      </trkpt>
      <trkpt lat="43.162535" lon="77.093415">
        <ele>2289</ele>
      </trkpt>
      <trkpt lat="43.162603" lon="77.093441">
        <ele>2290.5</ele>
      </trkpt>
      <trkpt lat="43.162626" lon="77.093508">
        <ele>2292.25</ele>
      </trkpt>
      <trkpt lat="43.162614" lon="77.093553">
        <ele>2293</ele>
      </trkpt>
      <trkpt lat="43.162546" lon="77.093813">
        <ele>2297.75</ele>
      </trkpt>
      <trkpt lat="43.162622" lon="77.093947">
        <ele>2302</ele>
      </trkpt>
      <trkpt lat="43.162625" lon="77.094329">
        <ele>2310.5</ele>
      </trkpt>
      <trkpt lat="43.162689" lon="77.094521">
        <ele>2315.75</ele>
      </trkpt>
      <trkpt lat="43.162691" lon="77.094553">
        <ele>2316.25</ele>
      </trkpt>
      <trkpt lat="43.162722" lon="77.094633">
        <ele>2318.5</ele>
      </trkpt>
      <trkpt lat="43.162705" lon="77.094829">
        <ele>2322.5</ele>
      </trkpt>
      <trkpt lat="43.162729" lon="77.095033">
        <ele>2327.25</ele>
      </trkpt>
      <trkpt lat="43.162746" lon="77.095289">
        <ele>2333.25</ele>
      </trkpt>
      <trkpt lat="43.162728" lon="77.095824">
        <ele>2345.75</ele>
      </trkpt>
      <trkpt lat="43.162724" lon="77.095954">
        <ele>2348.75</ele>
      </trkpt>
      <trkpt lat="43.162751" lon="77.096117">
        <ele>2352.5</ele>
      </trkpt>
      <trkpt lat="43.1628" lon="77.096287">
        <ele>2356.25</ele>
      </trkpt>
      <trkpt lat="43.162813" lon="77.096542">
        <ele>2362</ele>
      </trkpt>
      <trkpt lat="43.162789" lon="77.096728">
        <ele>2366.5</ele>
      </trkpt>
      <trkpt lat="43.16272" lon="77.096914">
        <ele>2372</ele>
      </trkpt>
      <trkpt lat="43.162577" lon="77.097304">
        <ele>2384.25</ele>
      </trkpt>
      <trkpt lat="43.162168" lon="77.097788">
        <ele>2393</ele>
      </trkpt>
      <trkpt lat="43.161989" lon="77.098327">
        <ele>2404.5</ele>
      </trkpt>
      <trkpt lat="43.161764" lon="77.09878">
        <ele>2415.5</ele>
      </trkpt>
      <trkpt lat="43.161657" lon="77.099556">
        <ele>2435</ele>
      </trkpt>
      <trkpt lat="43.161595" lon="77.100009">
        <ele>2445.75</ele>
      </trkpt>
      <trkpt lat="43.161413" lon="77.10061">
        <ele>2458.75</ele>
      </trkpt>
      <trkpt lat="43.16119" lon="77.101009">
        <ele>2472.25</ele>
      </trkpt>
      <trkpt lat="43.161101" lon="77.101167">
        <ele>2477.75</ele>
      </trkpt>
      <trkpt lat="43.160604" lon="77.101461">
        <ele>2491.25</ele>
      </trkpt>
      <trkpt lat="43.160401" lon="77.101872">
        <ele>2503.5</ele>
      </trkpt>
      <trkpt lat="43.160167" lon="77.102287">
        <ele>2514.5</ele>
      </trkpt>
      <trkpt lat="43.159968" lon="77.102868">
        <ele>2521.25</ele>
      </trkpt>
      <trkpt lat="43.159935" lon="77.102904">
        <ele>2520.75</ele>
      </trkpt>
      <trkpt lat="43.159775" lon="77.103043">
        <ele>2519.75</ele>
      </trkpt>
      <trkpt lat="43.159682" lon="77.10323">
        <ele>2521.5</ele>
      </trkpt>
      <trkpt lat="43.159579" lon="77.10349">
        <ele>2523.25</ele>
      </trkpt>
      <trkpt lat="43.159401" lon="77.103739">
        <ele>2527.25</ele>
      </trkpt>
      <trkpt lat="43.159192" lon="77.104316">
        <ele>2541.75</ele>
      </trkpt>
      <trkpt lat="43.158813" lon="77.104926">
        <ele>2549.25</ele>
      </trkpt>
      <trkpt lat="43.158634" lon="77.105461">
        <ele>2561.25</ele>
      </trkpt>
      <trkpt lat="43.158421" lon="77.105804">
        <ele>2577</ele>
      </trkpt>
      <trkpt lat="43.158217" lon="77.106443">
        <ele>2594.5</ele>
      </trkpt>
      <trkpt lat="43.158065" lon="77.106811">
        <ele>2603</ele>
      </trkpt>
      <trkpt lat="43.158042" lon="77.106974">
        <ele>2606.25</ele>
      </trkpt>
      <trkpt lat="43.15803" lon="77.10716">
        <ele>2609.75</ele>
      </trkpt>
      <trkpt lat="43.158044" lon="77.107324">
        <ele>2612</ele>
      </trkpt>
      <trkpt lat="43.158009" lon="77.107416">
        <ele>2615</ele>
      </trkpt>
      <trkpt lat="43.157781" lon="77.107568">
        <ele>2627.25</ele>
      </trkpt>
      <trkpt lat="43.157512" lon="77.107906">
        <ele>2643.25</ele>
      </trkpt>
      <trkpt lat="43.157248" lon="77.108351">
        <ele>2652.5</ele>
      </trkpt>
      <trkpt lat="43.157172" lon="77.108685">
        <ele>2655.5</ele>
      </trkpt>
      <trkpt lat="43.157104" lon="77.108815">
        <ele>2658.5</ele>
      </trkpt>
      <trkpt lat="43.156951" lon="77.108878">
        <ele>2665.5</ele>
      </trkpt>
      <trkpt lat="43.156874" lon="77.109049">
        <ele>2671.75</ele>
      </trkpt>
      <trkpt lat="43.156525" lon="77.109554">
        <ele>2682.75</ele>
      </trkpt>
      <trkpt lat="43.156193" lon="77.110252">
        <ele>2691.75</ele>
      </trkpt>
      <trkpt lat="43.155934" lon="77.111079">
        <ele>2703.25</ele>
      </trkpt>
      <trkpt lat="43.155606" lon="77.111913">
        <ele>2720.5</ele>
      </trkpt>
      <trkpt lat="43.155534" lon="77.112056">
        <ele>2724.25</ele>
      </trkpt>
      <trkpt lat="43.155454" lon="77.112076">
        <ele>2726.75</ele>
      </trkpt>
      <trkpt lat="43.155345" lon="77.112161">
        <ele>2730.75</ele>
      </trkpt>
      <trkpt lat="43.155341" lon="77.112227">
        <ele>2731.5</ele>
      </trkpt>
      <trkpt lat="43.155398" lon="77.112437">
        <ele>2732.25</ele>
      </trkpt>
      <trkpt lat="43.155375" lon="77.112718">
        <ele>2738.75</ele>
      </trkpt>
      <trkpt lat="43.155416" lon="77.112942">
        <ele>2743</ele>
      </trkpt>
      <trkpt lat="43.15542" lon="77.113081">
        <ele>2746.25</ele>
      </trkpt>
      <trkpt lat="43.155481" lon="77.113192">
        <ele>2747.25</ele>
      </trkpt>
      <trkpt lat="43.155484" lon="77.113281">
        <ele>2749.25</ele>
      </trkpt>
      <trkpt lat="43.155461" lon="77.113375">
        <ele>2752</ele>
      </trkpt>
      <trkpt lat="43.155449" lon="77.113499">
        <ele>2755.25</ele>
      </trkpt>
      <trkpt lat="43.155398" lon="77.113604">
        <ele>2759</ele>
      </trkpt>
      <trkpt lat="43.155392" lon="77.113659">
        <ele>2760.25</ele>
      </trkpt>
      <trkpt lat="43.155433" lon="77.113891">
        <ele>2764.25</ele>
      </trkpt>
      <trkpt lat="43.155471" lon="77.114104">
        <ele>2767.75</ele>
      </trkpt>
      <trkpt lat="43.155386" lon="77.114218">
        <ele>2771.25</ele>
      </trkpt>
      <trkpt lat="43.1553" lon="77.114316">
        <ele>2773</ele>
      </trkpt>
      <trkpt lat="43.155274" lon="77.114478">
        <ele>2772.25</ele>
      </trkpt>
      <trkpt lat="43.155128" lon="77.114504">
        <ele>2778</ele>
      </trkpt>
      <trkpt lat="43.155109" lon="77.114614">
        <ele>2778</ele>
      </trkpt>
      <trkpt lat="43.154973" lon="77.114645">
        <ele>2783.75</ele>
      </trkpt>
      <trkpt lat="43.154899" lon="77.114728">
        <ele>2786.25</ele>
      </trkpt>
      <trkpt lat="43.154847" lon="77.114687">
        <ele>2788.25</ele>
      </trkpt>
      <trkpt lat="43.154778" lon="77.11472">
        <ele>2790.75</ele>
      </trkpt>
      <trkpt lat="43.15474" lon="77.114817">
        <ele>2792</ele>
      </trkpt>
      <trkpt lat="43.154677" lon="77.114822">
        <ele>2794.25</ele>
      </trkpt>
      <trkpt lat="43.154444" lon="77.11465">
        <ele>2803.5</ele>
      </trkpt>
      <trkpt lat="43.154369" lon="77.114563">
        <ele>2806.75</ele>
      </trkpt>
      <trkpt lat="43.154286" lon="77.114556">
        <ele>2810</ele>
      </trkpt>
      <trkpt lat="43.154225" lon="77.114528">
        <ele>2812.5</ele>
      </trkpt>
      <trkpt lat="43.154126" lon="77.114541">
        <ele>2816.25</ele>
      </trkpt>
      <trkpt lat="43.154052" lon="77.1145">
        <ele>2819</ele>
      </trkpt>
      <trkpt lat="43.153943" lon="77.114497">
        <ele>2823</ele>
      </trkpt>
      <trkpt lat="43.153885" lon="77.114539">
        <ele>2825.25</ele>
      </trkpt>
      <trkpt lat="43.153785" lon="77.114463">
        <ele>2829</ele>
      </trkpt>
      <trkpt lat="43.153702" lon="77.114464">
        <ele>2832</ele>
      </trkpt>
      <trkpt lat="43.153644" lon="77.114429">
        <ele>2834</ele>
      </trkpt>
      <trkpt lat="43.153613" lon="77.114427">
        <ele>2835.25</ele>
      </trkpt>
      <trkpt lat="43.153597" lon="77.114459">
        <ele>2835.75</ele>
      </trkpt>
      <trkpt lat="43.153596" lon="77.1145">
        <ele>2835.75</ele>
      </trkpt>
      <trkpt lat="43.15356" lon="77.114551">
        <ele>2837.25</ele>
      </trkpt>
      <trkpt lat="43.153524" lon="77.114544">
        <ele>2838.5</ele>
      </trkpt>
      <trkpt lat="43.153487" lon="77.11449">
        <ele>2839.75</ele>
      </trkpt>
      <trkpt lat="43.153421" lon="77.11449">
        <ele>2842.25</ele>
      </trkpt>
      <trkpt lat="43.153343" lon="77.114547">
        <ele>2845.25</ele>
      </trkpt>
      <trkpt lat="43.153165" lon="77.114578">
        <ele>2855</ele>
      </trkpt>
      <trkpt lat="43.153049" lon="77.114548">
        <ele>2861</ele>
      </trkpt>
      <trkpt lat="43.152974" lon="77.114574">
        <ele>2865.5</ele>
      </trkpt>
      <trkpt lat="43.152875" lon="77.11468">
        <ele>2872.25</ele>
      </trkpt>
      <trkpt lat="43.15276" lon="77.114743">
        <ele>2879.75</ele>
      </trkpt>
      <trkpt lat="43.152679" lon="77.114897">
        <ele>2887</ele>
      </trkpt>
      <trkpt lat="43.152654" lon="77.115015">
        <ele>2890</ele>
      </trkpt>
      <trkpt lat="43.152596" lon="77.115068">
        <ele>2892.25</ele>
      </trkpt>
      <trkpt lat="43.152557" lon="77.115054">
        <ele>2895.25</ele>
      </trkpt>
      <trkpt lat="43.152536" lon="77.11501">
        <ele>2897.5</ele>
      </trkpt>
      <trkpt lat="43.152535" lon="77.11487">
        <ele>2895.25</ele>
      </trkpt>
      <trkpt lat="43.152466" lon="77.114911">
        <ele>2899.75</ele>
      </trkpt>
      <trkpt lat="43.152424" lon="77.11491">
        <ele>2901.75</ele>
      </trkpt>
      <trkpt lat="43.152189" lon="77.114972">
        <ele>2914.75</ele>
      </trkpt>
      <trkpt lat="43.152115" lon="77.115001">
        <ele>2918.75</ele>
      </trkpt>
      <trkpt lat="43.151958" lon="77.11493">
        <ele>2925.5</ele>
      </trkpt>
      <trkpt lat="43.15187" lon="77.114781">
        <ele>2927.5</ele>
      </trkpt>
      <trkpt lat="43.151825" lon="77.114768">
        <ele>2929.75</ele>
      </trkpt>
      <trkpt lat="43.151429" lon="77.114926">
        <ele>2954.75</ele>
      </trkpt>
      <trkpt lat="43.151312" lon="77.114972">
        <ele>2963</ele>
      </trkpt>
      <trkpt lat="43.151224" lon="77.114995">
        <ele>2969</ele>
      </trkpt>
      <trkpt lat="43.151068" lon="77.115151">
        <ele>2977</ele>
      </trkpt>
      <trkpt lat="43.150933" lon="77.115268">
        <ele>2984.25</ele>
      </trkpt>
      <trkpt lat="43.150785" lon="77.115282">
        <ele>2992.5</ele>
      </trkpt>
      <trkpt lat="43.150765" lon="77.115115">
        <ele>2995</ele>
      </trkpt>
      <trkpt lat="43.15056" lon="77.114992">
        <ele>3003</ele>
      </trkpt>
      <trkpt lat="43.15041" lon="77.11504">
        <ele>3008.5</ele>
      </trkpt>
      <trkpt lat="43.150383" lon="77.115023">
        <ele>3009.5</ele>
      </trkpt>
      <trkpt lat="43.150361" lon="77.115027">
        <ele>3010.25</ele>
      </trkpt>
      <trkpt lat="43.15032" lon="77.11512">
        <ele>3012</ele>
      </trkpt>
      <trkpt lat="43.150238" lon="77.11519">
        <ele>3015.5</ele>
      </trkpt>
      <trkpt lat="43.150173" lon="77.115277">
        <ele>3018.75</ele>
      </trkpt>
      <trkpt lat="43.150098" lon="77.115299">
        <ele>3022.25</ele>
      </trkpt>
      <trkpt lat="43.150042" lon="77.115351">
        <ele>3025.25</ele>
      </trkpt>
      <trkpt lat="43.150028" lon="77.1154">
        <ele>3026.5</ele>
      </trkpt>
      <trkpt lat="43.150039" lon="77.115477">
        <ele>3026.75</ele>
      </trkpt>
      <trkpt lat="43.149974" lon="77.115512">
        <ele>3029</ele>
      </trkpt>
      <trkpt lat="43.14994" lon="77.115553">
        <ele>3029.25</ele>
      </trkpt>
      <trkpt lat="43.149904" lon="77.115646">
        <ele>3030.75</ele>
      </trkpt>
    </trkseg>
  </trk>
</gpx>
