<?xml version="1.0" encoding="UTF-8"?>
<gpx creator="StravaGPX" version="1.1" xmlns="http://www.topografix.com/GPX/1/1" xmlns:xsi="http://www.w3.org/2001/XMLSchema-instance" xsi:schemaLocation="http://www.topografix.com/GPX/1/1 http://www.topografix.com/GPX/1/1/gpx.xsd">
 <metadata>
  <name>Kaskabas</name>
  <author>
   <name>Vladimir Sumarokov 🇰🇿🇷🇺🇹🇭</name>
   <link href="https://www.strava.com/athletes/16069938"/>
  </author>
  <copyright author="OpenStreetMap contributors">
   <year>2020</year>
   <license>https://www.openstreetmap.org/copyright</license>
  </copyright>
  <link href="https://www.strava.com/routes/3272641335210363046"/>
 </metadata>
 <trk>
  <name>Kaskabas</name>
  <link href="https://www.strava.com/routes/3272641335210363046"/>
  <type>hiking</type>
  <trkseg>
   <trkpt lat="43.104890000000005" lon="76.90715">
    <ele>1521.1100000000001</ele>
   </trkpt>
   <trkpt lat="43.104780000000005" lon="76.90695000000001">
    <ele>1524.0800000000002</ele>
   </trkpt>
   <trkpt lat="43.104560000000006" lon="76.90639">
    <ele>1528.6200000000001</ele>
   </trkpt>
   <trkpt lat="43.1045" lon="76.90596000000001">
    <ele>1534.04</ele>
   </trkpt>
   <trkpt lat="43.10439" lon="76.90573">
    <ele>1536.3600000000001</ele>
   </trkpt>
   <trkpt lat="43.104350000000004" lon="76.90559">
    <ele>1537.49</ele>
   </trkpt>
   <trkpt lat="43.104330000000004" lon="76.90452">
    <ele>1547.8600000000001</ele>
   </trkpt>
   <trkpt lat="43.10409000000001" lon="76.90366">
    <ele>1555.0000000000002</ele>
   </trkpt>
   <trkpt lat="43.103970000000004" lon="76.90306000000001">
    <ele>1564.51</ele>
   </trkpt>
   <trkpt lat="43.10398000000001" lon="76.90288000000001">
    <ele>1566.71</ele>
   </trkpt>
   <trkpt lat="43.104040000000005" lon="76.90266000000001">
    <ele>1571.53</ele>
   </trkpt>
   <trkpt lat="43.104040000000005" lon="76.90242">
    <ele>1576.96</ele>
   </trkpt>
   <trkpt lat="43.10399" lon="76.90225000000001">
    <ele>1580.3700000000001</ele>
   </trkpt>
   <trkpt lat="43.10383" lon="76.90205">
    <ele>1584.0400000000002</ele>
   </trkpt>
   <trkpt lat="43.10371000000001" lon="76.90196">
    <ele>1585.0900000000001</ele>
   </trkpt>
   <trkpt lat="43.10362000000001" lon="76.90182">
    <ele>1586.78</ele>
   </trkpt>
   <trkpt lat="43.103280000000005" lon="76.90151">
    <ele>1590.8200000000002</ele>
   </trkpt>
   <trkpt lat="43.10311" lon="76.90147">
    <ele>1593.3100000000002</ele>
   </trkpt>
   <trkpt lat="43.10289" lon="76.90117000000001">
    <ele>1600.23</ele>
   </trkpt>
   <trkpt lat="43.10267" lon="76.90075">
    <ele>1608.88</ele>
   </trkpt>
   <trkpt lat="43.102380000000004" lon="76.90005000000001">
    <ele>1614.94</ele>
   </trkpt>
   <trkpt lat="43.1021" lon="76.89953000000001">
    <ele>1620.3500000000001</ele>
   </trkpt>
   <trkpt lat="43.10208" lon="76.89915">
    <ele>1625.8500000000001</ele>
   </trkpt>
   <trkpt lat="43.10197" lon="76.89854000000001">
    <ele>1634.6200000000001</ele>
   </trkpt>
   <trkpt lat="43.101850000000006" lon="76.89826000000001">
    <ele>1639.9800000000002</ele>
   </trkpt>
   <trkpt lat="43.10164000124423" lon="76.8977049978404">
    <ele>1649.48</ele>
   </trkpt>
   <trkpt lat="43.10143" lon="76.89715000000001">
    <ele>1663.43</ele>
   </trkpt>
   <trkpt lat="43.101330000000004" lon="76.89681">
    <ele>1668.94</ele>
   </trkpt>
   <trkpt lat="43.10103500104355" lon="76.89631499757597">
    <ele>1677.37</ele>
   </trkpt>
   <trkpt lat="43.10074" lon="76.89582">
    <ele>1684.44</ele>
   </trkpt>
   <trkpt lat="43.100460000000005" lon="76.89551">
    <ele>1690.39</ele>
   </trkpt>
   <trkpt lat="43.10009" lon="76.8952">
    <ele>1699.41</ele>
   </trkpt>
   <trkpt lat="43.09998" lon="76.89499">
    <ele>1703.0800000000002</ele>
   </trkpt>
   <trkpt lat="43.099630000000005" lon="76.89445">
    <ele>1713.78</ele>
   </trkpt>
   <trkpt lat="43.09930000000001" lon="76.89399">
    <ele>1723.0</ele>
   </trkpt>
   <trkpt lat="43.09908" lon="76.89374000000001">
    <ele>1726.47</ele>
   </trkpt>
   <trkpt lat="43.09902" lon="76.89361000000001">
    <ele>1727.5200000000002</ele>
   </trkpt>
   <trkpt lat="43.098760000000006" lon="76.89354">
    <ele>1732.7500000000002</ele>
   </trkpt>
   <trkpt lat="43.098040000000005" lon="76.89285000000001">
    <ele>1757.5500000000002</ele>
   </trkpt>
   <trkpt lat="43.09772" lon="76.89269">
    <ele>1763.77</ele>
   </trkpt>
   <trkpt lat="43.097440000000006" lon="76.89250000000001">
    <ele>1767.65</ele>
   </trkpt>
   <trkpt lat="43.09722" lon="76.89226000000001">
    <ele>1771.88</ele>
   </trkpt>
   <trkpt lat="43.097030000000004" lon="76.89208">
    <ele>1777.27</ele>
   </trkpt>
   <trkpt lat="43.096430000000005" lon="76.89142000000001">
    <ele>1793.13</ele>
   </trkpt>
   <trkpt lat="43.09624" lon="76.89141000000001">
    <ele>1796.75</ele>
   </trkpt>
   <trkpt lat="43.09593" lon="76.89103">
    <ele>1806.8000000000002</ele>
   </trkpt>
   <trkpt lat="43.095510000000004" lon="76.89031">
    <ele>1825.83</ele>
   </trkpt>
   <trkpt lat="43.09532" lon="76.89007000000001">
    <ele>1831.47</ele>
   </trkpt>
   <trkpt lat="43.09505" lon="76.88985000000001">
    <ele>1837.41</ele>
   </trkpt>
   <trkpt lat="43.09479" lon="76.88976000000001">
    <ele>1845.0300000000002</ele>
   </trkpt>
   <trkpt lat="43.094375000279975" lon="76.88950499827004">
    <ele>1857.5800000000002</ele>
   </trkpt>
   <trkpt lat="43.09396" lon="76.88925">
    <ele>1866.78</ele>
   </trkpt>
   <trkpt lat="43.093740000000004" lon="76.88893">
    <ele>1872.72</ele>
   </trkpt>
   <trkpt lat="43.09373" lon="76.88864000000001">
    <ele>1878.9</ele>
   </trkpt>
   <trkpt lat="43.093590000000006" lon="76.88820000000001">
    <ele>1890.69</ele>
   </trkpt>
   <trkpt lat="43.09335" lon="76.88777">
    <ele>1904.5500000000002</ele>
   </trkpt>
   <trkpt lat="43.093300000000006" lon="76.88751">
    <ele>1911.7100000000003</ele>
   </trkpt>
   <trkpt lat="43.09315" lon="76.88736">
    <ele>1914.8</ele>
   </trkpt>
   <trkpt lat="43.09304" lon="76.88716000000001">
    <ele>1920.6200000000001</ele>
   </trkpt>
   <trkpt lat="43.09288" lon="76.88704000000001">
    <ele>1925.1200000000001</ele>
   </trkpt>
   <trkpt lat="43.09266" lon="76.88701">
    <ele>1929.4400000000003</ele>
   </trkpt>
   <trkpt lat="43.09248" lon="76.88693">
    <ele>1934.0000000000002</ele>
   </trkpt>
   <trkpt lat="43.092330000000004" lon="76.88676000000001">
    <ele>1939.8600000000001</ele>
   </trkpt>
   <trkpt lat="43.092220000000005" lon="76.88679">
    <ele>1941.9400000000003</ele>
   </trkpt>
   <trkpt lat="43.09217" lon="76.88677000000001">
    <ele>1941.9400000000003</ele>
   </trkpt>
   <trkpt lat="43.09207000000001" lon="76.88664">
    <ele>1946.92</ele>
   </trkpt>
   <trkpt lat="43.09172" lon="76.88646">
    <ele>1954.7200000000003</ele>
   </trkpt>
   <trkpt lat="43.09161" lon="76.88627000000001">
    <ele>1958.3000000000002</ele>
   </trkpt>
   <trkpt lat="43.091460000000005" lon="76.88614000000001">
    <ele>1963.7300000000002</ele>
   </trkpt>
   <trkpt lat="43.09127" lon="76.88609000000001">
    <ele>1973.39</ele>
   </trkpt>
   <trkpt lat="43.09109" lon="76.88600000000001">
    <ele>1981.3200000000002</ele>
   </trkpt>
   <trkpt lat="43.090920000000004" lon="76.88602">
    <ele>1984.08</ele>
   </trkpt>
   <trkpt lat="43.09057000000001" lon="76.88578000000001">
    <ele>1997.9400000000003</ele>
   </trkpt>
   <trkpt lat="43.09044" lon="76.88561">
    <ele>2002.37</ele>
   </trkpt>
   <trkpt lat="43.09028000000001" lon="76.88554">
    <ele>2007.8500000000004</ele>
   </trkpt>
   <trkpt lat="43.090160000000004" lon="76.88531">
    <ele>2010.7500000000002</ele>
   </trkpt>
   <trkpt lat="43.08999" lon="76.88519000000001">
    <ele>2018.6800000000003</ele>
   </trkpt>
   <trkpt lat="43.089690000000004" lon="76.8849">
    <ele>2032.21</ele>
   </trkpt>
   <trkpt lat="43.089510000000004" lon="76.88483000000001">
    <ele>2037.3600000000001</ele>
   </trkpt>
   <trkpt lat="43.08914" lon="76.88487">
    <ele>2048.1600000000003</ele>
   </trkpt>
   <trkpt lat="43.08897" lon="76.88499">
    <ele>2054.79</ele>
   </trkpt>
   <trkpt lat="43.0887" lon="76.88497000000001">
    <ele>2060.95</ele>
   </trkpt>
   <trkpt lat="43.088680000000004" lon="76.8849">
    <ele>2060.07</ele>
   </trkpt>
   <trkpt lat="43.088710000000006" lon="76.88483000000001">
    <ele>2059.7700000000004</ele>
   </trkpt>
   <trkpt lat="43.088750000000005" lon="76.88482">
    <ele>2059.6400000000003</ele>
   </trkpt>
   <trkpt lat="43.08881" lon="76.88483000000001">
    <ele>2059.66</ele>
   </trkpt>
   <trkpt lat="43.088840000000005" lon="76.88479000000001">
    <ele>2059.79</ele>
   </trkpt>
   <trkpt lat="43.08888" lon="76.88465000000001">
    <ele>2060.41</ele>
   </trkpt>
   <trkpt lat="43.088950000000004" lon="76.88451">
    <ele>2060.75</ele>
   </trkpt>
   <trkpt lat="43.08907000000001" lon="76.88451">
    <ele>2060.88</ele>
   </trkpt>
   <trkpt lat="43.089150000000004" lon="76.88439000000001">
    <ele>2060.2</ele>
   </trkpt>
   <trkpt lat="43.089200000000005" lon="76.88424">
    <ele>2058.02</ele>
   </trkpt>
   <trkpt lat="43.08925000000001" lon="76.88418">
    <ele>2058.3900000000003</ele>
   </trkpt>
   <trkpt lat="43.089400000000005" lon="76.8841">
    <ele>2059.94</ele>
   </trkpt>
   <trkpt lat="43.089650000000006" lon="76.88409">
    <ele>2060.63</ele>
   </trkpt>
   <trkpt lat="43.08982" lon="76.88413000000001">
    <ele>2060.78</ele>
   </trkpt>
   <trkpt lat="43.089940000000006" lon="76.88421000000001">
    <ele>2061.75</ele>
   </trkpt>
   <trkpt lat="43.090090000000004" lon="76.88422000000001">
    <ele>2063.34</ele>
   </trkpt>
   <trkpt lat="43.090340000000005" lon="76.88428">
    <ele>2067.73</ele>
   </trkpt>
   <trkpt lat="43.09046" lon="76.88421000000001">
    <ele>2068.95</ele>
   </trkpt>
   <trkpt lat="43.09064" lon="76.88419">
    <ele>2071.48</ele>
   </trkpt>
   <trkpt lat="43.09103" lon="76.88424">
    <ele>2074.9300000000003</ele>
   </trkpt>
   <trkpt lat="43.091100000000004" lon="76.88423">
    <ele>2075.33</ele>
   </trkpt>
   <trkpt lat="43.091390000000004" lon="76.88404000000001">
    <ele>2078.6600000000003</ele>
   </trkpt>
   <trkpt lat="43.09161" lon="76.88392">
    <ele>2083.4</ele>
   </trkpt>
   <trkpt lat="43.0917" lon="76.88383">
    <ele>2086.19</ele>
   </trkpt>
   <trkpt lat="43.09194" lon="76.88372000000001">
    <ele>2090.78</ele>
   </trkpt>
   <trkpt lat="43.09214" lon="76.88358000000001">
    <ele>2093.2500000000005</ele>
   </trkpt>
   <trkpt lat="43.092420000000004" lon="76.88345000000001">
    <ele>2094.59</ele>
   </trkpt>
   <trkpt lat="43.0927" lon="76.88336000000001">
    <ele>2101.98</ele>
   </trkpt>
   <trkpt lat="43.09295" lon="76.88323000000001">
    <ele>2112.4900000000002</ele>
   </trkpt>
   <trkpt lat="43.09297" lon="76.88323000000001">
    <ele>2112.4900000000002</ele>
   </trkpt>
   <trkpt lat="43.09313" lon="76.88334">
    <ele>2117.68</ele>
   </trkpt>
   <trkpt lat="43.093340000000005" lon="76.88339">
    <ele>2120.01</ele>
   </trkpt>
   <trkpt lat="43.093520000000005" lon="76.88348">
    <ele>2121.69</ele>
   </trkpt>
   <trkpt lat="43.093720000000005" lon="76.88347">
    <ele>2123.55</ele>
   </trkpt>
   <trkpt lat="43.09391" lon="76.88343">
    <ele>2125.62</ele>
   </trkpt>
   <trkpt lat="43.094080000000005" lon="76.88353000000001">
    <ele>2127.61</ele>
   </trkpt>
   <trkpt lat="43.09436" lon="76.88387">
    <ele>2131.6</ele>
   </trkpt>
   <trkpt lat="43.094390000000004" lon="76.88388">
    <ele>2132.3500000000004</ele>
   </trkpt>
   <trkpt lat="43.094550000000005" lon="76.88386000000001">
    <ele>2136.5600000000004</ele>
   </trkpt>
   <trkpt lat="43.0947" lon="76.88373">
    <ele>2139.72</ele>
   </trkpt>
   <trkpt lat="43.094730000000006" lon="76.88373">
    <ele>2139.72</ele>
   </trkpt>
   <trkpt lat="43.09489000000001" lon="76.88384">
    <ele>2140.6500000000005</ele>
   </trkpt>
   <trkpt lat="43.095020000000005" lon="76.884">
    <ele>2142.5400000000004</ele>
   </trkpt>
   <trkpt lat="43.09519" lon="76.88412000000001">
    <ele>2143.3500000000004</ele>
   </trkpt>
   <trkpt lat="43.095760000000006" lon="76.88433">
    <ele>2145.33</ele>
   </trkpt>
   <trkpt lat="43.09611" lon="76.88435000000001">
    <ele>2146.49</ele>
   </trkpt>
   <trkpt lat="43.09628" lon="76.88427">
    <ele>2147.04</ele>
   </trkpt>
   <trkpt lat="43.09648000000001" lon="76.88424">
    <ele>2145.07</ele>
   </trkpt>
   <trkpt lat="43.096630000000005" lon="76.88411">
    <ele>2141.94</ele>
   </trkpt>
   <trkpt lat="43.096940000000004" lon="76.88397">
    <ele>2140.06</ele>
   </trkpt>
   <trkpt lat="43.097240000000006" lon="76.88378">
    <ele>2136.0</ele>
   </trkpt>
   <trkpt lat="43.097060000000006" lon="76.88381000000001">
    <ele>2138.59</ele>
   </trkpt>
   <trkpt lat="43.09684" lon="76.88377000000001">
    <ele>2143.9900000000002</ele>
   </trkpt>
   <trkpt lat="43.096680000000006" lon="76.88379">
    <ele>2146.31</ele>
   </trkpt>
   <trkpt lat="43.096270000000004" lon="76.88377000000001">
    <ele>2155.79</ele>
   </trkpt>
   <trkpt lat="43.096070000000005" lon="76.88378">
    <ele>2163.38</ele>
   </trkpt>
   <trkpt lat="43.09591" lon="76.88367000000001">
    <ele>2171.7400000000002</ele>
   </trkpt>
   <trkpt lat="43.095740000000006" lon="76.88329">
    <ele>2184.9800000000005</ele>
   </trkpt>
   <trkpt lat="43.095620000000004" lon="76.88323000000001">
    <ele>2188.6800000000003</ele>
   </trkpt>
   <trkpt lat="43.095530000000004" lon="76.88309000000001">
    <ele>2191.16</ele>
   </trkpt>
   <trkpt lat="43.09532" lon="76.88291000000001">
    <ele>2193.95</ele>
   </trkpt>
   <trkpt lat="43.09514" lon="76.88281">
    <ele>2194.09</ele>
   </trkpt>
   <trkpt lat="43.09469000000001" lon="76.88245">
    <ele>2186.65</ele>
   </trkpt>
   <trkpt lat="43.094530000000006" lon="76.88239">
    <ele>2188.24</ele>
   </trkpt>
   <trkpt lat="43.09436" lon="76.8823">
    <ele>2190.84</ele>
   </trkpt>
   <trkpt lat="43.09391" lon="76.88217">
    <ele>2193.9900000000002</ele>
   </trkpt>
   <trkpt lat="43.093740000000004" lon="76.88209">
    <ele>2195.8900000000003</ele>
   </trkpt>
   <trkpt lat="43.09346" lon="76.88202000000001">
    <ele>2197.48</ele>
   </trkpt>
   <trkpt lat="43.09331" lon="76.88191">
    <ele>2199.65</ele>
   </trkpt>
   <trkpt lat="43.09317" lon="76.88175000000001">
    <ele>2203.4700000000003</ele>
   </trkpt>
   <trkpt lat="43.092870000000005" lon="76.88158">
    <ele>2210.82</ele>
   </trkpt>
   <trkpt lat="43.09277" lon="76.88144000000001">
    <ele>2218.0600000000004</ele>
   </trkpt>
   <trkpt lat="43.092380000000006" lon="76.8812">
    <ele>2233.86</ele>
   </trkpt>
   <trkpt lat="43.092330000000004" lon="76.88095000000001">
    <ele>2243.01</ele>
   </trkpt>
   <trkpt lat="43.092290000000006" lon="76.88084">
    <ele>2247.43</ele>
   </trkpt>
   <trkpt lat="43.09214" lon="76.88082">
    <ele>2253.28</ele>
   </trkpt>
   <trkpt lat="43.092040000000004" lon="76.88076000000001">
    <ele>2258.0</ele>
   </trkpt>
   <trkpt lat="43.09205" lon="76.88057">
    <ele>2263.0099999999998</ele>
   </trkpt>
   <trkpt lat="43.09201" lon="76.88045000000001">
    <ele>2265.9700000000003</ele>
   </trkpt>
   <trkpt lat="43.0917" lon="76.88039">
    <ele>2275.0000000000005</ele>
   </trkpt>
   <trkpt lat="43.09154" lon="76.88049000000001">
    <ele>2281.8500000000004</ele>
   </trkpt>
   <trkpt lat="43.091390000000004" lon="76.88048">
    <ele>2285.55</ele>
   </trkpt>
   <trkpt lat="43.091260000000005" lon="76.88029">
    <ele>2292.91</ele>
   </trkpt>
   <trkpt lat="43.09114" lon="76.88017">
    <ele>2294.33</ele>
   </trkpt>
   <trkpt lat="43.090970000000006" lon="76.88019000000001">
    <ele>2299.62</ele>
   </trkpt>
   <trkpt lat="43.0908" lon="76.88015">
    <ele>2306.61</ele>
   </trkpt>
   <trkpt lat="43.09055" lon="76.87997">
    <ele>2312.9900000000002</ele>
   </trkpt>
   <trkpt lat="43.09047" lon="76.87984">
    <ele>2318.4600000000005</ele>
   </trkpt>
   <trkpt lat="43.090450000000004" lon="76.87972">
    <ele>2321.03</ele>
   </trkpt>
   <trkpt lat="43.09033" lon="76.87953">
    <ele>2325.34</ele>
   </trkpt>
   <trkpt lat="43.090160000000004" lon="76.87949">
    <ele>2329.27</ele>
   </trkpt>
   <trkpt lat="43.08993" lon="76.87936">
    <ele>2330.9100000000003</ele>
   </trkpt>
   <trkpt lat="43.089510000000004" lon="76.87920000000001">
    <ele>2331.0600000000004</ele>
   </trkpt>
   <trkpt lat="43.088950000000004" lon="76.87910000000001">
    <ele>2337.66</ele>
   </trkpt>
   <trkpt lat="43.08888" lon="76.87902000000001">
    <ele>2338.51</ele>
   </trkpt>
   <trkpt lat="43.08874" lon="76.87904">
    <ele>2338.46</ele>
   </trkpt>
   <trkpt lat="43.0884" lon="76.87892000000001">
    <ele>2337.1400000000003</ele>
   </trkpt>
   <trkpt lat="43.08832" lon="76.87878">
    <ele>2338.88</ele>
   </trkpt>
   <trkpt lat="43.088150000000006" lon="76.87874000000001">
    <ele>2341.94</ele>
   </trkpt>
   <trkpt lat="43.08802" lon="76.87868">
    <ele>2343.53</ele>
   </trkpt>
   <trkpt lat="43.087950000000006" lon="76.87854">
    <ele>2345.55</ele>
   </trkpt>
   <trkpt lat="43.08782" lon="76.87848000000001">
    <ele>2348.55</ele>
   </trkpt>
   <trkpt lat="43.08778" lon="76.87836">
    <ele>2350.56</ele>
   </trkpt>
   <trkpt lat="43.087650000000004" lon="76.87834000000001">
    <ele>2354.2400000000002</ele>
   </trkpt>
   <trkpt lat="43.08755" lon="76.87830000000001">
    <ele>2357.8</ele>
   </trkpt>
   <trkpt lat="43.08749" lon="76.8782">
    <ele>2360.73</ele>
   </trkpt>
   <trkpt lat="43.08738" lon="76.87812000000001">
    <ele>2367.4900000000002</ele>
   </trkpt>
   <trkpt lat="43.0872" lon="76.87805">
    <ele>2370.9500000000003</ele>
   </trkpt>
   <trkpt lat="43.087120000000006" lon="76.87789000000001">
    <ele>2378.27</ele>
   </trkpt>
   <trkpt lat="43.086980000000004" lon="76.87780000000001">
    <ele>2382.73</ele>
   </trkpt>
   <trkpt lat="43.08682" lon="76.87763000000001">
    <ele>2394.1700000000005</ele>
   </trkpt>
   <trkpt lat="43.08679" lon="76.87741000000001">
    <ele>2398.1100000000006</ele>
   </trkpt>
   <trkpt lat="43.086710000000004" lon="76.87735">
    <ele>2403.2500000000005</ele>
   </trkpt>
   <trkpt lat="43.08646" lon="76.87725">
    <ele>2410.66</ele>
   </trkpt>
   <trkpt lat="43.0861" lon="76.87694">
    <ele>2423.2500000000005</ele>
   </trkpt>
   <trkpt lat="43.085890000000006" lon="76.8768">
    <ele>2428.8100000000004</ele>
   </trkpt>
   <trkpt lat="43.08549" lon="76.87683000000001">
    <ele>2445.28</ele>
   </trkpt>
   <trkpt lat="43.08531000000001" lon="76.87695000000001">
    <ele>2450.4</ele>
   </trkpt>
   <trkpt lat="43.08509" lon="76.87701000000001">
    <ele>2456.51</ele>
   </trkpt>
   <trkpt lat="43.08469" lon="76.87696000000001">
    <ele>2474.21</ele>
   </trkpt>
   <trkpt lat="43.084480000000006" lon="76.87700000000001">
    <ele>2478.06</ele>
   </trkpt>
   <trkpt lat="43.084360000000004" lon="76.8772">
    <ele>2480.0</ele>
   </trkpt>
   <trkpt lat="43.08418" lon="76.87737000000001">
    <ele>2489.79</ele>
   </trkpt>
   <trkpt lat="43.08339" lon="76.87754000000001">
    <ele>2512.5800000000004</ele>
   </trkpt>
   <trkpt lat="43.08315" lon="76.87745000000001">
    <ele>2517.08</ele>
   </trkpt>
   <trkpt lat="43.083020000000005" lon="76.87727000000001">
    <ele>2520.59</ele>
   </trkpt>
   <trkpt lat="43.08276" lon="76.87732000000001">
    <ele>2528.74</ele>
   </trkpt>
   <trkpt lat="43.08218" lon="76.87721">
    <ele>2544.63</ele>
   </trkpt>
   <trkpt lat="43.08187" lon="76.87719000000001">
    <ele>2552.11</ele>
   </trkpt>
   <trkpt lat="43.08174" lon="76.87712">
    <ele>2557.7400000000002</ele>
   </trkpt>
   <trkpt lat="43.081610000000005" lon="76.87696000000001">
    <ele>2559.57</ele>
   </trkpt>
   <trkpt lat="43.081340000000004" lon="76.87681">
    <ele>2564.0</ele>
   </trkpt>
   <trkpt lat="43.081030000000005" lon="76.87687000000001">
    <ele>2571.19</ele>
   </trkpt>
   <trkpt lat="43.080920000000006" lon="76.87692000000001">
    <ele>2576.1900000000005</ele>
   </trkpt>
   <trkpt lat="43.08077" lon="76.8769">
    <ele>2580.1600000000003</ele>
   </trkpt>
   <trkpt lat="43.08062" lon="76.87704000000001">
    <ele>2588.15</ele>
   </trkpt>
   <trkpt lat="43.080450000000006" lon="76.87706">
    <ele>2598.82</ele>
   </trkpt>
   <trkpt lat="43.080380000000005" lon="76.87721">
    <ele>2607.65</ele>
   </trkpt>
   <trkpt lat="43.08034000000001" lon="76.87722000000001">
    <ele>2607.65</ele>
   </trkpt>
   <trkpt lat="43.08016000000001" lon="76.87727000000001">
    <ele>2615.31</ele>
   </trkpt>
   <trkpt lat="43.08006" lon="76.87741000000001">
    <ele>2622.7500000000005</ele>
   </trkpt>
   <trkpt lat="43.079840000000004" lon="76.87763000000001">
    <ele>2635.99</ele>
   </trkpt>
   <trkpt lat="43.079550000000005" lon="76.87797">
    <ele>2650.73</ele>
   </trkpt>
   <trkpt lat="43.079260000000005" lon="76.87822000000001">
    <ele>2667.78</ele>
   </trkpt>
   <trkpt lat="43.07927" lon="76.87829">
    <ele>2667.78</ele>
   </trkpt>
   <trkpt lat="43.07896" lon="76.87854">
    <ele>2694.1200000000003</ele>
   </trkpt>
   <trkpt lat="43.07893000000001" lon="76.87879000000001">
    <ele>2702.43</ele>
   </trkpt>
   <trkpt lat="43.07898" lon="76.87893000000001">
    <ele>2707.98</ele>
   </trkpt>
   <trkpt lat="43.078990000000005" lon="76.87918">
    <ele>2712.9100000000003</ele>
   </trkpt>
   <trkpt lat="43.078970000000005" lon="76.87942000000001">
    <ele>2715.2900000000004</ele>
   </trkpt>
   <trkpt lat="43.07902000000001" lon="76.87973000000001">
    <ele>2717.3100000000004</ele>
   </trkpt>
   <trkpt lat="43.079" lon="76.88011">
    <ele>2720.9800000000005</ele>
   </trkpt>
   <trkpt lat="43.079040000000006" lon="76.88045000000001">
    <ele>2726.36</ele>
   </trkpt>
   <trkpt lat="43.07903" lon="76.88067000000001">
    <ele>2728.9500000000003</ele>
   </trkpt>
   <trkpt lat="43.07887" lon="76.88068000000001">
    <ele>2732.79</ele>
   </trkpt>
   <trkpt lat="43.078680000000006" lon="76.88056">
    <ele>2747.31</ele>
   </trkpt>
   <trkpt lat="43.07828000000001" lon="76.88017">
    <ele>2767.51</ele>
   </trkpt>
   <trkpt lat="43.07802" lon="76.87965000000001">
    <ele>2780.45</ele>
   </trkpt>
   <trkpt lat="43.0778" lon="76.87952">
    <ele>2785.67</ele>
   </trkpt>
   <trkpt lat="43.07755" lon="76.87945">
    <ele>2790.1800000000003</ele>
   </trkpt>
   <trkpt lat="43.077400000000004" lon="76.87938000000001">
    <ele>2794.0</ele>
   </trkpt>
   <trkpt lat="43.07723" lon="76.87914">
    <ele>2793.48</ele>
   </trkpt>
   <trkpt lat="43.07699" lon="76.87916000000001">
    <ele>2790.84</ele>
   </trkpt>
   <trkpt lat="43.07683" lon="76.87913">
    <ele>2788.28</ele>
   </trkpt>
   <trkpt lat="43.07659" lon="76.87902000000001">
    <ele>2780.9100000000003</ele>
   </trkpt>
   <trkpt lat="43.076370000000004" lon="76.87878">
    <ele>2776.01</ele>
   </trkpt>
   <trkpt lat="43.076170000000005" lon="76.87869">
    <ele>2774.51</ele>
   </trkpt>
   <trkpt lat="43.07596" lon="76.87873">
    <ele>2773.5200000000004</ele>
   </trkpt>
   <trkpt lat="43.07576" lon="76.87883000000001">
    <ele>2770.55</ele>
   </trkpt>
   <trkpt lat="43.07526" lon="76.87873">
    <ele>2770.32</ele>
   </trkpt>
   <trkpt lat="43.07502" lon="76.87877">
    <ele>2773.51</ele>
   </trkpt>
   <trkpt lat="43.0747" lon="76.87878">
    <ele>2778.6000000000004</ele>
   </trkpt>
   <trkpt lat="43.074250000000006" lon="76.87904">
    <ele>2793.3800000000006</ele>
   </trkpt>
   <trkpt lat="43.074020000000004" lon="76.87906000000001">
    <ele>2797.13</ele>
   </trkpt>
   <trkpt lat="43.07372" lon="76.87906000000001">
    <ele>2797.48</ele>
   </trkpt>
   <trkpt lat="43.07345" lon="76.87898000000001">
    <ele>2799.71</ele>
   </trkpt>
   <trkpt lat="43.073330000000006" lon="76.8789">
    <ele>2801.7400000000002</ele>
   </trkpt>
   <trkpt lat="43.07316" lon="76.87859">
    <ele>2806.1800000000003</ele>
   </trkpt>
   <trkpt lat="43.072880000000005" lon="76.87825000000001">
    <ele>2810.88</ele>
   </trkpt>
   <trkpt lat="43.0726" lon="76.87807000000001">
    <ele>2819.6600000000003</ele>
   </trkpt>
   <trkpt lat="43.072100000000006" lon="76.87742">
    <ele>2838.96</ele>
   </trkpt>
   <trkpt lat="43.07191" lon="76.87725">
    <ele>2840.46</ele>
   </trkpt>
   <trkpt lat="43.071630000000006" lon="76.87714000000001">
    <ele>2842.0400000000004</ele>
   </trkpt>
   <trkpt lat="43.07137" lon="76.87708">
    <ele>2843.6800000000003</ele>
   </trkpt>
   <trkpt lat="43.071220000000004" lon="76.87714000000001">
    <ele>2846.03</ele>
   </trkpt>
   <trkpt lat="43.07052" lon="76.87657">
    <ele>2878.2200000000003</ele>
   </trkpt>
   <trkpt lat="43.07032" lon="76.87645">
    <ele>2887.3900000000003</ele>
   </trkpt>
   <trkpt lat="43.070220000000006" lon="76.87623">
    <ele>2896.77</ele>
   </trkpt>
   <trkpt lat="43.070080000000004" lon="76.87622">
    <ele>2899.3</ele>
   </trkpt>
   <trkpt lat="43.06991" lon="76.87635">
    <ele>2899.2000000000003</ele>
   </trkpt>
   <trkpt lat="43.069570000000006" lon="76.87647000000001">
    <ele>2901.17</ele>
   </trkpt>
   <trkpt lat="43.06949" lon="76.87650000000001">
    <ele>2903.0</ele>
   </trkpt>
   <trkpt lat="43.06991" lon="76.87635">
    <ele>2899.51</ele>
   </trkpt>
   <trkpt lat="43.070080000000004" lon="76.87622">
    <ele>2898.8300000000004</ele>
   </trkpt>
   <trkpt lat="43.070220000000006" lon="76.87623">
    <ele>2895.17</ele>
   </trkpt>
   <trkpt lat="43.07032" lon="76.87645">
    <ele>2887.3900000000003</ele>
   </trkpt>
   <trkpt lat="43.07052" lon="76.87657">
    <ele>2878.2200000000003</ele>
   </trkpt>
   <trkpt lat="43.071220000000004" lon="76.87714000000001">
    <ele>2846.03</ele>
   </trkpt>
   <trkpt lat="43.07137" lon="76.87708">
    <ele>2843.1400000000003</ele>
   </trkpt>
   <trkpt lat="43.071630000000006" lon="76.87714000000001">
    <ele>2841.6800000000003</ele>
   </trkpt>
   <trkpt lat="43.07191" lon="76.87725">
    <ele>2840.46</ele>
   </trkpt>
   <trkpt lat="43.072100000000006" lon="76.87742">
    <ele>2838.35</ele>
   </trkpt>
   <trkpt lat="43.0726" lon="76.87807000000001">
    <ele>2819.6600000000003</ele>
   </trkpt>
   <trkpt lat="43.072880000000005" lon="76.87825000000001">
    <ele>2810.88</ele>
   </trkpt>
   <trkpt lat="43.07316" lon="76.87859">
    <ele>2805.6400000000003</ele>
   </trkpt>
   <trkpt lat="43.073330000000006" lon="76.8789">
    <ele>2800.9500000000003</ele>
   </trkpt>
   <trkpt lat="43.07345" lon="76.87898000000001">
    <ele>2799.31</ele>
   </trkpt>
   <trkpt lat="43.07372" lon="76.87906000000001">
    <ele>2797.48</ele>
   </trkpt>
   <trkpt lat="43.074020000000004" lon="76.87906000000001">
    <ele>2796.7200000000003</ele>
   </trkpt>
   <trkpt lat="43.074250000000006" lon="76.87904">
    <ele>2792.1400000000003</ele>
   </trkpt>
   <trkpt lat="43.0747" lon="76.87878">
    <ele>2778.6000000000004</ele>
   </trkpt>
   <trkpt lat="43.07502" lon="76.87877">
    <ele>2772.81</ele>
   </trkpt>
   <trkpt lat="43.07526" lon="76.87873">
    <ele>2770.02</ele>
   </trkpt>
   <trkpt lat="43.07576" lon="76.87883000000001">
    <ele>2770.55</ele>
   </trkpt>
   <trkpt lat="43.07596" lon="76.87873">
    <ele>2773.93</ele>
   </trkpt>
   <trkpt lat="43.076170000000005" lon="76.87869">
    <ele>2775.4</ele>
   </trkpt>
   <trkpt lat="43.076370000000004" lon="76.87878">
    <ele>2776.4900000000002</ele>
   </trkpt>
   <trkpt lat="43.07659" lon="76.87902000000001">
    <ele>2783.3</ele>
   </trkpt>
   <trkpt lat="43.07683" lon="76.87913">
    <ele>2788.28</ele>
   </trkpt>
   <trkpt lat="43.07699" lon="76.87916000000001">
    <ele>2791.6000000000004</ele>
   </trkpt>
   <trkpt lat="43.07723" lon="76.87914">
    <ele>2793.69</ele>
   </trkpt>
   <trkpt lat="43.077400000000004" lon="76.87938000000001">
    <ele>2794.0</ele>
   </trkpt>
   <trkpt lat="43.07755" lon="76.87945">
    <ele>2790.1800000000003</ele>
   </trkpt>
   <trkpt lat="43.0778" lon="76.87952">
    <ele>2785.67</ele>
   </trkpt>
   <trkpt lat="43.07802" lon="76.87965000000001">
    <ele>2779.22</ele>
   </trkpt>
   <trkpt lat="43.07828000000001" lon="76.88017">
    <ele>2765.8900000000003</ele>
   </trkpt>
   <trkpt lat="43.078680000000006" lon="76.88056">
    <ele>2739.3</ele>
   </trkpt>
   <trkpt lat="43.07887" lon="76.88068000000001">
    <ele>2731.4</ele>
   </trkpt>
   <trkpt lat="43.07903" lon="76.88067000000001">
    <ele>2728.9500000000003</ele>
   </trkpt>
   <trkpt lat="43.079040000000006" lon="76.88045000000001">
    <ele>2724.25</ele>
   </trkpt>
   <trkpt lat="43.079" lon="76.88011">
    <ele>2720.9800000000005</ele>
   </trkpt>
   <trkpt lat="43.07902000000001" lon="76.87973000000001">
    <ele>2716.87</ele>
   </trkpt>
   <trkpt lat="43.078970000000005" lon="76.87942000000001">
    <ele>2714.86</ele>
   </trkpt>
   <trkpt lat="43.078990000000005" lon="76.87918">
    <ele>2711.9300000000003</ele>
   </trkpt>
   <trkpt lat="43.07898" lon="76.87893000000001">
    <ele>2706.31</ele>
   </trkpt>
   <trkpt lat="43.07893000000001" lon="76.87879000000001">
    <ele>2702.43</ele>
   </trkpt>
   <trkpt lat="43.07896" lon="76.87854">
    <ele>2691.9700000000003</ele>
   </trkpt>
   <trkpt lat="43.07927" lon="76.87829">
    <ele>2667.78</ele>
   </trkpt>
   <trkpt lat="43.079260000000005" lon="76.87822000000001">
    <ele>2667.78</ele>
   </trkpt>
   <trkpt lat="43.079550000000005" lon="76.87797">
    <ele>2650.73</ele>
   </trkpt>
   <trkpt lat="43.079840000000004" lon="76.87763000000001">
    <ele>2635.99</ele>
   </trkpt>
   <trkpt lat="43.08006" lon="76.87741000000001">
    <ele>2620.8</ele>
   </trkpt>
   <trkpt lat="43.08016000000001" lon="76.87727000000001">
    <ele>2615.31</ele>
   </trkpt>
   <trkpt lat="43.080380000000005" lon="76.87721">
    <ele>2606.61</ele>
   </trkpt>
   <trkpt lat="43.080450000000006" lon="76.87706">
    <ele>2598.82</ele>
   </trkpt>
   <trkpt lat="43.08062" lon="76.87704000000001">
    <ele>2585.76</ele>
   </trkpt>
   <trkpt lat="43.08077" lon="76.8769">
    <ele>2578.78</ele>
   </trkpt>
   <trkpt lat="43.080920000000006" lon="76.87692000000001">
    <ele>2574.7</ele>
   </trkpt>
   <trkpt lat="43.081030000000005" lon="76.87687000000001">
    <ele>2569.52</ele>
   </trkpt>
   <trkpt lat="43.081340000000004" lon="76.87681">
    <ele>2564.0</ele>
   </trkpt>
   <trkpt lat="43.081610000000005" lon="76.87696000000001">
    <ele>2557.7400000000002</ele>
   </trkpt>
   <trkpt lat="43.08174" lon="76.87712">
    <ele>2552.11</ele>
   </trkpt>
   <trkpt lat="43.08187" lon="76.87719000000001">
    <ele>2552.11</ele>
   </trkpt>
   <trkpt lat="43.08218" lon="76.87721">
    <ele>2544.63</ele>
   </trkpt>
   <trkpt lat="43.08276" lon="76.87732000000001">
    <ele>2528.74</ele>
   </trkpt>
   <trkpt lat="43.083020000000005" lon="76.87727000000001">
    <ele>2520.59</ele>
   </trkpt>
   <trkpt lat="43.08315" lon="76.87745000000001">
    <ele>2516.1900000000005</ele>
   </trkpt>
   <trkpt lat="43.08339" lon="76.87754000000001">
    <ele>2511.59</ele>
   </trkpt>
   <trkpt lat="43.08418" lon="76.87737000000001">
    <ele>2486.09</ele>
   </trkpt>
   <trkpt lat="43.084360000000004" lon="76.8772">
    <ele>2479.4900000000002</ele>
   </trkpt>
   <trkpt lat="43.084480000000006" lon="76.87700000000001">
    <ele>2477.51</ele>
   </trkpt>
   <trkpt lat="43.08469" lon="76.87696000000001">
    <ele>2472.9300000000003</ele>
   </trkpt>
   <trkpt lat="43.08509" lon="76.87701000000001">
    <ele>2454.7400000000002</ele>
   </trkpt>
   <trkpt lat="43.08531000000001" lon="76.87695000000001">
    <ele>2449.38</ele>
   </trkpt>
   <trkpt lat="43.08549" lon="76.87683000000001">
    <ele>2445.28</ele>
   </trkpt>
   <trkpt lat="43.085890000000006" lon="76.8768">
    <ele>2428.8100000000004</ele>
   </trkpt>
   <trkpt lat="43.0861" lon="76.87694">
    <ele>2423.2500000000005</ele>
   </trkpt>
   <trkpt lat="43.08646" lon="76.87725">
    <ele>2408.6000000000004</ele>
   </trkpt>
   <trkpt lat="43.086710000000004" lon="76.87735">
    <ele>2401.6200000000003</ele>
   </trkpt>
   <trkpt lat="43.08679" lon="76.87741000000001">
    <ele>2396.2000000000003</ele>
   </trkpt>
   <trkpt lat="43.08682" lon="76.87763000000001">
    <ele>2387.75</ele>
   </trkpt>
   <trkpt lat="43.086980000000004" lon="76.87780000000001">
    <ele>2381.37</ele>
   </trkpt>
   <trkpt lat="43.087120000000006" lon="76.87789000000001">
    <ele>2378.27</ele>
   </trkpt>
   <trkpt lat="43.0872" lon="76.87805">
    <ele>2370.9500000000003</ele>
   </trkpt>
   <trkpt lat="43.08738" lon="76.87812000000001">
    <ele>2360.73</ele>
   </trkpt>
   <trkpt lat="43.08749" lon="76.8782">
    <ele>2359.1800000000003</ele>
   </trkpt>
   <trkpt lat="43.08755" lon="76.87830000000001">
    <ele>2356.56</ele>
   </trkpt>
   <trkpt lat="43.087650000000004" lon="76.87834000000001">
    <ele>2354.2400000000002</ele>
   </trkpt>
   <trkpt lat="43.08778" lon="76.87836">
    <ele>2349.48</ele>
   </trkpt>
   <trkpt lat="43.08782" lon="76.87848000000001">
    <ele>2347.7400000000002</ele>
   </trkpt>
   <trkpt lat="43.087950000000006" lon="76.87854">
    <ele>2345.55</ele>
   </trkpt>
   <trkpt lat="43.08802" lon="76.87868">
    <ele>2343.53</ele>
   </trkpt>
   <trkpt lat="43.088150000000006" lon="76.87874000000001">
    <ele>2340.9600000000005</ele>
   </trkpt>
   <trkpt lat="43.08832" lon="76.87878">
    <ele>2338.0400000000004</ele>
   </trkpt>
   <trkpt lat="43.0884" lon="76.87892000000001">
    <ele>2337.06</ele>
   </trkpt>
   <trkpt lat="43.08874" lon="76.87904">
    <ele>2338.59</ele>
   </trkpt>
   <trkpt lat="43.08888" lon="76.87902000000001">
    <ele>2338.19</ele>
   </trkpt>
   <trkpt lat="43.088950000000004" lon="76.87910000000001">
    <ele>2336.92</ele>
   </trkpt>
   <trkpt lat="43.089510000000004" lon="76.87920000000001">
    <ele>2331.0000000000005</ele>
   </trkpt>
   <trkpt lat="43.08993" lon="76.87936">
    <ele>2330.92</ele>
   </trkpt>
   <trkpt lat="43.090160000000004" lon="76.87949">
    <ele>2328.4500000000003</ele>
   </trkpt>
   <trkpt lat="43.09033" lon="76.87953">
    <ele>2323.3</ele>
   </trkpt>
   <trkpt lat="43.090450000000004" lon="76.87972">
    <ele>2319.78</ele>
   </trkpt>
   <trkpt lat="43.09047" lon="76.87984">
    <ele>2318.4600000000005</ele>
   </trkpt>
   <trkpt lat="43.09055" lon="76.87997">
    <ele>2312.9900000000002</ele>
   </trkpt>
   <trkpt lat="43.0908" lon="76.88015">
    <ele>2305.28</ele>
   </trkpt>
   <trkpt lat="43.090970000000006" lon="76.88019000000001">
    <ele>2299.62</ele>
   </trkpt>
   <trkpt lat="43.09114" lon="76.88017">
    <ele>2294.33</ele>
   </trkpt>
   <trkpt lat="43.091260000000005" lon="76.88029">
    <ele>2288.38</ele>
   </trkpt>
   <trkpt lat="43.091390000000004" lon="76.88048">
    <ele>2284.25</ele>
   </trkpt>
   <trkpt lat="43.09154" lon="76.88049000000001">
    <ele>2278.5200000000004</ele>
   </trkpt>
   <trkpt lat="43.0917" lon="76.88039">
    <ele>2275.0000000000005</ele>
   </trkpt>
   <trkpt lat="43.09201" lon="76.88045000000001">
    <ele>2265.9700000000003</ele>
   </trkpt>
   <trkpt lat="43.09205" lon="76.88057">
    <ele>2261.46</ele>
   </trkpt>
   <trkpt lat="43.092040000000004" lon="76.88076000000001">
    <ele>2258.0</ele>
   </trkpt>
   <trkpt lat="43.09214" lon="76.88082">
    <ele>2253.28</ele>
   </trkpt>
   <trkpt lat="43.092290000000006" lon="76.88084">
    <ele>2247.43</ele>
   </trkpt>
   <trkpt lat="43.092330000000004" lon="76.88095000000001">
    <ele>2243.01</ele>
   </trkpt>
   <trkpt lat="43.092380000000006" lon="76.8812">
    <ele>2231.7</ele>
   </trkpt>
   <trkpt lat="43.09277" lon="76.88144000000001">
    <ele>2218.0600000000004</ele>
   </trkpt>
   <trkpt lat="43.092870000000005" lon="76.88158">
    <ele>2209.2200000000003</ele>
   </trkpt>
   <trkpt lat="43.09317" lon="76.88175000000001">
    <ele>2201.84</ele>
   </trkpt>
   <trkpt lat="43.09331" lon="76.88191">
    <ele>2199.0000000000005</ele>
   </trkpt>
   <trkpt lat="43.09346" lon="76.88202000000001">
    <ele>2197.12</ele>
   </trkpt>
   <trkpt lat="43.093740000000004" lon="76.88209">
    <ele>2194.67</ele>
   </trkpt>
   <trkpt lat="43.09391" lon="76.88217">
    <ele>2193.71</ele>
   </trkpt>
   <trkpt lat="43.09436" lon="76.8823">
    <ele>2190.21</ele>
   </trkpt>
   <trkpt lat="43.094530000000006" lon="76.88239">
    <ele>2187.6600000000003</ele>
   </trkpt>
   <trkpt lat="43.09469000000001" lon="76.88245">
    <ele>2186.7400000000002</ele>
   </trkpt>
   <trkpt lat="43.09514" lon="76.88281">
    <ele>2194.2400000000002</ele>
   </trkpt>
   <trkpt lat="43.09532" lon="76.88291000000001">
    <ele>2193.63</ele>
   </trkpt>
   <trkpt lat="43.095530000000004" lon="76.88309000000001">
    <ele>2190.4700000000003</ele>
   </trkpt>
   <trkpt lat="43.095620000000004" lon="76.88323000000001">
    <ele>2187.59</ele>
   </trkpt>
   <trkpt lat="43.095740000000006" lon="76.88329">
    <ele>2183.4</ele>
   </trkpt>
   <trkpt lat="43.09591" lon="76.88367000000001">
    <ele>2171.7400000000002</ele>
   </trkpt>
   <trkpt lat="43.096070000000005" lon="76.88378">
    <ele>2161.4</ele>
   </trkpt>
   <trkpt lat="43.09639000000001" lon="76.88377000000001">
    <ele>2150.6600000000003</ele>
   </trkpt>
   <trkpt lat="43.096680000000006" lon="76.88379">
    <ele>2145.2500000000005</ele>
   </trkpt>
   <trkpt lat="43.09684" lon="76.88377000000001">
    <ele>2143.2200000000003</ele>
   </trkpt>
   <trkpt lat="43.097060000000006" lon="76.88381000000001">
    <ele>2138.59</ele>
   </trkpt>
   <trkpt lat="43.097240000000006" lon="76.88378">
    <ele>2136.0</ele>
   </trkpt>
   <trkpt lat="43.09698" lon="76.88396">
    <ele>2140.21</ele>
   </trkpt>
   <trkpt lat="43.096630000000005" lon="76.88411">
    <ele>2143.33</ele>
   </trkpt>
   <trkpt lat="43.09648000000001" lon="76.88424">
    <ele>2146.46</ele>
   </trkpt>
   <trkpt lat="43.09628" lon="76.88427">
    <ele>2146.94</ele>
   </trkpt>
   <trkpt lat="43.09611" lon="76.88435000000001">
    <ele>2145.9</ele>
   </trkpt>
   <trkpt lat="43.095760000000006" lon="76.88433">
    <ele>2145.33</ele>
   </trkpt>
   <trkpt lat="43.09519" lon="76.88412000000001">
    <ele>2143.19</ele>
   </trkpt>
   <trkpt lat="43.095020000000005" lon="76.884">
    <ele>2141.6000000000004</ele>
   </trkpt>
   <trkpt lat="43.09489000000001" lon="76.88384">
    <ele>2140.3100000000004</ele>
   </trkpt>
   <trkpt lat="43.094730000000006" lon="76.88373">
    <ele>2139.2000000000003</ele>
   </trkpt>
   <trkpt lat="43.0947" lon="76.88373">
    <ele>2138.5</ele>
   </trkpt>
   <trkpt lat="43.094550000000005" lon="76.88386000000001">
    <ele>2134.29</ele>
   </trkpt>
   <trkpt lat="43.094390000000004" lon="76.88388">
    <ele>2131.6</ele>
   </trkpt>
   <trkpt lat="43.09436" lon="76.88387">
    <ele>2130.9300000000003</ele>
   </trkpt>
   <trkpt lat="43.094080000000005" lon="76.88353000000001">
    <ele>2126.96</ele>
   </trkpt>
   <trkpt lat="43.09391" lon="76.88343">
    <ele>2124.52</ele>
   </trkpt>
   <trkpt lat="43.093720000000005" lon="76.88347">
    <ele>2123.17</ele>
   </trkpt>
   <trkpt lat="43.093520000000005" lon="76.88348">
    <ele>2120.79</ele>
   </trkpt>
   <trkpt lat="43.093340000000005" lon="76.88339">
    <ele>2119.36</ele>
   </trkpt>
   <trkpt lat="43.09313" lon="76.88334">
    <ele>2116.69</ele>
   </trkpt>
   <trkpt lat="43.09297" lon="76.88323000000001">
    <ele>2110.78</ele>
   </trkpt>
   <trkpt lat="43.09295" lon="76.88323000000001">
    <ele>2110.78</ele>
   </trkpt>
   <trkpt lat="43.0927" lon="76.88336000000001">
    <ele>2099.2300000000005</ele>
   </trkpt>
   <trkpt lat="43.092420000000004" lon="76.88345000000001">
    <ele>2094.2400000000002</ele>
   </trkpt>
   <trkpt lat="43.09214" lon="76.88358000000001">
    <ele>2092.1600000000003</ele>
   </trkpt>
   <trkpt lat="43.09194" lon="76.88372000000001">
    <ele>2089.4500000000003</ele>
   </trkpt>
   <trkpt lat="43.0917" lon="76.88383">
    <ele>2086.19</ele>
   </trkpt>
   <trkpt lat="43.09161" lon="76.88392">
    <ele>2083.4</ele>
   </trkpt>
   <trkpt lat="43.091390000000004" lon="76.88404000000001">
    <ele>2077.71</ele>
   </trkpt>
   <trkpt lat="43.091100000000004" lon="76.88423">
    <ele>2074.9300000000003</ele>
   </trkpt>
   <trkpt lat="43.09103" lon="76.88424">
    <ele>2074.77</ele>
   </trkpt>
   <trkpt lat="43.09064" lon="76.88419">
    <ele>2070.32</ele>
   </trkpt>
   <trkpt lat="43.09046" lon="76.88421000000001">
    <ele>2068.39</ele>
   </trkpt>
   <trkpt lat="43.090340000000005" lon="76.88428">
    <ele>2065.41</ele>
   </trkpt>
   <trkpt lat="43.090090000000004" lon="76.88422000000001">
    <ele>2062.7500000000005</ele>
   </trkpt>
   <trkpt lat="43.089940000000006" lon="76.88421000000001">
    <ele>2061.0099999999998</ele>
   </trkpt>
   <trkpt lat="43.08982" lon="76.88413000000001">
    <ele>2060.6400000000003</ele>
   </trkpt>
   <trkpt lat="43.089650000000006" lon="76.88409">
    <ele>2060.62</ele>
   </trkpt>
   <trkpt lat="43.089400000000005" lon="76.8841">
    <ele>2059.59</ele>
   </trkpt>
   <trkpt lat="43.08925000000001" lon="76.88418">
    <ele>2058.02</ele>
   </trkpt>
   <trkpt lat="43.089200000000005" lon="76.88424">
    <ele>2060.2</ele>
   </trkpt>
   <trkpt lat="43.089150000000004" lon="76.88439000000001">
    <ele>2060.63</ele>
   </trkpt>
   <trkpt lat="43.08907000000001" lon="76.88451">
    <ele>2060.96</ele>
   </trkpt>
   <trkpt lat="43.088950000000004" lon="76.88451">
    <ele>2060.41</ele>
   </trkpt>
   <trkpt lat="43.08888" lon="76.88465000000001">
    <ele>2059.79</ele>
   </trkpt>
   <trkpt lat="43.088840000000005" lon="76.88479000000001">
    <ele>2059.66</ele>
   </trkpt>
   <trkpt lat="43.08881" lon="76.88483000000001">
    <ele>2059.6400000000003</ele>
   </trkpt>
   <trkpt lat="43.088750000000005" lon="76.88482">
    <ele>2060.07</ele>
   </trkpt>
   <trkpt lat="43.088710000000006" lon="76.88483000000001">
    <ele>2060.48</ele>
   </trkpt>
   <trkpt lat="43.088680000000004" lon="76.8849">
    <ele>2060.95</ele>
   </trkpt>
   <trkpt lat="43.0887" lon="76.88497000000001">
    <ele>2058.5600000000004</ele>
   </trkpt>
   <trkpt lat="43.08897" lon="76.88499">
    <ele>2054.79</ele>
   </trkpt>
   <trkpt lat="43.08914" lon="76.88487">
    <ele>2045.5800000000002</ele>
   </trkpt>
   <trkpt lat="43.089510000000004" lon="76.88483000000001">
    <ele>2037.3600000000001</ele>
   </trkpt>
   <trkpt lat="43.089690000000004" lon="76.8849">
    <ele>2032.21</ele>
   </trkpt>
   <trkpt lat="43.08999" lon="76.88519000000001">
    <ele>2018.6800000000003</ele>
   </trkpt>
   <trkpt lat="43.090160000000004" lon="76.88531">
    <ele>2010.7500000000002</ele>
   </trkpt>
   <trkpt lat="43.09028000000001" lon="76.88554">
    <ele>2007.8500000000004</ele>
   </trkpt>
   <trkpt lat="43.09044" lon="76.88561">
    <ele>1999.48</ele>
   </trkpt>
   <trkpt lat="43.09057000000001" lon="76.88578000000001">
    <ele>1990.0400000000002</ele>
   </trkpt>
   <trkpt lat="43.090920000000004" lon="76.88602">
    <ele>1981.3200000000002</ele>
   </trkpt>
   <trkpt lat="43.09109" lon="76.88600000000001">
    <ele>1973.39</ele>
   </trkpt>
   <trkpt lat="43.09127" lon="76.88609000000001">
    <ele>1973.39</ele>
   </trkpt>
   <trkpt lat="43.091460000000005" lon="76.88614000000001">
    <ele>1963.7300000000002</ele>
   </trkpt>
   <trkpt lat="43.09161" lon="76.88627000000001">
    <ele>1958.3000000000002</ele>
   </trkpt>
   <trkpt lat="43.09172" lon="76.88646">
    <ele>1954.7200000000003</ele>
   </trkpt>
   <trkpt lat="43.09207000000001" lon="76.88664">
    <ele>1944.8200000000002</ele>
   </trkpt>
   <trkpt lat="43.09217" lon="76.88677000000001">
    <ele>1941.9400000000003</ele>
   </trkpt>
   <trkpt lat="43.092220000000005" lon="76.88679">
    <ele>1939.8600000000001</ele>
   </trkpt>
   <trkpt lat="43.092330000000004" lon="76.88676000000001">
    <ele>1938.7600000000002</ele>
   </trkpt>
   <trkpt lat="43.09248" lon="76.88693">
    <ele>1931.68</ele>
   </trkpt>
   <trkpt lat="43.09266" lon="76.88701">
    <ele>1929.4400000000003</ele>
   </trkpt>
   <trkpt lat="43.09288" lon="76.88704000000001">
    <ele>1921.7800000000002</ele>
   </trkpt>
   <trkpt lat="43.09304" lon="76.88716000000001">
    <ele>1917.01</ele>
   </trkpt>
   <trkpt lat="43.09315" lon="76.88736">
    <ele>1914.8</ele>
   </trkpt>
   <trkpt lat="43.093300000000006" lon="76.88751">
    <ele>1909.49</ele>
   </trkpt>
   <trkpt lat="43.09335" lon="76.88777">
    <ele>1903.18</ele>
   </trkpt>
   <trkpt lat="43.093590000000006" lon="76.88820000000001">
    <ele>1890.69</ele>
   </trkpt>
   <trkpt lat="43.09373" lon="76.88864000000001">
    <ele>1875.9500000000003</ele>
   </trkpt>
   <trkpt lat="43.093740000000004" lon="76.88893">
    <ele>1871.8400000000001</ele>
   </trkpt>
   <trkpt lat="43.09396" lon="76.88925">
    <ele>1865.01</ele>
   </trkpt>
   <trkpt lat="43.094375000286234" lon="76.88950499827388">
    <ele>1855.4800000000002</ele>
   </trkpt>
   <trkpt lat="43.09479" lon="76.88976000000001">
    <ele>1842.3300000000002</ele>
   </trkpt>
   <trkpt lat="43.09505" lon="76.88985000000001">
    <ele>1835.2100000000003</ele>
   </trkpt>
   <trkpt lat="43.09532" lon="76.89007000000001">
    <ele>1830.01</ele>
   </trkpt>
   <trkpt lat="43.095510000000004" lon="76.89031">
    <ele>1824.5800000000002</ele>
   </trkpt>
   <trkpt lat="43.09593" lon="76.89103">
    <ele>1805.8</ele>
   </trkpt>
   <trkpt lat="43.09624" lon="76.89141000000001">
    <ele>1795.7800000000002</ele>
   </trkpt>
   <trkpt lat="43.096430000000005" lon="76.89142000000001">
    <ele>1792.18</ele>
   </trkpt>
   <trkpt lat="43.097030000000004" lon="76.89208">
    <ele>1775.5200000000002</ele>
   </trkpt>
   <trkpt lat="43.09722" lon="76.89226000000001">
    <ele>1771.88</ele>
   </trkpt>
   <trkpt lat="43.097440000000006" lon="76.89250000000001">
    <ele>1766.9</ele>
   </trkpt>
   <trkpt lat="43.09772" lon="76.89269">
    <ele>1762.5400000000002</ele>
   </trkpt>
   <trkpt lat="43.098040000000005" lon="76.89285000000001">
    <ele>1754.67</ele>
   </trkpt>
   <trkpt lat="43.098760000000006" lon="76.89354">
    <ele>1732.7500000000002</ele>
   </trkpt>
   <trkpt lat="43.09902" lon="76.89361000000001">
    <ele>1726.91</ele>
   </trkpt>
   <trkpt lat="43.09908" lon="76.89374000000001">
    <ele>1725.8000000000002</ele>
   </trkpt>
   <trkpt lat="43.09930000000001" lon="76.89399">
    <ele>1721.14</ele>
   </trkpt>
   <trkpt lat="43.099630000000005" lon="76.89445">
    <ele>1713.78</ele>
   </trkpt>
   <trkpt lat="43.09998" lon="76.89499">
    <ele>1702.13</ele>
   </trkpt>
   <trkpt lat="43.10009" lon="76.8952">
    <ele>1698.46</ele>
   </trkpt>
   <trkpt lat="43.100460000000005" lon="76.89551">
    <ele>1689.0500000000002</ele>
   </trkpt>
   <trkpt lat="43.10074" lon="76.89582">
    <ele>1684.44</ele>
   </trkpt>
   <trkpt lat="43.10103500109001" lon="76.89631499765396">
    <ele>1675.2000000000003</ele>
   </trkpt>
   <trkpt lat="43.101330000000004" lon="76.89681">
    <ele>1668.3200000000002</ele>
   </trkpt>
   <trkpt lat="43.10143" lon="76.89715000000001">
    <ele>1663.43</ele>
   </trkpt>
   <trkpt lat="43.10164000143789" lon="76.89770499835227">
    <ele>1648.3200000000002</ele>
   </trkpt>
   <trkpt lat="43.101850000000006" lon="76.89826000000001">
    <ele>1638.13</ele>
   </trkpt>
   <trkpt lat="43.10197" lon="76.89854000000001">
    <ele>1633.63</ele>
   </trkpt>
   <trkpt lat="43.10208" lon="76.89915">
    <ele>1624.57</ele>
   </trkpt>
   <trkpt lat="43.1021" lon="76.89953000000001">
    <ele>1618.69</ele>
   </trkpt>
   <trkpt lat="43.102380000000004" lon="76.90005000000001">
    <ele>1614.5300000000002</ele>
   </trkpt>
   <trkpt lat="43.10267" lon="76.90075">
    <ele>1608.0800000000002</ele>
   </trkpt>
   <trkpt lat="43.10289" lon="76.90117000000001">
    <ele>1600.23</ele>
   </trkpt>
   <trkpt lat="43.10311" lon="76.90147">
    <ele>1592.3200000000002</ele>
   </trkpt>
   <trkpt lat="43.103280000000005" lon="76.90151">
    <ele>1589.8000000000002</ele>
   </trkpt>
   <trkpt lat="43.10362000000001" lon="76.90182">
    <ele>1586.3400000000001</ele>
   </trkpt>
   <trkpt lat="43.10371000000001" lon="76.90196">
    <ele>1584.6200000000001</ele>
   </trkpt>
   <trkpt lat="43.10383" lon="76.90205">
    <ele>1582.48</ele>
   </trkpt>
   <trkpt lat="43.10399" lon="76.90225000000001">
    <ele>1576.96</ele>
   </trkpt>
   <trkpt lat="43.104040000000005" lon="76.90242">
    <ele>1573.7800000000002</ele>
   </trkpt>
   <trkpt lat="43.104040000000005" lon="76.90266000000001">
    <ele>1571.53</ele>
   </trkpt>
   <trkpt lat="43.10398000000001" lon="76.90288000000001">
    <ele>1564.51</ele>
   </trkpt>
   <trkpt lat="43.103970000000004" lon="76.90306000000001">
    <ele>1562.39</ele>
   </trkpt>
   <trkpt lat="43.10409000000001" lon="76.90366">
    <ele>1553.95</ele>
   </trkpt>
   <trkpt lat="43.104330000000004" lon="76.90452">
    <ele>1544.95</ele>
   </trkpt>
   <trkpt lat="43.104350000000004" lon="76.90559">
    <ele>1536.89</ele>
   </trkpt>
   <trkpt lat="43.10439" lon="76.90573">
    <ele>1535.89</ele>
   </trkpt>
   <trkpt lat="43.1045" lon="76.90596000000001">
    <ele>1533.4200000000003</ele>
   </trkpt>
   <trkpt lat="43.104560000000006" lon="76.90639">
    <ele>1528.0600000000002</ele>
   </trkpt>
   <trkpt lat="43.104780000000005" lon="76.90695000000001">
    <ele>1522.85</ele>
   </trkpt>
   <trkpt lat="43.104910000000004" lon="76.90719">
    <ele>1520.19</ele>
   </trkpt>
   <trkpt lat="43.10501" lon="76.90732000000001">
    <ele>1518.64</ele>
   </trkpt>
  </trkseg>
 </trk>
</gpx>
