<?xml version="1.0" encoding="UTF-8"?>
<gpx creator="StravaGPX" version="1.1" xmlns="http://www.topografix.com/GPX/1/1" xmlns:xsi="http://www.w3.org/2001/XMLSchema-instance" xsi:schemaLocation="http://www.topografix.com/GPX/1/1 http://www.topografix.com/GPX/1/1/gpx.xsd">
 <metadata>
  <name>Ледяной грот Дельфин</name>
  <author>
   <name>Vladimir Sumarokov 🇰🇿🇷🇺🇹🇭</name>
   <link href="https://www.strava.com/athletes/16069938"/>
  </author>
  <copyright author="OpenStreetMap contributors">
   <year>2020</year>
   <license>https://www.openstreetmap.org/copyright</license>
  </copyright>
  <link href="https://www.strava.com/routes/3277434418170794150"/>
 </metadata>
 <trk>
  <name>Ледяной грот Дельфин</name>
  <link href="https://www.strava.com/routes/3277434418170794150"/>
  <type>hiking</type>
  <trkseg>
   <trkpt lat="43.12832" lon="77.08053000000001">
    <ele>2284.0299999999997</ele>
   </trkpt>
   <trkpt lat="43.128220000000006" lon="77.08024">
    <ele>2284.1400000000003</ele>
   </trkpt>
   <trkpt lat="43.128190000000004" lon="77.07991000000001">
    <ele>2287.7400000000002</ele>
   </trkpt>
   <trkpt lat="43.127645000021225" lon="77.0799750005788">
    <ele>2298.7000000000003</ele>
   </trkpt>
   <trkpt lat="43.127100000000006" lon="77.08004000000001">
    <ele>2305.7700000000004</ele>
   </trkpt>
   <trkpt lat="43.126270000000005" lon="77.08026000000001">
    <ele>2318.09</ele>
   </trkpt>
   <trkpt lat="43.125490000000006" lon="77.08043">
    <ele>2324.79</ele>
   </trkpt>
   <trkpt lat="43.125330000000005" lon="77.08052">
    <ele>2325.46</ele>
   </trkpt>
   <trkpt lat="43.125130000000006" lon="77.08080000000001">
    <ele>2324.4</ele>
   </trkpt>
   <trkpt lat="43.124970000000005" lon="77.08107000000001">
    <ele>2321.67</ele>
   </trkpt>
   <trkpt lat="43.124750000000006" lon="77.08133000000001">
    <ele>2318.1000000000004</ele>
   </trkpt>
   <trkpt lat="43.124570000000006" lon="77.0815">
    <ele>2315.65</ele>
   </trkpt>
   <trkpt lat="43.124520000000004" lon="77.08153">
    <ele>2315.38</ele>
   </trkpt>
   <trkpt lat="43.12438" lon="77.08154">
    <ele>2315.08</ele>
   </trkpt>
   <trkpt lat="43.12426000000001" lon="77.08144">
    <ele>2315.69</ele>
   </trkpt>
   <trkpt lat="43.12417000000001" lon="77.08122">
    <ele>2317.06</ele>
   </trkpt>
   <trkpt lat="43.12415" lon="77.08103000000001">
    <ele>2318.51</ele>
   </trkpt>
   <trkpt lat="43.12416" lon="77.08053000000001">
    <ele>2322.76</ele>
   </trkpt>
   <trkpt lat="43.12411" lon="77.08031000000001">
    <ele>2324.2200000000003</ele>
   </trkpt>
   <trkpt lat="43.12407" lon="77.08022000000001">
    <ele>2324.44</ele>
   </trkpt>
   <trkpt lat="43.124010000000006" lon="77.08017000000001">
    <ele>2324.7500000000005</ele>
   </trkpt>
   <trkpt lat="43.123900000000006" lon="77.08013000000001">
    <ele>2324.9600000000005</ele>
   </trkpt>
   <trkpt lat="43.123380000000004" lon="77.08012000000001">
    <ele>2326.34</ele>
   </trkpt>
   <trkpt lat="43.12292499998972" lon="77.08006499958812">
    <ele>2328.1500000000005</ele>
   </trkpt>
   <trkpt lat="43.12247000000001" lon="77.08001">
    <ele>2331.51</ele>
   </trkpt>
   <trkpt lat="43.121834999823264" lon="77.07989499876398">
    <ele>2337.8</ele>
   </trkpt>
   <trkpt lat="43.1212" lon="77.07978">
    <ele>2338.84</ele>
   </trkpt>
   <trkpt lat="43.12054999985193" lon="77.07976999989147">
    <ele>2338.78</ele>
   </trkpt>
   <trkpt lat="43.1199" lon="77.07976000000001">
    <ele>2338.65</ele>
   </trkpt>
   <trkpt lat="43.11959" lon="77.07977000000001">
    <ele>2340.01</ele>
   </trkpt>
   <trkpt lat="43.11943" lon="77.07968000000001">
    <ele>2341.99</ele>
   </trkpt>
   <trkpt lat="43.119330000000005" lon="77.07958">
    <ele>2342.65</ele>
   </trkpt>
   <trkpt lat="43.11925" lon="77.07944">
    <ele>2346.3100000000004</ele>
   </trkpt>
   <trkpt lat="43.11914" lon="77.07912">
    <ele>2348.65</ele>
   </trkpt>
   <trkpt lat="43.118900000000004" lon="77.07871">
    <ele>2349.42</ele>
   </trkpt>
   <trkpt lat="43.118520000000004" lon="77.07823">
    <ele>2350.13</ele>
   </trkpt>
   <trkpt lat="43.1184" lon="77.07814">
    <ele>2350.13</ele>
   </trkpt>
   <trkpt lat="43.11822" lon="77.07808">
    <ele>2350.19</ele>
   </trkpt>
   <trkpt lat="43.1178" lon="77.07786">
    <ele>2350.66</ele>
   </trkpt>
   <trkpt lat="43.11757" lon="77.07761">
    <ele>2353.54</ele>
   </trkpt>
   <trkpt lat="43.11739" lon="77.07729">
    <ele>2356.5400000000004</ele>
   </trkpt>
   <trkpt lat="43.117200000000004" lon="77.07709000000001">
    <ele>2359.88</ele>
   </trkpt>
   <trkpt lat="43.11699" lon="77.07694000000001">
    <ele>2365.7700000000004</ele>
   </trkpt>
   <trkpt lat="43.116730000000004" lon="77.07683">
    <ele>2368.97</ele>
   </trkpt>
   <trkpt lat="43.116510000000005" lon="77.07678">
    <ele>2371.0</ele>
   </trkpt>
   <trkpt lat="43.116200000000006" lon="77.07677000000001">
    <ele>2377.76</ele>
   </trkpt>
   <trkpt lat="43.11601" lon="77.07685000000001">
    <ele>2381.57</ele>
   </trkpt>
   <trkpt lat="43.11581" lon="77.07701">
    <ele>2386.57</ele>
   </trkpt>
   <trkpt lat="43.115500000000004" lon="77.07721000000001">
    <ele>2395.41</ele>
   </trkpt>
   <trkpt lat="43.11522" lon="77.07729">
    <ele>2403.1900000000005</ele>
   </trkpt>
   <trkpt lat="43.114830000000005" lon="77.07733">
    <ele>2412.0000000000005</ele>
   </trkpt>
   <trkpt lat="43.11448" lon="77.07734">
    <ele>2418.13</ele>
   </trkpt>
   <trkpt lat="43.11381" lon="77.07724">
    <ele>2431.2500000000005</ele>
   </trkpt>
   <trkpt lat="43.113600000000005" lon="77.07716">
    <ele>2432.94</ele>
   </trkpt>
   <trkpt lat="43.11301" lon="77.07675">
    <ele>2448.52</ele>
   </trkpt>
   <trkpt lat="43.11253500084839" lon="77.0762699961182">
    <ele>2456.14</ele>
   </trkpt>
   <trkpt lat="43.11206000000001" lon="77.07579000000001">
    <ele>2464.44</ele>
   </trkpt>
   <trkpt lat="43.11193" lon="77.07576">
    <ele>2465.67</ele>
   </trkpt>
   <trkpt lat="43.11171" lon="77.07577">
    <ele>2468.36</ele>
   </trkpt>
   <trkpt lat="43.111290000000004" lon="77.07598">
    <ele>2475.57</ele>
   </trkpt>
   <trkpt lat="43.11079" lon="77.07623000000001">
    <ele>2485.56</ele>
   </trkpt>
   <trkpt lat="43.110440000000004" lon="77.0762">
    <ele>2489.2100000000005</ele>
   </trkpt>
   <trkpt lat="43.109835000474995" lon="77.07588499690874">
    <ele>2496.1000000000004</ele>
   </trkpt>
   <trkpt lat="43.109230000000004" lon="77.07557000000001">
    <ele>2506.57</ele>
   </trkpt>
   <trkpt lat="43.109190000000005" lon="77.07558">
    <ele>2506.57</ele>
   </trkpt>
   <trkpt lat="43.10913" lon="77.07564">
    <ele>2506.57</ele>
   </trkpt>
   <trkpt lat="43.10906000000001" lon="77.07597000000001">
    <ele>2512.0</ele>
   </trkpt>
   <trkpt lat="43.109010000000005" lon="77.07612">
    <ele>2515.4100000000003</ele>
   </trkpt>
   <trkpt lat="43.10886000000001" lon="77.0763">
    <ele>2517.6900000000005</ele>
   </trkpt>
   <trkpt lat="43.10878" lon="77.0763">
    <ele>2518.33</ele>
   </trkpt>
   <trkpt lat="43.10866" lon="77.07625">
    <ele>2520.78</ele>
   </trkpt>
   <trkpt lat="43.108430000000006" lon="77.07607">
    <ele>2525.63</ele>
   </trkpt>
   <trkpt lat="43.10813" lon="77.07566000000001">
    <ele>2532.07</ele>
   </trkpt>
   <trkpt lat="43.107980000000005" lon="77.07548000000001">
    <ele>2535.88</ele>
   </trkpt>
   <trkpt lat="43.10774000000001" lon="77.07526">
    <ele>2537.0000000000005</ele>
   </trkpt>
   <trkpt lat="43.10732" lon="77.07504">
    <ele>2549.78</ele>
   </trkpt>
   <trkpt lat="43.1071" lon="77.0749">
    <ele>2551.1000000000004</ele>
   </trkpt>
   <trkpt lat="43.106370000000005" lon="77.07436000000001">
    <ele>2561.03</ele>
   </trkpt>
   <trkpt lat="43.106260000000006" lon="77.07434">
    <ele>2562.6900000000005</ele>
   </trkpt>
   <trkpt lat="43.10627" lon="77.07434">
    <ele>2562.6900000000005</ele>
   </trkpt>
   <trkpt lat="43.10624000000001" lon="77.07435000000001">
    <ele>2562.6900000000005</ele>
   </trkpt>
   <trkpt lat="43.106210000000004" lon="77.07453000000001">
    <ele>2566.0200000000004</ele>
   </trkpt>
   <trkpt lat="43.10643" lon="77.07498000000001">
    <ele>2571.6</ele>
   </trkpt>
   <trkpt lat="43.106500000000004" lon="77.07508">
    <ele>2573.78</ele>
   </trkpt>
   <trkpt lat="43.10649" lon="77.07513">
    <ele>2574.6000000000004</ele>
   </trkpt>
   <trkpt lat="43.106320000000004" lon="77.07520000000001">
    <ele>2578.4200000000005</ele>
   </trkpt>
   <trkpt lat="43.106210000000004" lon="77.07519">
    <ele>2581.57</ele>
   </trkpt>
   <trkpt lat="43.10604" lon="77.07514">
    <ele>2585.42</ele>
   </trkpt>
   <trkpt lat="43.1056" lon="77.07487">
    <ele>2594.4100000000003</ele>
   </trkpt>
   <trkpt lat="43.105340000000005" lon="77.07482">
    <ele>2598.6000000000004</ele>
   </trkpt>
   <trkpt lat="43.104760000000006" lon="77.07501">
    <ele>2608.55</ele>
   </trkpt>
   <trkpt lat="43.104600000000005" lon="77.07504">
    <ele>2610.86</ele>
   </trkpt>
   <trkpt lat="43.1039" lon="77.07509">
    <ele>2624.6200000000003</ele>
   </trkpt>
   <trkpt lat="43.10347" lon="77.07505">
    <ele>2632.0400000000004</ele>
   </trkpt>
   <trkpt lat="43.10305" lon="77.07507000000001">
    <ele>2638.71</ele>
   </trkpt>
   <trkpt lat="43.102880000000006" lon="77.0751">
    <ele>2642.7</ele>
   </trkpt>
   <trkpt lat="43.102740000000004" lon="77.07517">
    <ele>2645.01</ele>
   </trkpt>
   <trkpt lat="43.102270000000004" lon="77.07548000000001">
    <ele>2660.36</ele>
   </trkpt>
   <trkpt lat="43.10213" lon="77.07563">
    <ele>2661.42</ele>
   </trkpt>
   <trkpt lat="43.10211" lon="77.07572">
    <ele>2663.37</ele>
   </trkpt>
   <trkpt lat="43.102050000000006" lon="77.07585">
    <ele>2667.78</ele>
   </trkpt>
   <trkpt lat="43.102030000000006" lon="77.07597000000001">
    <ele>2671.4100000000003</ele>
   </trkpt>
   <trkpt lat="43.10197" lon="77.07607">
    <ele>2673.5</ele>
   </trkpt>
   <trkpt lat="43.10195" lon="77.07615000000001">
    <ele>2682.7400000000002</ele>
   </trkpt>
   <trkpt lat="43.101960000000005" lon="77.07639">
    <ele>2686.8</ele>
   </trkpt>
   <trkpt lat="43.101910000000004" lon="77.07662">
    <ele>2690.26</ele>
   </trkpt>
   <trkpt lat="43.10172" lon="77.07703000000001">
    <ele>2708.96</ele>
   </trkpt>
   <trkpt lat="43.10157" lon="77.07712000000001">
    <ele>2713.4300000000003</ele>
   </trkpt>
   <trkpt lat="43.100820000000006" lon="77.07691000000001">
    <ele>2728.6800000000003</ele>
   </trkpt>
   <trkpt lat="43.10049" lon="77.07695000000001">
    <ele>2743.1400000000003</ele>
   </trkpt>
   <trkpt lat="43.10029" lon="77.07701">
    <ele>2746.36</ele>
   </trkpt>
   <trkpt lat="43.09987" lon="77.07724">
    <ele>2757.8500000000004</ele>
   </trkpt>
   <trkpt lat="43.099500000000006" lon="77.07737">
    <ele>2766.92</ele>
   </trkpt>
   <trkpt lat="43.0992" lon="77.07741">
    <ele>2774.82</ele>
   </trkpt>
   <trkpt lat="43.099070000000005" lon="77.07741">
    <ele>2777.8900000000003</ele>
   </trkpt>
   <trkpt lat="43.09834" lon="77.07719">
    <ele>2792.17</ele>
   </trkpt>
   <trkpt lat="43.09812" lon="77.07721000000001">
    <ele>2797.7400000000002</ele>
   </trkpt>
   <trkpt lat="43.097970000000004" lon="77.07725">
    <ele>2803.13</ele>
   </trkpt>
   <trkpt lat="43.0977" lon="77.07744000000001">
    <ele>2807.02</ele>
   </trkpt>
   <trkpt lat="43.09747" lon="77.07764">
    <ele>2813.4</ele>
   </trkpt>
   <trkpt lat="43.09725" lon="77.07779000000001">
    <ele>2819.53</ele>
   </trkpt>
   <trkpt lat="43.09705" lon="77.07782">
    <ele>2824.6200000000003</ele>
   </trkpt>
   <trkpt lat="43.09667" lon="77.07780000000001">
    <ele>2836.8700000000003</ele>
   </trkpt>
   <trkpt lat="43.096540000000005" lon="77.07783">
    <ele>2838.8500000000004</ele>
   </trkpt>
   <trkpt lat="43.096360000000004" lon="77.07793000000001">
    <ele>2843.86</ele>
   </trkpt>
   <trkpt lat="43.096160000000005" lon="77.07798000000001">
    <ele>2848.03</ele>
   </trkpt>
   <trkpt lat="43.09599" lon="77.07798000000001">
    <ele>2849.59</ele>
   </trkpt>
   <trkpt lat="43.095870000000005" lon="77.07796">
    <ele>2850.9900000000002</ele>
   </trkpt>
   <trkpt lat="43.09561" lon="77.07785000000001">
    <ele>2855.5400000000004</ele>
   </trkpt>
   <trkpt lat="43.095060000000004" lon="77.07769">
    <ele>2863.56</ele>
   </trkpt>
   <trkpt lat="43.094350000000006" lon="77.07763000000001">
    <ele>2878.8300000000004</ele>
   </trkpt>
   <trkpt lat="43.0942" lon="77.07766000000001">
    <ele>2882.7400000000002</ele>
   </trkpt>
   <trkpt lat="43.093880000000006" lon="77.07778">
    <ele>2888.9300000000003</ele>
   </trkpt>
   <trkpt lat="43.09369" lon="77.07780000000001">
    <ele>2892.78</ele>
   </trkpt>
   <trkpt lat="43.09295" lon="77.07768">
    <ele>2913.33</ele>
   </trkpt>
   <trkpt lat="43.09275" lon="77.07768">
    <ele>2917.05</ele>
   </trkpt>
   <trkpt lat="43.092200000076915" lon="77.07784000144692">
    <ele>2923.7300000000005</ele>
   </trkpt>
   <trkpt lat="43.09165" lon="77.078">
    <ele>2930.4500000000003</ele>
   </trkpt>
   <trkpt lat="43.0912" lon="77.07808">
    <ele>2938.0800000000004</ele>
   </trkpt>
   <trkpt lat="43.090650000000004" lon="77.07823">
    <ele>2949.61</ele>
   </trkpt>
   <trkpt lat="43.09012000018157" lon="77.07835000101149">
    <ele>2956.11</ele>
   </trkpt>
   <trkpt lat="43.08959" lon="77.07847000000001">
    <ele>2963.9400000000005</ele>
   </trkpt>
   <trkpt lat="43.08911500011884" lon="77.07865000140433">
    <ele>2970.52</ele>
   </trkpt>
   <trkpt lat="43.088640000000005" lon="77.07883000000001">
    <ele>2977.9500000000003</ele>
   </trkpt>
   <trkpt lat="43.08789" lon="77.07903">
    <ele>2990.3500000000004</ele>
   </trkpt>
   <trkpt lat="43.087680000000006" lon="77.07912">
    <ele>2998.52</ele>
   </trkpt>
   <trkpt lat="43.087300000000006" lon="77.07917">
    <ele>3004.0400000000004</ele>
   </trkpt>
   <trkpt lat="43.086780000000005" lon="77.07921">
    <ele>3009.4</ele>
   </trkpt>
   <trkpt lat="43.08654000000001" lon="77.07918000000001">
    <ele>3011.2</ele>
   </trkpt>
   <trkpt lat="43.086490000000005" lon="77.0792">
    <ele>3011.2</ele>
   </trkpt>
   <trkpt lat="43.08639" lon="77.07923000000001">
    <ele>3012.1000000000004</ele>
   </trkpt>
   <trkpt lat="43.086110000000005" lon="77.0794">
    <ele>3015.2500000000005</ele>
   </trkpt>
   <trkpt lat="43.08569000000001" lon="77.07961">
    <ele>3021.77</ele>
   </trkpt>
   <trkpt lat="43.08552" lon="77.07961">
    <ele>3022.85</ele>
   </trkpt>
   <trkpt lat="43.084950000000006" lon="77.07994000000001">
    <ele>3030.4900000000002</ele>
   </trkpt>
   <trkpt lat="43.08426" lon="77.08005">
    <ele>3036.17</ele>
   </trkpt>
   <trkpt lat="43.08411" lon="77.08012000000001">
    <ele>3036.44</ele>
   </trkpt>
   <trkpt lat="43.08390000000001" lon="77.08014">
    <ele>3037.1400000000003</ele>
   </trkpt>
   <trkpt lat="43.083740000000006" lon="77.08019">
    <ele>3038.1000000000004</ele>
   </trkpt>
   <trkpt lat="43.083540000000006" lon="77.08028">
    <ele>3038.0</ele>
   </trkpt>
   <trkpt lat="43.083360000000006" lon="77.08027000000001">
    <ele>3037.29</ele>
   </trkpt>
   <trkpt lat="43.08317" lon="77.08030000000001">
    <ele>3037.16</ele>
   </trkpt>
   <trkpt lat="43.08301" lon="77.08027000000001">
    <ele>3037.1800000000003</ele>
   </trkpt>
   <trkpt lat="43.082820000000005" lon="77.0802">
    <ele>3037.13</ele>
   </trkpt>
   <trkpt lat="43.08261" lon="77.07990000000001">
    <ele>3036.89</ele>
   </trkpt>
   <trkpt lat="43.082530000000006" lon="77.07964000000001">
    <ele>3037.0800000000004</ele>
   </trkpt>
   <trkpt lat="43.082420000000006" lon="77.07939">
    <ele>3037.2100000000005</ele>
   </trkpt>
   <trkpt lat="43.08218" lon="77.07927000000001">
    <ele>3039.3200000000006</ele>
   </trkpt>
   <trkpt lat="43.08133999988044" lon="77.07926499993074">
    <ele>3049.1200000000003</ele>
   </trkpt>
   <trkpt lat="43.0805" lon="77.07926">
    <ele>3061.8</ele>
   </trkpt>
   <trkpt lat="43.07985" lon="77.0794">
    <ele>3069.08</ele>
   </trkpt>
   <trkpt lat="43.0791950003499" lon="77.07971500340685">
    <ele>3074.4</ele>
   </trkpt>
   <trkpt lat="43.078540000000004" lon="77.08003000000001">
    <ele>3082.31</ele>
   </trkpt>
   <trkpt lat="43.07847" lon="77.08000000000001">
    <ele>3082.9600000000005</ele>
   </trkpt>
   <trkpt lat="43.07838" lon="77.08001">
    <ele>3083.86</ele>
   </trkpt>
   <trkpt lat="43.078120000000006" lon="77.07994000000001">
    <ele>3085.7200000000003</ele>
   </trkpt>
   <trkpt lat="43.07784" lon="77.08001">
    <ele>3089.78</ele>
   </trkpt>
   <trkpt lat="43.07712" lon="77.0797">
    <ele>3094.79</ele>
   </trkpt>
   <trkpt lat="43.076950000000004" lon="77.07933000000001">
    <ele>3096.09</ele>
   </trkpt>
   <trkpt lat="43.076510000000006" lon="77.07904">
    <ele>3103.6500000000005</ele>
   </trkpt>
   <trkpt lat="43.0763" lon="77.07886">
    <ele>3109.9</ele>
   </trkpt>
   <trkpt lat="43.076130000000006" lon="77.07839000000001">
    <ele>3114.6000000000004</ele>
   </trkpt>
   <trkpt lat="43.07607" lon="77.07789000000001">
    <ele>3129.8500000000004</ele>
   </trkpt>
   <trkpt lat="43.076080000000005" lon="77.07761">
    <ele>3133.9900000000002</ele>
   </trkpt>
   <trkpt lat="43.076190000000004" lon="77.07742">
    <ele>3135.63</ele>
   </trkpt>
   <trkpt lat="43.076530000000005" lon="77.07666">
    <ele>3150.04</ele>
   </trkpt>
   <trkpt lat="43.07692" lon="77.07592000000001">
    <ele>3161.3700000000003</ele>
   </trkpt>
   <trkpt lat="43.077220000000004" lon="77.07560000000001">
    <ele>3172.4</ele>
   </trkpt>
   <trkpt lat="43.077580000000005" lon="77.07534000000001">
    <ele>3179.34</ele>
   </trkpt>
   <trkpt lat="43.077890000000004" lon="77.07495">
    <ele>3189.8</ele>
   </trkpt>
   <trkpt lat="43.07818" lon="77.07477">
    <ele>3196.36</ele>
   </trkpt>
   <trkpt lat="43.07837000000001" lon="77.07456">
    <ele>3199.8300000000004</ele>
   </trkpt>
   <trkpt lat="43.078630000000004" lon="77.07415">
    <ele>3207.2200000000003</ele>
   </trkpt>
   <trkpt lat="43.07858" lon="77.07403000000001">
    <ele>3209.6700000000005</ele>
   </trkpt>
   <trkpt lat="43.078450000000004" lon="77.07394000000001">
    <ele>3217.8500000000004</ele>
   </trkpt>
   <trkpt lat="43.078" lon="77.07394000000001">
    <ele>3230.6600000000003</ele>
   </trkpt>
   <trkpt lat="43.07775" lon="77.07400000000001">
    <ele>3234.19</ele>
   </trkpt>
   <trkpt lat="43.07743000000001" lon="77.07391000000001">
    <ele>3242.8800000000006</ele>
   </trkpt>
   <trkpt lat="43.07723" lon="77.07376000000001">
    <ele>3248.34</ele>
   </trkpt>
   <trkpt lat="43.077020000000005" lon="77.07365">
    <ele>3250.1900000000005</ele>
   </trkpt>
   <trkpt lat="43.07678000000001" lon="77.07363000000001">
    <ele>3256.03</ele>
   </trkpt>
   <trkpt lat="43.076550000000005" lon="77.07375">
    <ele>3261.34</ele>
   </trkpt>
   <trkpt lat="43.0762" lon="77.07366">
    <ele>3267.9300000000003</ele>
   </trkpt>
   <trkpt lat="43.07573" lon="77.07368000000001">
    <ele>3276.54</ele>
   </trkpt>
   <trkpt lat="43.07574" lon="77.07367">
    <ele>3276.54</ele>
   </trkpt>
   <trkpt lat="43.075340000000004" lon="77.07374">
    <ele>3282.1300000000006</ele>
   </trkpt>
   <trkpt lat="43.074760000000005" lon="77.07394000000001">
    <ele>3296.81</ele>
   </trkpt>
   <trkpt lat="43.07441" lon="77.07397">
    <ele>3304.4</ele>
   </trkpt>
   <trkpt lat="43.07424" lon="77.07401">
    <ele>3306.86</ele>
   </trkpt>
   <trkpt lat="43.07406" lon="77.07424">
    <ele>3308.86</ele>
   </trkpt>
   <trkpt lat="43.07372" lon="77.07511000000001">
    <ele>3319.82</ele>
   </trkpt>
   <trkpt lat="43.07339" lon="77.07547000000001">
    <ele>3321.2300000000005</ele>
   </trkpt>
   <trkpt lat="43.07311000000001" lon="77.07605000000001">
    <ele>3322.55</ele>
   </trkpt>
   <trkpt lat="43.072900000000004" lon="77.07641000000001">
    <ele>3327.17</ele>
   </trkpt>
   <trkpt lat="43.072680000000005" lon="77.07687">
    <ele>3340.0000000000005</ele>
   </trkpt>
   <trkpt lat="43.072590000000005" lon="77.07695000000001">
    <ele>3340.0000000000005</ele>
   </trkpt>
   <trkpt lat="43.072300000000006" lon="77.07696">
    <ele>3349.55</ele>
   </trkpt>
   <trkpt lat="43.07171500009535" lon="77.0768199986661">
    <ele>3363.8500000000004</ele>
   </trkpt>
   <trkpt lat="43.071130000000004" lon="77.07668000000001">
    <ele>3375.83</ele>
   </trkpt>
   <trkpt lat="43.07092" lon="77.0768">
    <ele>3378.9500000000003</ele>
   </trkpt>
   <trkpt lat="43.07067000000001" lon="77.07701">
    <ele>3382.03</ele>
   </trkpt>
   <trkpt lat="43.070510000000006" lon="77.07736000000001">
    <ele>3385.7400000000002</ele>
   </trkpt>
   <trkpt lat="43.07040000000001" lon="77.07755">
    <ele>3387.3900000000003</ele>
   </trkpt>
   <trkpt lat="43.069970000000005" lon="77.07754000000001">
    <ele>3388.5</ele>
   </trkpt>
   <trkpt lat="43.069480000000006" lon="77.07804">
    <ele>3392.6600000000003</ele>
   </trkpt>
   <trkpt lat="43.06929" lon="77.07825000000001">
    <ele>3393.2000000000003</ele>
   </trkpt>
   <trkpt lat="43.069030000000005" lon="77.07858">
    <ele>3391.8500000000004</ele>
   </trkpt>
   <trkpt lat="43.06846" lon="77.07914000000001">
    <ele>3386.3100000000004</ele>
   </trkpt>
   <trkpt lat="43.0683" lon="77.07926">
    <ele>3384.9000000000005</ele>
   </trkpt>
   <trkpt lat="43.06821" lon="77.07928000000001">
    <ele>3383.3300000000004</ele>
   </trkpt>
   <trkpt lat="43.06819" lon="77.07935">
    <ele>3382.69</ele>
   </trkpt>
   <trkpt lat="43.06824" lon="77.07944">
    <ele>3381.6200000000003</ele>
   </trkpt>
   <trkpt lat="43.06837" lon="77.07955000000001">
    <ele>3380.78</ele>
   </trkpt>
   <trkpt lat="43.068380000000005" lon="77.07977000000001">
    <ele>3380.1600000000003</ele>
   </trkpt>
   <trkpt lat="43.06832000000001" lon="77.07981000000001">
    <ele>3380.1200000000003</ele>
   </trkpt>
   <trkpt lat="43.06826" lon="77.07992">
    <ele>3380.1600000000003</ele>
   </trkpt>
   <trkpt lat="43.0681" lon="77.07988">
    <ele>3379.01</ele>
   </trkpt>
   <trkpt lat="43.06804" lon="77.07995000000001">
    <ele>3378.48</ele>
   </trkpt>
   <trkpt lat="43.06794" lon="77.07997">
    <ele>3376.7400000000002</ele>
   </trkpt>
   <trkpt lat="43.06786" lon="77.08037">
    <ele>3375.07</ele>
   </trkpt>
   <trkpt lat="43.06772" lon="77.08048000000001">
    <ele>3374.7900000000004</ele>
   </trkpt>
   <trkpt lat="43.067530000000005" lon="77.0805">
    <ele>3374.0400000000004</ele>
   </trkpt>
   <trkpt lat="43.067330000000005" lon="77.08046">
    <ele>3373.0</ele>
   </trkpt>
   <trkpt lat="43.067060000000005" lon="77.08068">
    <ele>3370.8500000000004</ele>
   </trkpt>
   <trkpt lat="43.06691" lon="77.08077">
    <ele>3369.8500000000004</ele>
   </trkpt>
   <trkpt lat="43.066590000000005" lon="77.08073">
    <ele>3370.4300000000003</ele>
   </trkpt>
   <trkpt lat="43.066300000000005" lon="77.08079000000001">
    <ele>3371.5200000000004</ele>
   </trkpt>
   <trkpt lat="43.06608000000001" lon="77.0811">
    <ele>3371.9100000000003</ele>
   </trkpt>
   <trkpt lat="43.065960000000004" lon="77.08131">
    <ele>3372.78</ele>
   </trkpt>
   <trkpt lat="43.06588000000001" lon="77.08149">
    <ele>3372.9600000000005</ele>
   </trkpt>
   <trkpt lat="43.065740000000005" lon="77.08169000000001">
    <ele>3373.25</ele>
   </trkpt>
   <trkpt lat="43.0651" lon="77.08235">
    <ele>3375.65</ele>
   </trkpt>
   <trkpt lat="43.06495" lon="77.08252">
    <ele>3376.57</ele>
   </trkpt>
   <trkpt lat="43.06481" lon="77.08272000000001">
    <ele>3378.8900000000003</ele>
   </trkpt>
   <trkpt lat="43.06439" lon="77.08315">
    <ele>3387.44</ele>
   </trkpt>
   <trkpt lat="43.064130000000006" lon="77.08352000000001">
    <ele>3394.6500000000005</ele>
   </trkpt>
   <trkpt lat="43.063950000000006" lon="77.08363">
    <ele>3395.6800000000003</ele>
   </trkpt>
   <trkpt lat="43.063790000000004" lon="77.08378">
    <ele>3397.48</ele>
   </trkpt>
   <trkpt lat="43.063660000000006" lon="77.08395">
    <ele>3398.1600000000003</ele>
   </trkpt>
   <trkpt lat="43.06356" lon="77.08419">
    <ele>3400.2100000000005</ele>
   </trkpt>
   <trkpt lat="43.06347" lon="77.08456000000001">
    <ele>3402.6500000000005</ele>
   </trkpt>
   <trkpt lat="43.063500000000005" lon="77.08516">
    <ele>3402.3700000000003</ele>
   </trkpt>
   <trkpt lat="43.063550000000006" lon="77.08548">
    <ele>3400.84</ele>
   </trkpt>
   <trkpt lat="43.06365" lon="77.0858">
    <ele>3400.6800000000003</ele>
   </trkpt>
   <trkpt lat="43.06385" lon="77.08661000000001">
    <ele>3406.23</ele>
   </trkpt>
   <trkpt lat="43.06376" lon="77.08684000000001">
    <ele>3412.4800000000005</ele>
   </trkpt>
   <trkpt lat="43.06344000000001" lon="77.08705">
    <ele>3417.66</ele>
   </trkpt>
   <trkpt lat="43.06326000000001" lon="77.08708">
    <ele>3419.11</ele>
   </trkpt>
  </trkseg>
 </trk>
</gpx>
