<?xml version="1.0" encoding="UTF-8"?>
<gpx creator="StravaGPX" version="1.1" xmlns="http://www.topografix.com/GPX/1/1" xmlns:xsi="http://www.w3.org/2001/XMLSchema-instance" xsi:schemaLocation="http://www.topografix.com/GPX/1/1 http://www.topografix.com/GPX/1/1/gpx.xsd">
 <metadata>
  <name>Малая кругосветка</name>
  <author>
   <name>Vladimir Sumarokov 🇰🇿🇷🇺🇹🇭</name>
   <link href="https://www.strava.com/athletes/16069938"/>
  </author>
  <copyright author="OpenStreetMap contributors">
   <year>2020</year>
   <license>https://www.openstreetmap.org/copyright</license>
  </copyright>
  <link href="https://www.strava.com/routes/3237467443326073718"/>
 </metadata>
 <trk>
  <name>Малая кругосветка</name>
  <link href="https://www.strava.com/routes/3237467443326073718"/>
  <type>hiking</type>
  <trkseg>
   <trkpt lat="43.165060000000004" lon="77.07293">
    <ele>1847.66</ele>
   </trkpt>
   <trkpt lat="43.16480000000001" lon="77.07319000000001">
    <ele>1854.38</ele>
   </trkpt>
   <trkpt lat="43.1644" lon="77.07334">
    <ele>1861.7700000000002</ele>
   </trkpt>
   <trkpt lat="43.16411" lon="77.07336000000001">
    <ele>1862.72</ele>
   </trkpt>
   <trkpt lat="43.164030000000004" lon="77.07327000000001">
    <ele>1862.72</ele>
   </trkpt>
   <trkpt lat="43.164030000000004" lon="77.07314000000001">
    <ele>1862.4</ele>
   </trkpt>
   <trkpt lat="43.163940000000004" lon="77.07304">
    <ele>1862.5200000000002</ele>
   </trkpt>
   <trkpt lat="43.163830000000004" lon="77.07302">
    <ele>1863.8400000000001</ele>
   </trkpt>
   <trkpt lat="43.163650000000004" lon="77.07313">
    <ele>1865.8100000000002</ele>
   </trkpt>
   <trkpt lat="43.16322" lon="77.07365">
    <ele>1876.96</ele>
   </trkpt>
   <trkpt lat="43.1631" lon="77.07395000000001">
    <ele>1881.1400000000003</ele>
   </trkpt>
   <trkpt lat="43.16301000000001" lon="77.07433">
    <ele>1885.38</ele>
   </trkpt>
   <trkpt lat="43.1629" lon="77.07549">
    <ele>1896.7300000000002</ele>
   </trkpt>
   <trkpt lat="43.162760000000006" lon="77.07659000000001">
    <ele>1909.88</ele>
   </trkpt>
   <trkpt lat="43.16284" lon="77.07693">
    <ele>1912.6900000000003</ele>
   </trkpt>
   <trkpt lat="43.16283000000001" lon="77.07707">
    <ele>1916.3300000000002</ele>
   </trkpt>
   <trkpt lat="43.162780000000005" lon="77.0772">
    <ele>1916.3300000000002</ele>
   </trkpt>
   <trkpt lat="43.16221500321313" lon="77.07806000796444">
    <ele>1933.5900000000001</ele>
   </trkpt>
   <trkpt lat="43.16165" lon="77.07892000000001">
    <ele>1949.13</ele>
   </trkpt>
   <trkpt lat="43.16109" lon="77.0797">
    <ele>1963.8400000000001</ele>
   </trkpt>
   <trkpt lat="43.160645000604994" lon="77.08009000289074">
    <ele>1973.2300000000002</ele>
   </trkpt>
   <trkpt lat="43.1602" lon="77.08048000000001">
    <ele>1984.7400000000002</ele>
   </trkpt>
   <trkpt lat="43.15983000000001" lon="77.08106000000001">
    <ele>1998.3400000000001</ele>
   </trkpt>
   <trkpt lat="43.15959" lon="77.08134000000001">
    <ele>2005.29</ele>
   </trkpt>
   <trkpt lat="43.15939" lon="77.08163">
    <ele>2009.71</ele>
   </trkpt>
   <trkpt lat="43.159180000000006" lon="77.08223000000001">
    <ele>2021.3300000000002</ele>
   </trkpt>
   <trkpt lat="43.15899" lon="77.08292">
    <ele>2036.4600000000003</ele>
   </trkpt>
   <trkpt lat="43.158910000000006" lon="77.08330000000001">
    <ele>2042.0000000000002</ele>
   </trkpt>
   <trkpt lat="43.15887" lon="77.08382">
    <ele>2049.7</ele>
   </trkpt>
   <trkpt lat="43.15889000000001" lon="77.08434000000001">
    <ele>2058.2400000000002</ele>
   </trkpt>
   <trkpt lat="43.158840000000005" lon="77.08468">
    <ele>2065.86</ele>
   </trkpt>
   <trkpt lat="43.158840000000005" lon="77.08489">
    <ele>2068.81</ele>
   </trkpt>
   <trkpt lat="43.15889000000001" lon="77.08502">
    <ele>2072.1000000000004</ele>
   </trkpt>
   <trkpt lat="43.159420000000004" lon="77.08596">
    <ele>2094.9300000000003</ele>
   </trkpt>
   <trkpt lat="43.15963000000001" lon="77.08614">
    <ele>2101.53</ele>
   </trkpt>
   <trkpt lat="43.159760000000006" lon="77.08630000000001">
    <ele>2106.16</ele>
   </trkpt>
   <trkpt lat="43.16002" lon="77.0865">
    <ele>2110.11</ele>
   </trkpt>
   <trkpt lat="43.160450000000004" lon="77.08711000000001">
    <ele>2116.81</ele>
   </trkpt>
   <trkpt lat="43.160630000000005" lon="77.08743000000001">
    <ele>2121.05</ele>
   </trkpt>
   <trkpt lat="43.16086000000001" lon="77.08766">
    <ele>2127.3500000000004</ele>
   </trkpt>
   <trkpt lat="43.161010000000005" lon="77.08789">
    <ele>2131.65</ele>
   </trkpt>
   <trkpt lat="43.161080000000005" lon="77.08806000000001">
    <ele>2133.34</ele>
   </trkpt>
   <trkpt lat="43.161080000000005" lon="77.08805000000001">
    <ele>2133.34</ele>
   </trkpt>
   <trkpt lat="43.16105" lon="77.08927000000001">
    <ele>2150.3300000000004</ele>
   </trkpt>
   <trkpt lat="43.16098" lon="77.09007000000001">
    <ele>2160.07</ele>
   </trkpt>
   <trkpt lat="43.160875004652546" lon="77.09110500189631">
    <ele>2179.4100000000003</ele>
   </trkpt>
   <trkpt lat="43.16077000000001" lon="77.09214">
    <ele>2202.69</ele>
   </trkpt>
   <trkpt lat="43.16069" lon="77.09319">
    <ele>2219.13</ele>
   </trkpt>
   <trkpt lat="43.160450000000004" lon="77.09389">
    <ele>2231.17</ele>
   </trkpt>
   <trkpt lat="43.16030000000001" lon="77.09425">
    <ele>2238.2500000000005</ele>
   </trkpt>
   <trkpt lat="43.160160000000005" lon="77.09481000000001">
    <ele>2251.5400000000004</ele>
   </trkpt>
   <trkpt lat="43.15964000197118" lon="77.0954900058425">
    <ele>2268.21</ele>
   </trkpt>
   <trkpt lat="43.15912" lon="77.09617">
    <ele>2283.19</ele>
   </trkpt>
   <trkpt lat="43.159110000000005" lon="77.09617">
    <ele>2272.32</ele>
   </trkpt>
   <trkpt lat="43.15928" lon="77.09635">
    <ele>2276.79</ele>
   </trkpt>
   <trkpt lat="43.15961" lon="77.09628000000001">
    <ele>2280.2999999999997</ele>
   </trkpt>
   <trkpt lat="43.15961" lon="77.09627">
    <ele>2279.53</ele>
   </trkpt>
   <trkpt lat="43.16015" lon="77.09644">
    <ele>2297.27</ele>
   </trkpt>
   <trkpt lat="43.160210000000006" lon="77.09624000000001">
    <ele>2293.38</ele>
   </trkpt>
   <trkpt lat="43.160210000000006" lon="77.09623">
    <ele>2293.38</ele>
   </trkpt>
   <trkpt lat="43.160630000000005" lon="77.09583">
    <ele>2295.57</ele>
   </trkpt>
   <trkpt lat="43.16087" lon="77.09580000000001">
    <ele>2304.59</ele>
   </trkpt>
   <trkpt lat="43.1612" lon="77.09542">
    <ele>2307.17</ele>
   </trkpt>
   <trkpt lat="43.161570000000005" lon="77.09554">
    <ele>2317.88</ele>
   </trkpt>
   <trkpt lat="43.162130000000005" lon="77.09577">
    <ele>2338.6600000000003</ele>
   </trkpt>
   <trkpt lat="43.16252" lon="77.09528">
    <ele>2331.8</ele>
   </trkpt>
   <trkpt lat="43.162710000000004" lon="77.09513000000001">
    <ele>2330.4</ele>
   </trkpt>
   <trkpt lat="43.1627" lon="77.09573">
    <ele>2343.4600000000005</ele>
   </trkpt>
   <trkpt lat="43.16272" lon="77.09582">
    <ele>2347.82</ele>
   </trkpt>
   <trkpt lat="43.16272" lon="77.09595">
    <ele>2351.83</ele>
   </trkpt>
   <trkpt lat="43.162800000000004" lon="77.09628000000001">
    <ele>2358.9700000000003</ele>
   </trkpt>
   <trkpt lat="43.16281" lon="77.09654">
    <ele>2364.4200000000005</ele>
   </trkpt>
   <trkpt lat="43.162780000000005" lon="77.09672">
    <ele>2365.6</ele>
   </trkpt>
   <trkpt lat="43.16257" lon="77.0973">
    <ele>2383.34</ele>
   </trkpt>
   <trkpt lat="43.16216" lon="77.09777000000001">
    <ele>2396.7</ele>
   </trkpt>
   <trkpt lat="43.16199" lon="77.09832">
    <ele>2408.73</ele>
   </trkpt>
   <trkpt lat="43.16187" lon="77.09901">
    <ele>2420.44</ele>
   </trkpt>
   <trkpt lat="43.161770000000004" lon="77.09919000000001">
    <ele>2422.66</ele>
   </trkpt>
   <trkpt lat="43.16165" lon="77.09955000000001">
    <ele>2433.9500000000003</ele>
   </trkpt>
   <trkpt lat="43.161590000000004" lon="77.10000000000001">
    <ele>2445.7200000000003</ele>
   </trkpt>
   <trkpt lat="43.161410000000004" lon="77.1006">
    <ele>2456.8100000000004</ele>
   </trkpt>
   <trkpt lat="43.161100000000005" lon="77.10116000000001">
    <ele>2474.9800000000005</ele>
   </trkpt>
   <trkpt lat="43.1606" lon="77.10146">
    <ele>2494.8900000000003</ele>
   </trkpt>
   <trkpt lat="43.16048000000001" lon="77.10169">
    <ele>2502.75</ele>
   </trkpt>
   <trkpt lat="43.160160000000005" lon="77.10228000000001">
    <ele>2524.2200000000003</ele>
   </trkpt>
   <trkpt lat="43.159960000000005" lon="77.10286">
    <ele>2531.3500000000004</ele>
   </trkpt>
   <trkpt lat="43.15993" lon="77.1029">
    <ele>2531.3500000000004</ele>
   </trkpt>
   <trkpt lat="43.15977" lon="77.10304000000001">
    <ele>2534.98</ele>
   </trkpt>
   <trkpt lat="43.15955" lon="77.10349000000001">
    <ele>2539.52</ele>
   </trkpt>
   <trkpt lat="43.159400000000005" lon="77.10373000000001">
    <ele>2541.55</ele>
   </trkpt>
   <trkpt lat="43.159240000000004" lon="77.10417000000001">
    <ele>2546.42</ele>
   </trkpt>
   <trkpt lat="43.15919" lon="77.10431000000001">
    <ele>2548.3300000000004</ele>
   </trkpt>
   <trkpt lat="43.15881" lon="77.10492">
    <ele>2561.26</ele>
   </trkpt>
   <trkpt lat="43.15863" lon="77.10546000000001">
    <ele>2571.05</ele>
   </trkpt>
   <trkpt lat="43.15842000000001" lon="77.1058">
    <ele>2587.31</ele>
   </trkpt>
   <trkpt lat="43.158100000000005" lon="77.10684">
    <ele>2617.5800000000004</ele>
   </trkpt>
   <trkpt lat="43.15809" lon="77.10736">
    <ele>2629.4300000000003</ele>
   </trkpt>
   <trkpt lat="43.158010000000004" lon="77.10744000000001">
    <ele>2632.08</ele>
   </trkpt>
   <trkpt lat="43.15778" lon="77.10756">
    <ele>2635.88</ele>
   </trkpt>
   <trkpt lat="43.15751" lon="77.1079">
    <ele>2647.11</ele>
   </trkpt>
   <trkpt lat="43.15724" lon="77.10835">
    <ele>2661.89</ele>
   </trkpt>
   <trkpt lat="43.15717" lon="77.10868">
    <ele>2669.65</ele>
   </trkpt>
   <trkpt lat="43.15710000000001" lon="77.10881">
    <ele>2673.3700000000003</ele>
   </trkpt>
   <trkpt lat="43.15695" lon="77.10887000000001">
    <ele>2675.76</ele>
   </trkpt>
   <trkpt lat="43.156870000000005" lon="77.10904000000001">
    <ele>2677.74</ele>
   </trkpt>
   <trkpt lat="43.15652" lon="77.10955000000001">
    <ele>2686.73</ele>
   </trkpt>
   <trkpt lat="43.15619" lon="77.11025000000001">
    <ele>2696.48</ele>
   </trkpt>
   <trkpt lat="43.155930000000005" lon="77.11107000000001">
    <ele>2707.6600000000003</ele>
   </trkpt>
   <trkpt lat="43.15560000000001" lon="77.11191000000001">
    <ele>2714.5800000000004</ele>
   </trkpt>
   <trkpt lat="43.15534" lon="77.11216">
    <ele>2725.56</ele>
   </trkpt>
   <trkpt lat="43.15534" lon="77.11259000000001">
    <ele>2730.9300000000003</ele>
   </trkpt>
   <trkpt lat="43.155440000000006" lon="77.11298000000001">
    <ele>2743.25</ele>
   </trkpt>
   <trkpt lat="43.155350000000006" lon="77.11362000000001">
    <ele>2753.88</ele>
   </trkpt>
   <trkpt lat="43.15543" lon="77.11389000000001">
    <ele>2759.85</ele>
   </trkpt>
   <trkpt lat="43.15547" lon="77.11410000000001">
    <ele>2763.01</ele>
   </trkpt>
   <trkpt lat="43.15529" lon="77.11431">
    <ele>2768.55</ele>
   </trkpt>
   <trkpt lat="43.15527" lon="77.11447000000001">
    <ele>2771.46</ele>
   </trkpt>
   <trkpt lat="43.155120000000004" lon="77.1145">
    <ele>2780.85</ele>
   </trkpt>
   <trkpt lat="43.15514" lon="77.11464000000001">
    <ele>2780.85</ele>
   </trkpt>
   <trkpt lat="43.15493" lon="77.11471">
    <ele>2789.36</ele>
   </trkpt>
   <trkpt lat="43.15489" lon="77.11478000000001">
    <ele>2801.34</ele>
   </trkpt>
   <trkpt lat="43.15482" lon="77.11472">
    <ele>2801.34</ele>
   </trkpt>
   <trkpt lat="43.154790000000006" lon="77.11488">
    <ele>2807.73</ele>
   </trkpt>
   <trkpt lat="43.15471" lon="77.11491000000001">
    <ele>2809.52</ele>
   </trkpt>
   <trkpt lat="43.15467" lon="77.11482000000001">
    <ele>2814.5800000000004</ele>
   </trkpt>
   <trkpt lat="43.15446" lon="77.11467">
    <ele>2825.42</ele>
   </trkpt>
   <trkpt lat="43.15413" lon="77.11452000000001">
    <ele>2835.34</ele>
   </trkpt>
   <trkpt lat="43.15391" lon="77.11456000000001">
    <ele>2840.17</ele>
   </trkpt>
   <trkpt lat="43.15364" lon="77.11448">
    <ele>2851.0600000000004</ele>
   </trkpt>
   <trkpt lat="43.15359" lon="77.11456000000001">
    <ele>2852.61</ele>
   </trkpt>
   <trkpt lat="43.15344" lon="77.11456000000001">
    <ele>2855.4600000000005</ele>
   </trkpt>
   <trkpt lat="43.15296" lon="77.11464000000001">
    <ele>2875.3300000000004</ele>
   </trkpt>
   <trkpt lat="43.152620000000006" lon="77.11504000000001">
    <ele>2899.09</ele>
   </trkpt>
   <trkpt lat="43.152570000000004" lon="77.11504000000001">
    <ele>2902.9700000000003</ele>
   </trkpt>
   <trkpt lat="43.15254" lon="77.11491000000001">
    <ele>2906.48</ele>
   </trkpt>
   <trkpt lat="43.15247" lon="77.11495000000001">
    <ele>2908.1</ele>
   </trkpt>
   <trkpt lat="43.152420000000006" lon="77.11491000000001">
    <ele>2909.6400000000003</ele>
   </trkpt>
   <trkpt lat="43.15211" lon="77.11500000000001">
    <ele>2922.09</ele>
   </trkpt>
   <trkpt lat="43.15195000000001" lon="77.11493">
    <ele>2928.5400000000004</ele>
   </trkpt>
   <trkpt lat="43.151860000000006" lon="77.11478000000001">
    <ele>2933.6200000000003</ele>
   </trkpt>
   <trkpt lat="43.15182" lon="77.11476">
    <ele>2933.6200000000003</ele>
   </trkpt>
   <trkpt lat="43.15131" lon="77.11497">
    <ele>2968.0600000000004</ele>
   </trkpt>
   <trkpt lat="43.15122" lon="77.11499">
    <ele>2976.69</ele>
   </trkpt>
   <trkpt lat="43.15093" lon="77.11526">
    <ele>2988.4000000000005</ele>
   </trkpt>
   <trkpt lat="43.150780000000005" lon="77.11528000000001">
    <ele>3001.59</ele>
   </trkpt>
   <trkpt lat="43.15075" lon="77.11519000000001">
    <ele>3005.78</ele>
   </trkpt>
   <trkpt lat="43.15054000000001" lon="77.11497">
    <ele>3013.52</ele>
   </trkpt>
   <trkpt lat="43.150000000000006" lon="77.11543">
    <ele>3034.04</ele>
   </trkpt>
   <trkpt lat="43.149710000000006" lon="77.116">
    <ele>3038.5099999999998</ele>
   </trkpt>
   <trkpt lat="43.14936" lon="77.11622000000001">
    <ele>3039.2200000000003</ele>
   </trkpt>
   <trkpt lat="43.14916" lon="77.11635000000001">
    <ele>3038.73</ele>
   </trkpt>
   <trkpt lat="43.148810000000005" lon="77.11647">
    <ele>3037.25</ele>
   </trkpt>
   <trkpt lat="43.148540000000004" lon="77.11661000000001">
    <ele>3037.4200000000005</ele>
   </trkpt>
   <trkpt lat="43.14837000000001" lon="77.11693000000001">
    <ele>3037.6900000000005</ele>
   </trkpt>
   <trkpt lat="43.14810000000001" lon="77.11706000000001">
    <ele>3046.26</ele>
   </trkpt>
   <trkpt lat="43.147690000000004" lon="77.11747000000001">
    <ele>3058.3500000000004</ele>
   </trkpt>
   <trkpt lat="43.14734000000001" lon="77.11752000000001">
    <ele>3068.9900000000002</ele>
   </trkpt>
   <trkpt lat="43.147200000000005" lon="77.11760000000001">
    <ele>3071.09</ele>
   </trkpt>
   <trkpt lat="43.14681" lon="77.11792000000001">
    <ele>3084.69</ele>
   </trkpt>
   <trkpt lat="43.146330000000006" lon="77.11804000000001">
    <ele>3096.7000000000003</ele>
   </trkpt>
   <trkpt lat="43.14578" lon="77.11847">
    <ele>3117.51</ele>
   </trkpt>
   <trkpt lat="43.14544" lon="77.11865">
    <ele>3129.35</ele>
   </trkpt>
   <trkpt lat="43.145320000000005" lon="77.11863000000001">
    <ele>3132.81</ele>
   </trkpt>
   <trkpt lat="43.145230000000005" lon="77.11868000000001">
    <ele>3136.6</ele>
   </trkpt>
   <trkpt lat="43.14511" lon="77.1187">
    <ele>3136.6</ele>
   </trkpt>
   <trkpt lat="43.14513" lon="77.11885000000001">
    <ele>3150.5</ele>
   </trkpt>
   <trkpt lat="43.14508" lon="77.11896">
    <ele>3150.5</ele>
   </trkpt>
   <trkpt lat="43.144830000000006" lon="77.11908000000001">
    <ele>3167.0200000000004</ele>
   </trkpt>
   <trkpt lat="43.14475" lon="77.11915">
    <ele>3167.0200000000004</ele>
   </trkpt>
   <trkpt lat="43.144600000000004" lon="77.11916000000001">
    <ele>3174.6800000000003</ele>
   </trkpt>
   <trkpt lat="43.144490000000005" lon="77.11935000000001">
    <ele>3180.1600000000003</ele>
   </trkpt>
   <trkpt lat="43.144360000000006" lon="77.11946">
    <ele>3186.97</ele>
   </trkpt>
   <trkpt lat="43.14434000000001" lon="77.11941">
    <ele>3186.97</ele>
   </trkpt>
   <trkpt lat="43.14425000000001" lon="77.11936">
    <ele>3190.85</ele>
   </trkpt>
   <trkpt lat="43.144090000000006" lon="77.11914">
    <ele>3194.26</ele>
   </trkpt>
   <trkpt lat="43.143950000000004" lon="77.11907000000001">
    <ele>3198.1</ele>
   </trkpt>
   <trkpt lat="43.14378000000001" lon="77.11882">
    <ele>3201.6400000000003</ele>
   </trkpt>
   <trkpt lat="43.143600000000006" lon="77.11863000000001">
    <ele>3207.6900000000005</ele>
   </trkpt>
   <trkpt lat="43.143460000000005" lon="77.11817">
    <ele>3214.98</ele>
   </trkpt>
   <trkpt lat="43.143330000000006" lon="77.11793">
    <ele>3223.86</ele>
   </trkpt>
   <trkpt lat="43.143240000000006" lon="77.11767">
    <ele>3226.26</ele>
   </trkpt>
   <trkpt lat="43.14311" lon="77.11742000000001">
    <ele>3234.3900000000003</ele>
   </trkpt>
   <trkpt lat="43.14298" lon="77.11707000000001">
    <ele>3244.07</ele>
   </trkpt>
   <trkpt lat="43.142810000000004" lon="77.11692000000001">
    <ele>3247.76</ele>
   </trkpt>
   <trkpt lat="43.14228000000001" lon="77.11679000000001">
    <ele>3247.98</ele>
   </trkpt>
   <trkpt lat="43.14191" lon="77.11694">
    <ele>3254.28</ele>
   </trkpt>
   <trkpt lat="43.14159" lon="77.117">
    <ele>3264.8</ele>
   </trkpt>
   <trkpt lat="43.14139" lon="77.11716000000001">
    <ele>3270.03</ele>
   </trkpt>
   <trkpt lat="43.140800000000006" lon="77.11736">
    <ele>3279.3300000000004</ele>
   </trkpt>
   <trkpt lat="43.140460000000004" lon="77.11704">
    <ele>3285.8</ele>
   </trkpt>
   <trkpt lat="43.13994" lon="77.1169">
    <ele>3286.1300000000006</ele>
   </trkpt>
   <trkpt lat="43.13953" lon="77.11654">
    <ele>3279.9600000000005</ele>
   </trkpt>
   <trkpt lat="43.13922" lon="77.11631000000001">
    <ele>3275.6000000000004</ele>
   </trkpt>
   <trkpt lat="43.13862" lon="77.11633">
    <ele>3266.9100000000003</ele>
   </trkpt>
   <trkpt lat="43.138190000052205" lon="77.11613499857728">
    <ele>3266.3900000000003</ele>
   </trkpt>
   <trkpt lat="43.13776" lon="77.11594000000001">
    <ele>3269.6500000000005</ele>
   </trkpt>
   <trkpt lat="43.1372" lon="77.11578">
    <ele>3277.09</ele>
   </trkpt>
   <trkpt lat="43.136610000000005" lon="77.11607000000001">
    <ele>3278.6400000000003</ele>
   </trkpt>
   <trkpt lat="43.136030000000005" lon="77.11606">
    <ele>3283.1400000000003</ele>
   </trkpt>
   <trkpt lat="43.13586" lon="77.11599000000001">
    <ele>3284.81</ele>
   </trkpt>
   <trkpt lat="43.13570000000001" lon="77.11623">
    <ele>3288.55</ele>
   </trkpt>
   <trkpt lat="43.13564" lon="77.11646">
    <ele>3293.81</ele>
   </trkpt>
   <trkpt lat="43.13566" lon="77.11663">
    <ele>3296.19</ele>
   </trkpt>
   <trkpt lat="43.13533" lon="77.11673">
    <ele>3304.7500000000005</ele>
   </trkpt>
   <trkpt lat="43.13521" lon="77.11668">
    <ele>3306.76</ele>
   </trkpt>
   <trkpt lat="43.135040000000004" lon="77.11651">
    <ele>3311.3900000000003</ele>
   </trkpt>
   <trkpt lat="43.13483" lon="77.11657000000001">
    <ele>3317.1600000000003</ele>
   </trkpt>
   <trkpt lat="43.13485" lon="77.11688000000001">
    <ele>3320.9600000000005</ele>
   </trkpt>
   <trkpt lat="43.13465" lon="77.11688000000001">
    <ele>3323.9300000000003</ele>
   </trkpt>
   <trkpt lat="43.13443" lon="77.11675000000001">
    <ele>3331.0000000000005</ele>
   </trkpt>
   <trkpt lat="43.13429" lon="77.11691">
    <ele>3326.56</ele>
   </trkpt>
   <trkpt lat="43.13401" lon="77.11686">
    <ele>3319.85</ele>
   </trkpt>
   <trkpt lat="43.13389" lon="77.11668">
    <ele>3319.85</ele>
   </trkpt>
   <trkpt lat="43.133810000000004" lon="77.11664">
    <ele>3312.53</ele>
   </trkpt>
   <trkpt lat="43.133790000000005" lon="77.11681">
    <ele>3312.53</ele>
   </trkpt>
   <trkpt lat="43.13367" lon="77.11670000000001">
    <ele>3310.7400000000002</ele>
   </trkpt>
   <trkpt lat="43.13342" lon="77.11684000000001">
    <ele>3305.0500000000006</ele>
   </trkpt>
   <trkpt lat="43.13327" lon="77.11697000000001">
    <ele>3302.55</ele>
   </trkpt>
   <trkpt lat="43.133340000000004" lon="77.11723">
    <ele>3300.65</ele>
   </trkpt>
   <trkpt lat="43.133340000000004" lon="77.11722">
    <ele>3300.8</ele>
   </trkpt>
   <trkpt lat="43.13336" lon="77.1173">
    <ele>3300.2200000000003</ele>
   </trkpt>
   <trkpt lat="43.133120000000005" lon="77.11745">
    <ele>3295.1200000000003</ele>
   </trkpt>
   <trkpt lat="43.132560000000005" lon="77.11697000000001">
    <ele>3278.75</ele>
   </trkpt>
   <trkpt lat="43.132340000000006" lon="77.11705">
    <ele>3269.7100000000005</ele>
   </trkpt>
   <trkpt lat="43.13158000000001" lon="77.11687">
    <ele>3258.35</ele>
   </trkpt>
   <trkpt lat="43.131260000000005" lon="77.11696">
    <ele>3260.6400000000003</ele>
   </trkpt>
   <trkpt lat="43.1308" lon="77.11703">
    <ele>3268.4900000000002</ele>
   </trkpt>
   <trkpt lat="43.13044" lon="77.11717">
    <ele>3279.59</ele>
   </trkpt>
   <trkpt lat="43.12989" lon="77.1173">
    <ele>3297.6200000000003</ele>
   </trkpt>
   <trkpt lat="43.12939" lon="77.11757">
    <ele>3317.2400000000002</ele>
   </trkpt>
   <trkpt lat="43.12921" lon="77.11775">
    <ele>3328.7700000000004</ele>
   </trkpt>
   <trkpt lat="43.12913" lon="77.11766">
    <ele>3332.7000000000003</ele>
   </trkpt>
   <trkpt lat="43.12888" lon="77.11758">
    <ele>3345.6400000000003</ele>
   </trkpt>
   <trkpt lat="43.128600000000006" lon="77.11759">
    <ele>3361.28</ele>
   </trkpt>
   <trkpt lat="43.12836" lon="77.11764000000001">
    <ele>3368.4200000000005</ele>
   </trkpt>
   <trkpt lat="43.128190000000004" lon="77.11796000000001">
    <ele>3380.44</ele>
   </trkpt>
   <trkpt lat="43.128080000000004" lon="77.11810000000001">
    <ele>3382.17</ele>
   </trkpt>
   <trkpt lat="43.12796" lon="77.11842">
    <ele>3388.91</ele>
   </trkpt>
   <trkpt lat="43.12758" lon="77.11903000000001">
    <ele>3415.8100000000004</ele>
   </trkpt>
   <trkpt lat="43.127460000000006" lon="77.11908000000001">
    <ele>3417.66</ele>
   </trkpt>
   <trkpt lat="43.12736" lon="77.11898000000001">
    <ele>3420.0800000000004</ele>
   </trkpt>
   <trkpt lat="43.127280000000006" lon="77.11884">
    <ele>3422.0800000000004</ele>
   </trkpt>
   <trkpt lat="43.126990000000006" lon="77.11868000000001">
    <ele>3422.0</ele>
   </trkpt>
   <trkpt lat="43.12666" lon="77.11818000000001">
    <ele>3422.88</ele>
   </trkpt>
   <trkpt lat="43.126340000000006" lon="77.11799">
    <ele>3413.0200000000004</ele>
   </trkpt>
   <trkpt lat="43.12604" lon="77.11777000000001">
    <ele>3406.9100000000003</ele>
   </trkpt>
   <trkpt lat="43.12583" lon="77.11733000000001">
    <ele>3410.78</ele>
   </trkpt>
   <trkpt lat="43.125840000000004" lon="77.11722">
    <ele>3412.2400000000002</ele>
   </trkpt>
   <trkpt lat="43.125130000000006" lon="77.11686">
    <ele>3413.87</ele>
   </trkpt>
   <trkpt lat="43.124790000000004" lon="77.1165">
    <ele>3423.75</ele>
   </trkpt>
   <trkpt lat="43.12444000000001" lon="77.11602">
    <ele>3432.0000000000005</ele>
   </trkpt>
   <trkpt lat="43.12444000000001" lon="77.11601">
    <ele>3432.02</ele>
   </trkpt>
   <trkpt lat="43.1244" lon="77.11596">
    <ele>3432.17</ele>
   </trkpt>
   <trkpt lat="43.12433" lon="77.11578">
    <ele>3432.64</ele>
   </trkpt>
   <trkpt lat="43.12411" lon="77.11582">
    <ele>3434.4500000000003</ele>
   </trkpt>
   <trkpt lat="43.123920000000005" lon="77.11563000000001">
    <ele>3436.76</ele>
   </trkpt>
   <trkpt lat="43.12384" lon="77.11551">
    <ele>3437.2000000000003</ele>
   </trkpt>
   <trkpt lat="43.1236" lon="77.11543">
    <ele>3432.43</ele>
   </trkpt>
   <trkpt lat="43.123360000000005" lon="77.11546000000001">
    <ele>3422.3100000000004</ele>
   </trkpt>
   <trkpt lat="43.123250000000006" lon="77.11536000000001">
    <ele>3419.41</ele>
   </trkpt>
   <trkpt lat="43.122980000000005" lon="77.11532000000001">
    <ele>3409.4300000000003</ele>
   </trkpt>
   <trkpt lat="43.12265" lon="77.11503">
    <ele>3401.5800000000004</ele>
   </trkpt>
   <trkpt lat="43.1223" lon="77.11451000000001">
    <ele>3391.5200000000004</ele>
   </trkpt>
   <trkpt lat="43.12212" lon="77.11435">
    <ele>3388.6000000000004</ele>
   </trkpt>
   <trkpt lat="43.122020000000006" lon="77.11410000000001">
    <ele>3384.91</ele>
   </trkpt>
   <trkpt lat="43.121590000000005" lon="77.11343000000001">
    <ele>3378.71</ele>
   </trkpt>
   <trkpt lat="43.12111" lon="77.11245000000001">
    <ele>3375.11</ele>
   </trkpt>
   <trkpt lat="43.12068" lon="77.11241000000001">
    <ele>3355.71</ele>
   </trkpt>
   <trkpt lat="43.12026" lon="77.11248">
    <ele>3340.0000000000005</ele>
   </trkpt>
   <trkpt lat="43.11961" lon="77.11249000000001">
    <ele>3306.65</ele>
   </trkpt>
   <trkpt lat="43.11905" lon="77.11199">
    <ele>3279.82</ele>
   </trkpt>
   <trkpt lat="43.1188" lon="77.11202">
    <ele>3278.15</ele>
   </trkpt>
   <trkpt lat="43.118570000000005" lon="77.11232000000001">
    <ele>3265.9900000000002</ele>
   </trkpt>
   <trkpt lat="43.11838" lon="77.11228000000001">
    <ele>3256.0</ele>
   </trkpt>
   <trkpt lat="43.11784" lon="77.11192000000001">
    <ele>3231.17</ele>
   </trkpt>
   <trkpt lat="43.11750000000001" lon="77.11185">
    <ele>3215.55</ele>
   </trkpt>
   <trkpt lat="43.11703500001739" lon="77.11187500018919">
    <ele>3198.0800000000004</ele>
   </trkpt>
   <trkpt lat="43.11657" lon="77.1119">
    <ele>3181.5200000000004</ele>
   </trkpt>
   <trkpt lat="43.1163" lon="77.11198">
    <ele>3171.58</ele>
   </trkpt>
   <trkpt lat="43.11609000000001" lon="77.11209000000001">
    <ele>3164.82</ele>
   </trkpt>
   <trkpt lat="43.115415000014856" lon="77.11222000144527">
    <ele>3162.9</ele>
   </trkpt>
   <trkpt lat="43.114740000000005" lon="77.11235">
    <ele>3165.65</ele>
   </trkpt>
   <trkpt lat="43.114153334040466" lon="77.11205999442741">
    <ele>3167.6800000000003</ele>
   </trkpt>
   <trkpt lat="43.11356666734862" lon="77.11176999441504">
    <ele>3170.6600000000003</ele>
   </trkpt>
   <trkpt lat="43.11298" lon="77.11148">
    <ele>3179.9600000000005</ele>
   </trkpt>
   <trkpt lat="43.11309000000001" lon="77.11125000000001">
    <ele>3182.26</ele>
   </trkpt>
  </trkseg>
 </trk>
</gpx>
